code,dealerId,name,url,regionId,state,lat,long,address1,city,zip,phone
01007,01007,Bill Penney Toyota,https://www.billpenneytoyota.com,50,AL,34.737385,-86.65119,"4808 University Dr., N.W.",Huntsville,35816,(256) 837-1111
01033,01033,McKinnon Toyota,https://www.mckinnontoyota.com,9999,AL,32.886596,-86.621391,235 Price Drive,Clanton,35046,(205) 755-3430
01053,01053,Toyota of Dothan,https://www.toyotaofdothan.com,50,AL,31.192701,-85.408607,2285 Ross Clark Circle,Dothan,36301,(334) 794-0741
01059,01059,Serra Toyota,https://www.serratoyota.com,50,AL,33.620794,-86.685932,1300 Center Point Parkway,Birmingham,35215,(205) 838-4400
01061,01061,Limbaugh Toyota,https://www.limbaughtoyota.com,50,AL,33.507035,-86.881857,2200 Avenue T,Birmingham,35218,(205) 780-0500
01064,01064,Sunny King Toyota,https://www.sunnykingtoyota.com,50,AL,33.613976,-85.776722,2570 U.S. Highway 78 East,Anniston,36207,(256) 835-0800
01071,01071,Serra Toyota of Decatur,https://www.toyotaofdecatur.com,50,AL,34.55964,-86.988212,309 Beltline Place,Decatur,35603,(256) 340-0330
01073,01073,Palmer's Airport Toyota,https://www.palmerstoyota.com,50,AL,30.679936,-88.22569,470 Schillinger Road,Mobile,36695,(251) 639-0800
01077,01077,Springhill Toyota,https://www.springhilltoyota.com,50,AL,30.655752,-88.117307,3062 Government Blvd.,Mobile,36606,(251) 450-1000
01079,01079,High Country Toyota,https://www.highcountrytoyota.com,50,AL,34.632242,-86.046198,23030 John T. Reid Parkway,Scottsboro,35769,(256) 259-1159
01080,01080,Bondy's Enterprise Toyota,https://www.bondystoyota.com,50,AL,31.310865,-85.830622,519 Boll Weevil Circle,Enterprise,36330,(334) 347-5200
01083,01083,Sand Mountain Toyota,https://www.sandmountaintoyota.com,50,AL,34.285907,-86.236249,9167 US Highway 431 N,Albertville,35950,(256) 878-0789
01084,01084,Eastern Shore Toyota,https://www.easternshoretoyota.com,50,AL,30.660655,-87.855273,29732 Frederick Blvd.,Daphne,36526,(251) 625-1919
01085,01085,Tuscaloosa Toyota,https://www.tuscaloosatoyota.com,50,AL,33.169602,-87.494118,"3325 Skyland Blvd, East",Tuscaloosa,35405,(205) 553-3325
01086,01086,TeamOne Toyota of Gadsden,https://www.teamonetoyota.com,50,AL,33.976433,-86.060348,927 West Grand Avenue,Rainbow City,35906,(256) 413-4456
01089,01089,Toyota of Sylacauga,https://www.toyotaofsylacauga.com,50,AL,33.188303,-86.304114,39765 Highway 280,Sylacauga,35150,(256) 245-5251
01090,01090,Hoover Toyota,https://www.hoovertoyota.com,50,AL,33.359145,-86.832572,2686 Highway 150,Hoover,35244,(205) 978-2600
01091,01091,Bill Penney Toyota of Jasper,https://www.billpenneytoyotaofjasper.com,50,AL,33.839028,-87.233016,3815 Hwy 78 E,Jasper,35501,(205) 221-3939
01092,01092,Toyota of Montgomery,https://www.toyotamontgomery.com,50,AL,32.366981,-86.210045,911 Eastern Blvd.,Montgomery,36117,(334) 272-7147
01093,01093,Singing River Toyota,https://www.singingrivertoyota.com,50,AL,34.713889,-87.668496,5100 US-43,Tuscumbia,35674,(256) 383-3611
01094,01094,Allen Turner Toyota of Auburn,https://www.allenturnertoyotaofauburn.com/,9999,AL,32.560407,-85.498678,170 West Creek Parkway,Auburn,36830,(334) 887-1100
01095,01095,Toyota of Montgomery,https://www.toyotamontgomery.com,9999,AL,32.366981,-86.210045,911 Eastern Blvd.,Montgomery,36117,(334) 272-7147
02010,02010,Precision Toyota of Tucson,https://www.pretoy.com,15,AZ,32.28701,-110.983221,700 West Wetmore Road,Tucson,85705,(520) 795-5565
02016,02016,Big Two Toyota of Chandler,https://www.bigtwotoyota.com,15,AZ,33.28793,-111.790768,1250 S. Gilbert Road,Chandler,85286,(480) 898-6000
02021,02021,Desert Toyota of Tucson,https://www.deserttoyota.com,15,AZ,32.205909,-110.839698,7150 East 22nd Street,Tucson,85710,(520) 296-8535
02036,02036,Camelback Toyota,https://www.camelbacktoyota.com,15,AZ,33.510892,-112.047885,1550 East Camelback Road,Phoenix,85014,(602) 264-2841
02037,02037,Alexander Toyota,https://www.myalexandertoyota.com,15,AZ,32.668967,-114.61019,889 E. 32nd Street,Yuma,85365,(928) 344-1170
02038,02038,Hatch Toyota,https://www.hatchtoyota.com,15,AZ,34.258903,-110.013916,1051 North Automall Parkway,Show Low,85901,(928) 537-5755
02042,02042,AutoNation Toyota Tempe,https://www.autonationtoyotatempe.com,15,AZ,33.34441,-111.97019,7970 South Autoplex Loop,Tempe,85284,(480) 420-3425
02044,02044,Right Toyota,https://www.righttoyota.com,15,AZ,33.63494,-111.91403,7701 E Frank Lloyd Wright,Scottsdale,85260,(480) 778-2200
02048,02048,Anderson Toyota,https://www.andersontoyotaaz.com,15,AZ,34.573952,-114.367242,6510 Showplace Avenue,Lake Havasu City,86404,(928) 764-2886
02050,02050,Avondale Toyota,https://www.avondaletoyota.com,15,AZ,33.459983,-112.276095,10005 West Papago Frwy.,Avondale,85323,(623) 936-7700
02051,02051,Earnhardt Toyota,https://www.earnhardttoyota.com,15,AZ,33.38821,-111.69959,6136 East Autoloop Avenue,Mesa,85206,(480) 807-9700
02052,02052,Findlay Toyota Flagstaff,https://www.findlaytoyotaflagstaff.net,15,AZ,35.224093,-111.571421,5030 East Marketplace Dr,Flagstaff,86004,(928) 779-2445
02053,02053,Berge Toyota,https://www.bergetoyota.com,15,AZ,33.436079,-111.870303,2020 W Riverview Auto Dr,Mesa,85201,(480) 655-4400
02054,02054,Toyota of Surprise,https://www.toyotaofsurprise.com,15,AZ,33.6074,-112.421031,13543 N. Auto Show Avenue,Surprise,85388,(623) 312-3100
02055,02055,Findlay Toyota Prescott,https://www.findlaytoyotaprescott.com,15,AZ,34.605331,-112.455034,3200 Willow Creek Road,Prescott,86301,(928) 443-8300
02056,02056,Sierra Toyota,https://www.sierratoyota-az.com,15,AZ,31.554366,-110.273512,2596 Fry Boulevard,Sierra Vista,85635,(520) 458-8880
02057,02057,Bell Road Toyota,https://www.bellroadtoyota.com,15,AZ,33.64062,-112.103545,2020 West Bell Road,Phoenix,85023,(602) 863-0600
02058,02058,Larry H. Miller Toyota Peoria,https://www.larrymillertoyota.com,15,AZ,33.637549,-112.244232,8633 West Bell Road,Peoria,85382,(623) 876-3400
03024,03024,Magness Toyota,https://www.magnesstoyota.com,60,AR,36.264529,-93.135271,1407 Highway 62-65 412 NO,Harrison,72601,(870) 741-5451
03049,03049,Ryburn Toyota,https://www.ryburntoyota.com,60,AR,33.626689,-91.803016,156 Highway 425 South,Monticello,71655,(870) 367-5353
03050,03050,J. Pauley Toyota,https://www.jpauleytoyota.com,60,AR,35.323328,-94.396463,6200 South 36th Street,Fort Smith,72908,(479) 646-7800
03053,03053,"Phil Wright Toyota, Co.",https://www.philwrighttoyota.com,60,AR,35.276732,-93.09056,3200 East Main Street,Russellville,72802,(479) 968-1555
03058,03058,Trotter Toyota,https://www.trottertoyota.com,60,AR,34.205521,-91.970012,3010 Auto Drive,Pine Bluff,71601,(870) 534-7521
03065,03065,Gregg Orr Toyota,https://www.orrtoyota.com,60,AR,34.445749,-93.089124,4709 Central Avenue,Hot Springs,71913,(501) 520-0000
03066,03066,Toyota of Fayetteville,https://www.toyotaoffayetteville.com,60,AR,36.108448,-94.17794,1352 W. Showroom Drive,Fayetteville,72704,(479) 695-7600
03067,03067,Central Toyota,https://www.centraltoyota.com,60,AR,35.801135,-90.67033,3305 Stadium Blvd.,Jonesboro,72404,(870) 268-5418
03068,03068,Caldwell Toyota,https://www.caldwelltoyota.com,60,AR,35.058817,-92.418366,1355 Exchange Avenue,Conway,72032,(501) 327-3900
03069,03069,Orr Toyota,https://www.orrtoyotaofsearcy.com,60,AR,35.232014,-91.707216,1745 Janet Drive,Searcy,72143,(501) 281-4620
03072,03072,Landers Toyota,https://www.landerstoyota.com,60,AR,34.71116,-92.399489,10825 Colonel Glenn Road,Little Rock,72204,(501) 568-5800
03073,03073,Landers Toyota NWA,https://www.landerstoyotanwa.com,60,AR,36.331586,-94.18568,411 South Metro Parkway,Rogers,72758,(479) 845-1444
03074,03074,Mark McLarty Toyota,https://www.markmclartytoyota.com,60,AR,34.796997,-92.217703,4336 Landers Road,North Little Rock,72117,(501) 753-0400
03075,03075,Red River Toyota,https://www.redrivertoyota.com,60,AR,35.24569,-90.782425,1903 Falls Boulevard,Wynne,72396,(870) 238-7770
03076,03076,Karl Malone Toyota Chevrolet,https://www.karlmalonetoyotaeldorado.com,60,AR,33.208117,-92.686146,1830 West Hillsboro,El Dorado,71730,(870) 862-2900
04007,04007,Toyota of Berkeley,https://www.toyotaofberkeley.com,12,CA,37.865604,-122.268199,2400 Shattuck Avenue,Berkeley,94704,(510) 845-2530
04013,04013,Hamer Toyota,https://www.hamertoyota.com,9999,CA,34.271476,-118.4677,11041 Sepulveda Blvd,Mission Hills,91345,(818) 365-9621
04017,04017,Jimmy Vasser Toyota,https://www.jimmyvassertoyota.com,12,CA,38.290405,-122.276327,466 Soscol Avenue,Napa,94559,(707) 927-4466
04022,04022,Hanlees Hilltop Toyota,https://www.hanleesrichmondtoyota.com,12,CA,37.98458,-122.32322,3233 Auto Plaza,Richmond,94806,(510) 243-2020
04033,04033,Cabe Toyota Long Beach,https://www.cabetoyota.com,9999,CA,33.809038,-118.189678,2849 Long Beach Blvd.,Long Beach,90806,(562) 595-7411
04044,04044,Larry H. Miller Toyota Corona,https://www.lhmtoyotacorona.com,11,CA,33.878384,-117.599106,1700 West 6th Street,Corona,92882,(951) 734-6020
04046,04046,Toyota Salinas,https://www.toyotasalinas.com,12,CA,36.717533,-121.662462,700 Auto Center Circle,Salinas,93907,(831) 444-0700
04051,04051,Toyota Walnut Creek,https://www.toyotawc.com,12,CA,37.9089,-122.0618,2100 North Broadway,Walnut Creek,94596,(925) 933-7440
04053,04053,Toyota of Clovis,https://www.toyotaofclovis.com,12,CA,36.80928,-119.72947,895 West Shaw Avenue,Clovis,93612,(559) 291-5544
04057,04057,Larry H. Miller Toyota Lemon Grove,https://www.lhmtoyotalemongrove.com,11,CA,32.739737,-117.052313,6800 Federal Boulevard,Lemon Grove,91945,(619) 287-2400
04061,04061,Toyota of San Bernardino,https://www.toyotasb.com,9999,CA,34.073592,-117.299363,650 Auto Center Drive,San Bernardino,92408,(909) 381-4444
04067,04067,Envision Toyota of Milpitas,https://www.toyotamilpitas.com,12,CA,37.417701,-121.911602,950 Thompson Street,Milpitas,95035,(408) 240-1400
04070,04070,Freeman Toyota,https://www.freeman-toyota.com,12,CA,38.407751,-122.716789,2875 Corby Avenue,Santa Rosa,95407,(707) 542-1791
04072,04072,Hansel Toyota,https://www.hanseltoyota.com,12,CA,38.26495,-122.662567,1125 Auto Center Drive,Petaluma,94952,(707) 769-2333
04073,04073,Novato Toyota,https://www.novatotoyota.com,12,CA,38.092567,-122.55655,115 Vintage Way,Novato,94945,(415) 897-3191
04076,04076,Toyota of The Desert,https://www.toyotaofthedesert.com,11,CA,33.78456,-116.473677,68105 Kyle Road,Cathedral City,92234,(760) 328-0871
04077,04077,Folsom Lake Toyota,https://www.folsomlaketoyota.com,12,CA,38.636483,-121.200618,12747 Folsom Blvd.,Folsom,95630,(916) 355-1500
04079,04079,Toyota of Anaheim,https://www.toyotaofanaheim.com,9999,CA,33.852505,-117.941912,1331 N. Euclid Street,Anaheim,92801,(714) 879-6300
04080,04080,Penske Toyota,https://www.pensketoyotadowney.com,9999,CA,33.933314,-118.119847,9136 E. Firestone Blvd,Downey,90241,(562) 904-5600
04087,04087,Toyota of Huntington Beach,https://www.toyotaofhb.com,9999,CA,33.687844,-117.988985,18881 Beach Blvd.,Huntington Beach,92648,(714) 594-7493
04088,04088,San Francisco Toyota,https://www.sftoyota.com,12,CA,37.781383,-122.460253,3800 Geary Blvd,San Francisco,94118,(415) 750-8300
04094,04094,Bob Smith Toyota,https://www.bobsmithtoyota.com,9999,CA,34.231604,-118.251556,3333 Foothill Blvd.,La Crescenta,91214,(818) 248-9363
04095,04095,Toyota of Poway,https://www.toyotaofpoway.com,9999,CA,32.955905,-117.035818,13631 Poway Road,Poway,92064,(858) 486-2900
04101,04101,Crown Toyota,https://www.crowntoyota.com,9999,CA,34.052119,-117.546812,1201 Kettering Drive,Ontario,91761,(909) 390-9700
04102,04102,Toyota of Hollywood,https://www.hollywoodtoyota.com,9999,CA,34.101528,-118.321183,6920 Sunset Blvd.,Los Angeles,90028,(323) 817-0282
04104,04104,Toyota Sunnyvale,https://www.toyotasunnyvale.com,12,CA,37.370667,-122.044083,898 W. El Camino Real,Sunnyvale,94087,(408) 245-6640
04108,04108,Beach Cities Toyota Westminster,https://www.beachcitiestoyotawestminster.com,9999,CA,33.740382,-117.98926,15300 Beach Boulevard,Westminster,92683,(714) 894-3322
04109,04109,Toyota of Glendora,https://www.toyotaofglendora.com,9999,CA,34.117854,-117.826725,1949 Auto Centre Drive,Glendora,91740,(909) 305-2000
04115,04115,Puente Hills Toyota,https://www.puentehillstoyota.com,9999,CA,33.999618,-117.933456,17070 Gale Avenue,City Of Industry,91748,(626) 964-7100
04118,04118,Toyota of Santa Barbara,https://www.toyotaofsantabarbara.com,11,CA,34.435356,-119.821038,5611 Hollister Avenue,Goleta,93117,(805) 967-5611
04119,04119,Victory Toyota of San Bruno,https://www.victorytoyotasanbruno.com,12,CA,37.630077,-122.411025,222 E. San Bruno Avenue,San Bruno,94066,(650) 635-1000
04120,04120,Lodi Toyota,https://www.loditoyota.com,12,CA,38.121242,-121.256234,1020 S. Beckman Road,Lodi,95240,(209) 642-4022
04135,04135,I-10 Toyota,https://www.i-10toyota.com,11,CA,33.757,-116.288214,78-980 Varner Road,Indio,92203,(760) 772-3300
04136,04136,Longo Toyota,https://www.longotoyota.com,9999,CA,34.069226,-118.023705,3534 North Peck Road,El Monte,91731,(626) 580-6000
04137,04137,South Coast Toyota,https://www.southcoasttoyota.com,9999,CA,33.645263,-117.918475,1966 Harbor Blvd.,Costa Mesa,92627,(949) 722-2000
04140,04140,Madera Toyota,https://www.maderatoyota.com,12,CA,36.97806,-120.07478,1300 Country Club Drive,Madera,93638,(559) 674-9000
04142,04142,Freeway Toyota of Gilroy,https://www.freewaytoyotagilroy.com,12,CA,36.99926,-121.559408,6800 Automall Parkway,Gilroy,95020,(408) 848-8000
04143,04143,City Toyota,https://www.citytoyota.com,12,CA,37.686383,-122.469427,255 San Pedro Road,Daly City,94014,(650) 755-5500
04151,04151,Jim Bagan Toyota,https://www.jimbagantoyota.com,12,CA,38.91084,-120.010058,1855 Lake Tahoe Boulevard,South Lake Tahoe,96150,(530) 541-2060
04154,04154,Toyota of North Hollywood,https://www.northhollywoodtoyota.com,9999,CA,34.153856,-118.367637,4606 Lankershim Boulevard,North Hollywood,91602,(818) 508-2900
04158,04158,Oroville Toyota,https://www.orovilletoyota.com,12,CA,39.501892,-121.559372,1250 Oro Dam Boulevard,Oroville,95965,(530) 533-4626
04159,04159,South Bay Toyota,https://www.southbaytoyota.com,9999,CA,33.863338,-118.308931,18416 S. Western Avenue,Gardena,90248,(310) 323-7800
04163,04163,Lithia Toyota of Redding,https://www.lithiatoyotaredding.com,12,CA,40.57144,-122.367098,250 E. Cypress Avenue,Redding,96002,(530) 223-2600
04167,04167,Thousand Oaks Toyota,https://www.totoyota.com,9999,CA,34.1742,-118.843368,2401 E. Thousand Oaks Blvd.,Thousand Oaks,91362,(818) 889-8919
04169,04169,Tracy Toyota,https://www.tracytoyota.com,12,CA,37.758071,-121.463299,2895 North Naglee Road,Tracy,95304,(209) 834-1111
04176,04176,Concord Toyota,https://www.concordtoyota.com,12,CA,37.97845,-122.058917,1090 Concord Avenue,Concord,94520,(925) 682-7131
04179,04179,Blackstone Toyota of Fresno,https://www.blackstonetoyota.com,12,CA,36.82311,-119.79148,50 W. Bullard Avenue,Fresno,93704,(559) 431-6000
04180,04180,Toyota Certified Center Santee,https://www.toyotacertifiedcenterofsantee.com,9999,CA,32.837789,-116.999683,8871 Fanita Drive,Santee,92071,(619) 596-7700
04181,04181,Toyota of Selma,https://www.toyotaofselma.com,12,CA,36.581667,-119.636667,3480 Floral Avenue,Selma,93662,(559) 891-2727
04185,04185,Thompson's Toyota of Placerville,https://www.thompsonstoyota.com,12,CA,38.722583,-120.827582,140 Forni Road,Placerville,95667,(530) 622-6232
04197,04197,Toyota of Whittier,https://www.toyotaofwhittier.com,9999,CA,33.952436,-118.013411,14577 East Whittier Blvd.,Whittier,90605,(562) 698-2591
04201,04201,Elk Grove Toyota,https://www.elkgrovetoyota.com,12,CA,38.406883,-121.389,9640 W. Stockton Blvd.,Elk Grove,95757,(916) 405-8000
04210,04210,Fletcher Jones Toyota of Carson,https://www.toyotacarson.com,9999,CA,33.824426,-118.249488,1333 E 223rd Street,Carson,90745,(310) 522-2300
04211,04211,Envision Toyota of West Covina,https://www.toyotawestcovina.com,9999,CA,34.070892,-117.906441,205 N. Citrus Street,West Covina,91791,(626) 859-7400
04213,04213,Putnam Toyota,https://www.putnamtoyota.com,12,CA,37.577633,-122.3404,50 California Drive,Burlingame,94010,(650) 340-6900
04215,04215,Visalia Toyota,https://www.visaliatoyota.com,12,CA,36.321994,-119.276239,922 S. Ben Maddox Way,Visalia,93292,(559) 627-4777
04221,04221,Santa Cruz Toyota,https://www.santacruztoyota.com,12,CA,36.982117,-121.96215,4200 Auto Plaza Drive,Capitola,95010,(831) 462-4200
04222,04222,Toyota Carlsbad,https://www.toyotacarlsbad.com,9999,CA,33.132685,-117.326399,5424 Paseo Del Norte,Carlsbad,92008,(760) 438-2000
04226,04226,Stevens Creek Toyota,https://www.stevenscreektoyota.com,12,CA,37.322933,-121.97625,4202 Stevens Creek Blvd.,San Jose,95129,(408) 984-1234
04228,04228,Simi Valley Toyota,https://www.simivalleytoyota.com,9999,CA,34.27858,-118.778449,2380 First Street,Simi Valley,93065,(805) 526-7500
04232,04232,Toyota San Luis Obispo,https://www.toyota-slo.com,11,CA,35.247636,-120.68307,12350 Los Osos Valley Rd.,San Luis Obispo,93405,(805) 543-7001
04236,04236,Toyota of Hemet,https://www.toyotahemet.com,9999,CA,33.741601,-117.030352,350 Carriage Circle,Hemet,92545,(951) 658-3188
04237,04237,Roseville Toyota,https://www.rosevilletoyota.com,12,CA,38.751146,-121.25851,700 Automall Drive,Roseville,95661,(916) 527-6300
04244,04244,Northridge Toyota,https://www.northridgetoyota.com,9999,CA,34.235252,-118.560235,19550 Nordhoff Street,Northridge,91324,(818) 734-5600
04247,04247,Toyota of Orange,https://www.toyotaoforange.com,9999,CA,33.811122,-117.83594,1400 N Tustin,Orange,92867,(714) 639-6750
04253,04253,Hanlees Fairfield Toyota,https://www.hanleesfairfieldtoyota.com,12,CA,38.24415,-122.08015,2575 Auto Mall Parkway,Fairfield,94533,(707) 920-2700
04254,04254,Toyota of Ridgecrest,https://www.toyotaridgecrest.com,11,CA,35.627281,-117.670003,321 N China Lake Blvd,Ridgecrest,93555,(760) 375-4401
04256,04256,AutoNation Toyota Hayward,https://www.autonationtoyotahayward.com,12,CA,37.661083,-122.074983,24773 Mission Blvd.,Hayward,94544,(510) 224-4854
04260,04260,Perry Motors Toyota,https://www.perrymotorstoyota.com,11,CA,37.359155,-118.395106,310 South Main St,Bishop,93514,(760) 872-4141
04262,04262,Victory Toyota,https://www.victorytoyota.com,12,CA,36.611283,-121.847537,5 Heitzinger Plaza,Seaside,93955,(831) 393-3020
04263,04263,Valley Hi Toyota,https://www.valleyhitoyota.com,9999,CA,34.517518,-117.31895,14612 Valley Center Drive,Victorville,92395,(760) 241-6484
04265,04265,Future Toyota of Yuba City,https://www.futuretoyotayubacity.com,12,CA,39.140599,-121.654589,955 Harter Parkway,Yuba City,95993,(530) 673-5661
04273,04273,Bill Wright Toyota,https://www.billwrighttoyota.com,11,CA,35.308013,-119.035187,5100 Gasoline Alley Drive,Bakersfield,93313,(661) 398-8697
04277,04277,North Bakersfield Toyota,https://www.northbakersfieldtoyota.com,11,CA,35.437589,-119.076688,19651 Industry Prkwy Dr.,Bakersfield,93308,(661) 615-1100
04278,04278,Mossy Toyota,https://www.mossytoyota.com,9999,CA,32.804247,-117.217444,4555 Mission Bay Drive,San Diego,92109,(858) 581-4000
04279,04279,Capistrano Valley Toyota,https://www.capovalleytoyota.com,9999,CA,33.476708,-117.674391,33395 Camino Capistrano,San Juan Capistrano,92675,(949) 493-4100
04280,04280,Livermore Toyota,https://www.livermoretoyota.com,12,CA,37.712082,-121.722054,6200 Northfront Road,Livermore,94551,(925) 724-2800
04282,04282,Toyota of Escondido,https://www.toyotaescondido.com,9999,CA,33.133405,-117.084564,231 Lincoln Parkway,Escondido,92026,(760) 746-0601
04283,04283,Toyota of Pasadena,https://www.toyotapasadena.com,9999,CA,34.150086,-118.075645,3600 E. Foothill Blvd.,Pasadena,91107,(626) 795-9787
04284,04284,Claremont Toyota,https://www.claremonttoyota.com,9999,CA,34.081083,-117.724546,601 Auto Center Drive,Claremont,91711,(909) 625-1500
04285,04285,Envision Toyota of Norwalk,https://www.norwalktoyota.com,9999,CA,33.916434,-118.089192,11404 E Imperial Highway,Norwalk,90650,(562) 868-0035
04288,04288,Chuck Patterson Toyota Dodge,https://www.chuckpattersontoyota.net,12,CA,39.757874,-121.860028,200 East Avenue,Chico,95926,(530) 895-1771
04290,04290,Toyota of Santa Maria,https://www.toyotasm.com,11,CA,34.929318,-120.419655,1643 S. Bradley Road,Santa Maria,93454,(805) 928-3881
04292,04292,Toyota of Vallejo,https://www.toyotavallejo.com,12,CA,38.13672,-122.21203,201 Auto Mall Parkway,Vallejo,94591,(707) 552-4545
04294,04294,United Toyota,https://www.unitedtoyotaimperial.com,11,CA,32.822467,-115.570956,2351 Highway 86,Imperial,92251,(760) 353-9300
04297,04297,Keyes Toyota,https://www.keyestoyota.com,9999,CA,34.176716,-118.449146,5855 Van Nuys Blvd,Van Nuys,91401,(818) 305-6926
04303,04303,Toyota Santa Monica,https://www.toyotasantamonica.com,9999,CA,34.022997,-118.486887,1230 Santa Monica Blvd.,Santa Monica,90404,(424) 567-7599
04308,04308,Wondries Toyota,https://www.wondriestoyota.com,9999,CA,34.09172,-118.139042,1439 West Main Street,Alhambra,91801,(626) 289-8000
04315,04315,Marina del Rey Toyota,https://www.marinadelreytoyota.com,9999,CA,33.983406,-118.441489,4636 Lincoln Boulevard,Marina Del Rey,90292,(866) 823-8348
04317,04317,Downtown Toyota of Oakland,https://www.downtowntoyota.com,12,CA,37.829983,-122.255401,4145 Broadway Street,Oakland,94611,(510) 547-4436
04324,04324,Toyota Town,https://www.toyotaofstockton.com,12,CA,38.0204,-121.28766,2150 East Hammer Lane,Stockton,95210,(209) 473-2513
04333,04333,Toyota of Redlands,https://www.toyotaofredlands.com,9999,CA,34.064502,-117.196296,921 New York Street,Redlands,92373,(909) 793-0300
04338,04338,Fremont Toyota,https://www.fremonttoyota.com,12,CA,37.501717,-121.977917,5851 Cushing Parkway,Fremont,94538,(510) 252-5100
04344,04344,Ventura Toyota,https://www.venturatoyota.com,11,CA,34.246782,-119.202545,6360 Auto Center Drive,Ventura,93003,(805) 650-0510
04353,04353,Toyota Chula Vista,https://www.toyotachulavista.com,9999,CA,32.594271,-117.026206,650 Main Street,Chula Vista,91911,(619) 591-0900
04356,04356,Toyota Place,https://www.toyotaplace.com,9999,CA,33.766636,-117.959798,9670 Trask Avenue,Garden Grove,92844,(877) 289-5612
04359,04359,Moss Bros. Toyota,https://www.mossbrostoyotamorenovalley.com,9999,CA,33.936418,-117.177692,12630 Motor Way,Moreno Valley,92555,(951) 247-8000
04362,04362,Dublin Toyota,https://www.dublintoyota.com,12,CA,37.702703,-121.880409,4321 Toyota Drive,Dublin,94568,(925) 829-7700
04364,04364,Maita's Toyota of Sacramento,https://www.maitatoyota.com,12,CA,38.629117,-121.403195,2500 Auburn Blvd.,Sacramento,95821,(916) 481-0855
04374,04374,Antioch Toyota,https://www.antiochtoyota.com,12,CA,38.00825,-121.8319,1817 Auto Center Drive,Antioch,94509,(925) 778-4800
04386,04386,Thurston Toyota,https://www.thurstontoyota.com,12,CA,39.188101,-123.209669,2800 North State Street,Ukiah,95482,(707) 462-8818
04388,04388,Toyota of Riverside,https://www.toyotaofriverside.com,9999,CA,33.930282,-117.410872,7870 Indiana Avenue,Riverside,92504,(951) 687-1622
04389,04389,Hanlees Toyota,https://www.hanleesdavistoyota.com,12,CA,38.551033,-121.699937,4202 Chiles Road,Davis,95616,(530) 753-3352
04426,04426,Capitol Toyota,https://www.capitoltoyota.com,12,CA,37.276117,-121.870433,775 Capitol Exprsway Auto Mall,San Jose,95136,(408) 267-0500
04454,04454,Magnussen's Toyota of Palo Alto,https://www.toyotapaloalto.com,12,CA,37.415367,-122.102617,690 San Antonio Road,Palo Alto,94306,(650) 494-2100
04456,04456,Toyota of El Cajon,https://www.toyotaofelcajon.com,9999,CA,32.80323,-116.974804,965 Arnele Avenue,El Cajon,92020,(619) 270-3000
04487,04487,Ammaar's Toyota Vacaville,https://www.toyotavacaville.com,12,CA,38.3733,-121.950717,500 Orange Drive,Vacaville,95687,(707) 446-7000
04508,04508,Manhattan Beach Toyota,https://www.manhattanbeachtoyota.com,9999,CA,33.889706,-118.395578,1500 N. Sepulveda Blvd,Manhattan Beach,90266,(310) 546-4848
04536,04536,Norm Reeves Toyota San Diego,https://www.normreevestoyotasandiego.com,9999,CA,32.78242,-117.100757,5910 Mission Gorge Road,San Diego,92120,(619) 280-4100
04541,04541,Merced Toyota,https://www.mercedtoyota.com,12,CA,37.306201,-120.505082,1400 Auto Center Drive,Merced,95340,(209) 725-9000
04543,04543,Tustin Toyota,https://www.tustintoyota.com,9999,CA,33.726358,-117.800865,36 Auto Center Drive,Tustin,92782,(714) 832-3111
04563,04563,Toyota Marin,https://www.toyotamarin.com,12,CA,37.968017,-122.51845,445 Francisco Boulevard East,San Rafael,94901,(415) 524-7770
04576,04576,Kearny Mesa Toyota,https://www.kearnymesatoyota.com,9999,CA,32.826166,-117.145374,4910 Kearny Mesa Road,San Diego,92111,(858) 430-2600
04583,04583,Mid-City Toyota,https://www.mid-citytoyota.com,12,CA,40.808189,-124.115599,4800 N. Highway 101,Eureka,95501,(707) 443-4871
04636,04636,AutoNation Toyota Cerritos,https://www.autonationtoyotacerritos.com,9999,CA,33.861891,-118.099421,18700 Studebaker Road,Cerritos,90703,(562) 860-6561
04638,04638,AutoNation Toyota Irvine,https://www.autonationtoyotairvine.com,9999,CA,33.640481,-117.736842,9101 Research Drive,Irvine,92618,(949) 287-8766
04640,04640,AutoNation Toyota Buena Park,https://www.autonationtoyotabuenapark.com,9999,CA,33.866837,-117.997129,6400 Beach Blvd.,Buena Park,90621,(714) 627-5562
04649,04649,Toyota of Glendale,https://www.toyotaofglendale.com,9999,CA,34.130207,-118.254733,1260 South Brand Blvd.,Glendale,91204,(818) 244-4196
04660,04660,Toyota of Berkeley Certified Service Center,https://www.toyotaofberkeleyservicecenter.com,12,CA,37.885769,-122.307497,1025 Eastshore Highway,Albany,94710,(510) 845-7500
04662,04662,Frontier Toyota,https://www.frontiertoyota.com,9999,CA,34.418263,-118.549957,23621 Creekside Road,Valencia,91355,(661) 255-7575
04676,04676,Freeway Toyota of Hanford,https://www.freewaytoyota.com,12,CA,36.319946,-119.675953,1835 Glendale Avenue,Hanford,93230,(559) 587-3500
04682,04682,Auburn Toyota,https://www.auburntoyota.com,12,CA,38.91795,-121.081532,800 Nevada Street,Auburn,95603,(530) 885-8484
04688,04688,One Toyota of Oakland,https://www.onetoyota.com,12,CA,37.740045,-122.199774,8181 Oakport Street,Oakland,94621,(510) 569-1111
04713,04713,Santa Margarita Toyota,https://www.santamargaritatoyota.com,9999,CA,33.632709,-117.606751,22722 Avenida Empresa,Rancho Santa Margarita,92688,(949) 766-2000
04726,04726,West Coast Toyota of Long Beach,https://www.westcoasttoyotalb.com,9999,CA,33.804587,-118.152444,3399 E. Willow Street,Long Beach,90806,(562) 494-4444
04734,04734,Toyota of Lompoc,https://www.toyotaoflompoc.com,11,CA,34.639415,-120.455984,203 East Ocean Avenue,Lompoc,93436,(805) 736-1295
04737,04737,Toyota of Lancaster,https://www.toyotaoflancaster.com,9999,CA,34.670263,-118.152551,43301 12th Street West,Lancaster,93534,(661) 948-0731
04739,04739,Toyota of Downtown LA,https://www.toyotaofdowntownla.com,9999,CA,34.033649,-118.272743,1901 S. Figueroa Street,Los Angeles,90007,(213) 986-2011
04748,04748,DCH Toyota of Torrance,https://www.torrancetoyota.com,9999,CA,33.795652,-118.337747,2909 Pacific Coast Hwy,Torrance,90505,(310) 325-7500
04772,04772,Culver City Toyota,https://www.culvercitytoyota.com,9999,CA,34.025498,-118.39131,9077 Washington Blvd.,Culver City,90232,(310) 559-3777
04786,04786,Mojave Toyota of Barstow,https://www.mojavetoyotaofbarstow.com,11,CA,34.898162,-117.03406,631 W  Main St,Barstow,92311,(760) 256-3502
04819,04819,Temecula Valley Toyota,https://www.tvtoyota.com,9999,CA,33.515729,-117.156196,26631 Ynez Road,Temecula,92591,(951) 694-0575
04844,04844,Dalton Toyota National City,https://www.toyotadalton.com,9999,CA,32.661328,-117.101458,2400 National City Blvd,National City,91950,(619) 474-5573
04990,04990,DCH Toyota of Oxnard,https://www.toyotaofoxnard.com,11,CA,34.228452,-119.153011,1631 Auto Center Drive,Oxnard,93030,(805) 988-7900
05030,05030,"Pedersen Toyota, Ltd.",https://www.pedersentoyota.com,15,CO,40.525592,-105.077488,4455 South College Avenue,Ft Collins,80525,(970) 223-3100
05043,05043,"Stapp Interstate Toyota, Inc.",https://www.interstatetoyota.com,15,CO,40.117725,-104.97839,8019 Raspberry Way,Frederick,80504,(303) 776-1743
05046,05046,Bighorn Toyota,https://www.bighorntoyota.com,15,CO,39.562797,-107.368132,130 Center Drive,Glenwood Springs,81601,(970) 945-6544
05049,05049,"Turner Toyota, Inc.",https://www.turnertoyota.com,9999,CO,38.488056,-107.852535,2262 East Main Street,Montrose,81401,(970) 249-6691
05051,05051,Pueblo Toyota,https://www.pueblotoyota.com,15,CO,38.310205,-104.639427,2220 US Highway 50 West,Pueblo,81008,(719) 543-1719
05055,05055,Western Slope Toyota,https://www.westernslopetoyota.com,9999,CO,39.105268,-108.63413,2264 Highway 6 and 50,Grand Junction,81505,(970) 243-0843
05057,05057,"Hellman Toyota, Inc.",https://www.hellmantoyota.com,15,CO,38.748901,-108.062082,750 E. Highway 92,Delta,81416,(970) 874-4444
05063,05063,AutoNation Toyota Arapahoe,https://www.autonationtoyotaarapahoe.com,15,CO,39.5959,-104.8655,10531 East Arapahoe Road,Centennial,80112,(303) 578-6111
05067,05067,Mountain States Toyota,https://www.mountainstatestoyota.com,15,CO,39.8243,-104.9906,201 West 70th Avenue,Denver,80221,(303) 302-8888
05069,05069,Phil Long Toyota,https://www.phillongtoyota.com,15,CO,37.171434,-104.5063,105 E. Cedar Street,Trinidad,81082,(719) 845-2700
05070,05070,Durango Toyota,https://www.durangotoyota.com,15,CO,37.230452,-107.861592,1200 Carbon Junction,Durango,81301,(970) 385-4822
05071,05071,McDonald Toyota,https://www.mcdonaldtoyotagreeley.com,15,CO,40.395089,-104.757691,4732 West 26th Street,Greeley,80634,(970) 339-3900
05072,05072,McDonald Toyota of Fort Morgan,https://www.mcdonaldtoyotafortmorgan.com,15,CO,40.261395,-103.802768,1209 Main Street,Fort Morgan,80701,(970) 867-1400
05073,05073,Stevinson Toyota East,https://www.stevinsontoyotaeast.com,15,CO,39.7084,-104.865,444 South Havana Street,Aurora,80012,(303) 340-2170
05074,05074,Stevinson Toyota West,https://www.stevinsontoyotawest.com,15,CO,39.7285,-105.1641,780 Denver W Colorado Mills Bl,Lakewood,80401,(303) 277-0550
05075,05075,Corwin Toyota Boulder,https://www.corwintoyotaboulder.com,15,CO,40.023133,-105.241702,2465 48th Court,Boulder,80301,(303) 443-3250
05076,05076,Corwin Toyota Colorado Springs,https://www.corwintoyotacoloradosprings.com,15,CO,38.938522,-104.731042,5115 New Car Drive,Colorado Springs,80923,(719) 598-2222
05077,05077,Toyota of Colorado Springs,https://www.toyotaofcoloradosprings.com,15,CO,38.81366,-104.826286,15 East Motor Way,Colorado Springs,80905,(719) 471-3100
05078,05078,Groove Toyota,https://www.groovetoyota.com,15,CO,39.618187,-104.987643,5460 South Broadway,Englewood,80113,(303) 761-3222
05079,05079,Vista Toyota Delta,https://www.vistatoyotaco.com,9999,CO,38.748901,-108.062082,750 E. Highway 92,Delta,81416,(970) 874-4444
06002,06002,A-1 Toyota,https://www.a1toyota.com,16,CT,41.335911,-72.978339,50 Amity Road,New Haven,06515,(203) 389-1521
06015,06015,Girard Toyota-BMW,https://www.girardtoyota.com,16,CT,41.36469,-72.115931,543 Colman Street,New London,06320,(860) 447-3141
06022,06022,Stephen Toyota,https://www.stephentoyota.com,16,CT,41.696487,-72.907324,1069 Farmington Ave,Bristol,06010,(860) 584-7333
06025,06025,Lynch Toyota,https://www.lynchtoyota.com,9999,CT,41.811798,-72.514958,179 Tolland Turnpike,Manchester,06040,(860) 646-4321
06026,06026,"Gale Toyota, Inc.",https://www.galetoyota.com,9999,CT,41.994767,-72.573431,50 Palomba Drive,Enfield,06082,(860) 741-3761
06029,06029,Toyota of Greenwich,https://www.toyotaofgreenwich.com,16,CT,41.036442,-73.60276,"75 E. Putnam Ave, Box 402",Cos Cob,06807,(203) 661-5055
06032,06032,Greentree Toyota,https://www.greentreetoyota.com,16,CT,41.424973,-73.419459,87 Federal Road,Danbury,06810,(203) 730-4040
06036,06036,Middletown Toyota,https://www.middletowntoyota.com,16,CT,41.576516,-72.671736,634 Newfield Street,Middletown,06457,(860) 347-7294
06037,06037,Charles Toyota,https://www.charlestoyota.com,16,CT,41.503778,-72.091477,500 West Thames Street,Norwich,06360,(860) 889-8375
06040,06040,Colonial Toyota,https://www.colonialtoyotact.com,16,CT,41.228373,-73.069176,470 Boston Post Road,Milford,06460,(203) 878-7401
06042,06042,Hoffman Toyota,https://www.hoffmantoyota.com,16,CT,41.81845,-72.868437,"36 Albany Turnpike, Rt 44",West Simsbury,06092,(860) 651-3725
06043,06043,Westbrook Toyota,https://www.westbrooktoyota.com,16,CT,41.29035,-72.442205,80 Flat Rock Place,Westbrook,06498,(860) 388-6991
06045,06045,Torrington Toyota,https://www.torringtontoyota.com,16,CT,41.818698,-73.08815,1472 East Main Street,Torrington,06790,(860) 482-9496
06046,06046,Dowling Toyota of Litchfield,https://www.dowlingtoyota.com,16,CT,41.736171,-73.215514,451 Bantam Road,Litchfield,06759,(860) 567-0815
06047,06047,Toyota of Wallingford,https://www.wow-toyota.com,16,CT,41.479633,-72.811467,859-861 No. Colony Road,Wallingford,06492,(203) 284-7400
06049,06049,Toyota of Colchester,https://www.toyotaofcolchester.com,16,CT,41.579941,-72.341886,100 Old Hartford Road,Colchester,06415,(860) 537-2468
06050,06050,Hartford Toyota,https://www.hartfordtoyota.com,16,CT,41.789824,-72.657709,135 West Service Road,Hartford,06120,(860) 278-5411
06051,06051,New Country Toyota of Westport,https://www.newcountrywestporttoyota.com,16,CT,41.138034,-73.339284,777 Post Road East,Westport,06880,(203) 222-3300
06052,06052,Toyota of Stamford,https://www.toyotaofstamford.com,16,CT,41.055215,-73.523747,909 East Main Street,Stamford,06902,(203) 348-3751
06054,06054,Crabtree Toyota,https://www.crabtreetoyota.com,16,CT,41.56905,-73.098733,832 Straits Turnpike,Watertown,06795,(203) 283-3083
06055,06055,McGee Toyota of Putnam,https://www.mcgeetoyotaofputnam.com,9999,CT,41.925237,-71.874712,88 Providence Pike,Putnam,06260,(860) 923-4041
07008,07008,Price Toyota,https://www.pricetoyota.com,80,DE,39.674367,-75.595383,168 N. Dupont Highway,New Castle,19720,(302) 322-8600
07009,07009,Newark Toyotaworld,https://www.newarktoyotaworld.com,80,DE,39.687501,-75.745175,230 E. Cleveland Avenue,Newark,19711,(302) 368-6262
07012,07012,Hertrich Toyota,https://www.hertrichtoyota.com,80,DE,38.957724,-75.430122,1367 Bay Road,Milford,19963,(302) 422-2586
07013,07013,IG Burton Toyota of Dover,https://www.igburtontoyota.com,80,DE,39.1943,-75.548401,1536 N. DuPont Highway,Dover,19901,(302) 734-5748
09043,09043,Doral Toyota,https://www.doraltoyota.com,50,FL,25.783627,-80.354518,9775 North West 12th Str,Doral,33172,(305) 261-2181
09076,09076,Earl Stewart Toyota of North Palm Beach,https://www.earlstewarttoyota.com,50,FL,26.803403,-80.054792,1215 N. Federal Highway,Lake Park,33403,(561) 844-3461
09079,09079,Lakeland Toyota,https://www.lakelandtoyota.com,50,FL,28.077868,-81.981217,2925 Mall Hill Drive,Lakeland,33810,(863) 688-5451
09096,09096,Arlington Toyota,https://www.arlingtontoyota.com,50,FL,30.325258,-81.516694,10939 Atlantic Blvd.,Jacksonville,32225,(904) 721-3000
09107,09107,Toyota of Hollywood,https://www.toyotaofhollywood.com,50,FL,26.026041,-80.207999,1841 North State Road 7,Hollywood,33021,(844) 821-8998
09108,09108,Marianna Toyota,https://www.mariannatoyota.com,50,FL,30.780614,-85.251002,2961 Pennsylvania Avenue,Marianna,32448,(850) 526-3511
09112,09112,Germain Toyota of Naples,https://www.germaintoyotaofnaples.com,50,FL,26.291656,-81.802461,13315 Tamiami Trail North,Naples,34110,(239) 592-5550
09126,09126,Village Cadillac-Toyota,https://www.villagetoyota.com,50,FL,28.826629,-82.578924,2431 Suncoast Blvd.,Homosassa,34448,(352) 628-5100
09140,09140,Toyota of Vero Beach,https://www.verobeachtoyota.com,50,FL,27.584101,-80.377854,1075 South US Highway 1,Vero Beach,32962,(772) 569-8000
09156,09156,Ed Morse Delray Toyota,https://www.delraytoyota.com,50,FL,26.42908,-80.073352,2800 South Federal Highway,Delray Beach,33483,(561) 276-5000
09158,09158,Lipton Toyota,https://www.liptontoyota.com,50,FL,26.165544,-80.165205,1700 W. Oakland Park Blvd,Ft. Lauderdale,33311,(954) 735-1330
09163,09163,Headquarter Toyota,https://www.headquartertoyota.com,50,FL,25.925401,-80.296366,5895 N.W. 167th Street,Hialeah,33015,(305) 364-9800
09168,09168,Gettel Toyota of Bradenton,https://www.getteltoyotaofbradenton.com,50,FL,27.428316,-82.575292,6323 14th Street West,Bradenton,34207,(941) 756-5511
09174,09174,Panama City Toyota,https://www.panamacitytoyota.com,50,FL,30.175111,-85.67423,959 West 15th Street,Panama City,32401,(850) 769-3377
09175,09175,Bev Smith Toyota,https://www.bevsmithtoyota.com,50,FL,27.40061,-80.3251,3350 South US Highway 1,Ft. Pierce,34982,(772) 464-8440
09178,09178,Parks Toyota of Deland,https://www.parkstoyotaofdeland.com,50,FL,28.99834,-81.30203,1701 S. Woodland Blvd,Deland,32720,(386) 734-2184
09182,09182,Gatorland Toyota,https://www.gatorlandtoyota.com,50,FL,29.679864,-82.31909,2985 North Main Street,Gainesville,32609,(352) 376-3262
09183,09183,Toyota of Orlando,https://www.toyotaoforlando.com,50,FL,28.504436,-81.427461,3575 Vineland Road,Orlando,32811,(407) 298-4500
09189,09189,Bob Tyler Toyota,https://www.bobtylertoyota.com,50,FL,30.495991,-87.263323,7201 N. Pensacola Blvd.,Pensacola,32505,(850) 478-9999
09190,09190,Daytona Toyota,https://www.daytonatoyota.com,50,FL,29.211817,-81.043678,451 North Nova Road,Daytona Beach,32114,(386) 255-7475
09193,09193,Palm Beach Toyota,https://www.palmbeachtoyota.com,50,FL,26.674539,-80.085171,200 S. Congress Avenue,West Palm Beach,33406,(561) 712-2700
09194,09194,Phillips Toyota,https://www.phillipstoyota.com,50,FL,28.83155,-81.813128,8629 U.S. Highway 441,Leesburg,34788,(352) 728-2030
09196,09196,AutoNation Toyota Pinellas Park,https://www.autonationtoyotapinellaspark.com,50,FL,27.84923,-82.69029,8501 U.S. Hwy 19 North,Pinellas Park,33781,(727) 231-1423
09198,09198,Clearwater Toyota,https://www.clearwatertoyota.com,50,FL,27.970899,-82.729362,21799 U.S. Highway 19 North,Clearwater,33765,(727) 799-1234
09199,09199,Central Florida Toyota,https://www.centralfloridatoyota.com,50,FL,28.405945,-81.405172,11020 S Orange Blossom Tr,Orlando,32837,(407) 472-5200
09200,09200,Courtesy Toyota,https://www.courtesytoyota.com,50,FL,27.95009,-82.3518,9210 Adamo Drive,Tampa,33619,(813) 621-7747
09202,09202,Mike Erdman Toyota,https://www.mikeerdmantoyota.com,50,FL,28.360128,-80.798018,4650 Highway 520,Cocoa,32926,(321) 453-1313
09204,09204,Kendall Toyota,https://www.kendalltoyota.com,50,FL,25.669298,-80.32171,10943 S. Dixie Highway,Miami,33156,(305) 665-6581
09205,09205,Keith Pierson Toyota,https://www.keithpiersontoyota.com,50,FL,30.19786,-81.748999,6501 Youngerman Circle,Jacksonville,32244,(904) 771-9100
09206,09206,AutoNation Toyota Weston,https://www.autonationtoyotaweston.com,50,FL,26.071217,-80.360733,4050 Weston Road,Davie,33331,(954) 659-1800
09208,09208,Coggin Toyota at the Avenues,https://www.coggintoyota.com,50,FL,30.16363,-81.53774,11340 Phillips Highway,Jacksonville,32256,(904) 262-0338
09209,09209,Seminole Toyota,https://www.seminoletoyota.com,50,FL,28.79435,-81.34089,1160 Rinehart Road,Sanford,32771,(321) 559-8028
09210,09210,AutoNation Toyota Winter Park,https://www.autonationtoyotawinterpark.com,50,FL,28.598206,-81.30681,225 North Semoran Blvd.,Winter Park,32792,(407) 680-0783
09212,09212,Peter Boulware Toyota,https://www.peterboulwaretoyota.com,50,FL,30.460438,-84.355441,3800 West Tennessee Street,Tallahassee,32304,(850) 575-0168
09214,09214,Toyota of North Miami,https://www.toyotaofnorthmiami.com,50,FL,25.9266,-80.205165,16600 NW 2nd Avenue,Miami,33169,(305) 652-6500
09215,09215,Miracle Toyota,https://www.miracletoyota.com,50,FL,28.13642,-81.639097,37048 Highway 27,Haines City,33844,(863) 956-1123
09216,09216,West Kendall Toyota,https://www.westkendalltoyota.com,50,FL,25.638973,-80.415459,13800 SW 137th Avenue,Miami,33186,(786) 345-2600
09217,09217,Toyota of Tampa Bay,https://www.toyotaoftampabay.com,50,FL,28.0688,-82.4483,1101 East Fletcher Avenue,Tampa,33612,(813) 933-6402
09218,09218,Toyota of Melbourne,https://www.toyotaofmelbourne.com,50,FL,28.108047,-80.617606,24 North Harbor City Blvd,Melbourne,32935,(321) 254-8888
09226,09226,South Dade Toyota,https://www.southdadetoyota.com,50,FL,25.493731,-80.452559,29330 S. Dixie Highway,Homestead,33033,(305) 248-6330
09227,09227,Toyota of Deerfield Beach,https://www.toyotaofdeerfieldbeach.com,50,FL,26.299023,-80.094768,1441 S. Federal Hwy.,Deerfield Beach,33441,(954) 719-7300
09228,09228,Treasure Coast Toyota of Stuart,https://www.treasurecoasttoyotaofstuart.com,50,FL,27.14253,-80.21185,5101 S.E. Federal Highway,Stuart,34997,(772) 283-8300
09229,09229,AutoNation Toyota Fort Myers,https://www.autonationtoyotafortmyers.com,50,FL,26.598062,-81.861109,2555 Colonial Blvd.,Ft. Myers,33907,(239) 321-5413
09230,09230,Gettel Toyota of Lakewood,https://www.getteltoyotaoflakewood.com,50,FL,27.494777,-82.485855,5959 East State Road 64,Bradenton,34208,(941) 567-1080
09231,09231,Beaver Toyota of St. Augustine,https://www.beavertoyotastaugustine.com,50,FL,29.838876,-81.323161,2995 U.S. Highway 1 South,St. Augustine,32086,(904) 797-8800
09232,09232,Toyota of Clermont,https://www.toyotaofclermont.com,50,FL,28.547924,-81.6755,16851 Highway 50,Clermont,34711,(352) 404-7000
09233,09233,Toyota of Fort Walton Beach,https://www.toyotafwb.com,50,FL,30.4444,-86.638,777 Beal Parkway N,Ft Walton Beach,32547,(850) 863-2161
09234,09234,Venice Toyota,https://www.venicetoyota.com,50,FL,27.088348,-82.431061,"900 U.S. 41 By-Pass, South",Venice,34285,(941) 484-9000
09236,09236,Sun Toyota,https://www.suntoyota.com,50,FL,28.204162,-82.74095,3001 U.S. Highway 19,Holiday,34691,(727) 842-9735
09239,09239,Gettel Toyota of Charlotte County,https://www.getteltoyotaofcharlottecounty.com,50,FL,26.922427,-82.047631,1801 Tamiami Trail,Punta Gorda,33950,(941) 639-1155
09240,09240,Key West Toyota,https://www.keywesttoyota.com,50,FL,24.558635,-81.786826,1618 N. Roosevelt Blvd,Key West,33040,(305) 294-9572
09241,09241,Southern 441 Toyota,https://www.southern441toyota.com,50,FL,26.681558,-80.195476,9205 Southern Blvd,Royal Palm Beach,33411,(561) 491-4400
09242,09242,Wesley Chapel Toyota,https://www.wesleychapeltoyota.com,50,FL,28.23415,-82.35447,5300 Eagleston Blvd,Wesley Chapel,33544,(813) 973-8888
09243,09243,Sarasota Toyota,https://www.sarasotatoyota.com,50,FL,27.247314,-82.51167,7435 South Tamiami Trail,Sarasota,34231,(941) 924-7700
09244,09244,Butler Toyota Jacksonville,https://www.butlertoyotajacksonville.com,50,FL,30.299982,-81.730869,1290 Cassat Avenue,Jacksonville,32205,(904) 389-4561
09245,09245,Sebring Toyota,https://www.sebringtoyota.com,50,FL,27.487715,-81.481369,404 U.S. Highway 27 North,Sebring,33870,(863) 385-1525
09246,09246,Al Hendrickson Toyota,https://www.alhendricksontoyota.com,50,FL,26.274383,-80.196033,5201 West Sample Road,Coconut Creek,33073,(954) 972-1100
09247,09247,Lake City Toyota,https://www.lctoyota.com,50,FL,30.1847,-82.65369,1232 West US Highway 90,Lake City,32055,(386) 755-0631
09248,09248,Gettel Stadium Toyota,https://www.stadiumtoyota.com,50,FL,27.99287,-82.50564,5088 North Dale Mabry Highway,Tampa,33614,(813) 872-4881
09250,09250,Gettel Toyota Ocala,https://www.getteltoyotaocala.com,50,FL,29.17816,-82.15404,"1719 S.W. College Rd,Hwy 200 W",Ocala,34471,(352) 732-0770
10015,10015,Milton Martin Toyota,https://www.miltonmartintoyota.com,50,GA,34.225197,-83.861868,3150 Milton Martin Toyota Way,Gainesville,30507,(770) 532-4355
10017,10017,Butler Toyota,https://www.butlertoyota.com,50,GA,32.9165,-83.70941,4580 Riverside Drive,Macon,31210,(478) 476-1770
10032,10032,Marietta Toyota,https://www.mariettatoyota.com,50,GA,33.934257,-84.512243,750 Cobb Parkway South,Marietta,30060,(770) 422-1490
10035,10035,North Georgia Toyota,https://www.northgeorgiatoyota.com,50,GA,34.760803,-84.943038,1510 East Walnut Avenue,Dalton,30721,(706) 278-1322
10039,10039,Franklin Toyota,https://www.franklintoyota.com,50,GA,32.427119,-81.755801,500 Commerce Drive,Statesboro,30458,(912) 764-9424
10040,10040,Prince Toyota,https://www.princetoyota.com,50,GA,31.445304,-83.54581,"2013 U.S. Highway 82, West",Tifton,31793,(229) 386-4000
10041,10041,LaGrange Toyota,https://www.lagrangetoyota.com,50,GA,33.041812,-85.000543,1221 Lafayette Parkway,LaGrange,30241,(706) 882-2963
10044,10044,Pitts Toyota,https://www.pittstoyota.com,50,GA,32.541712,-82.9059,210 North Jefferson Street,Dublin,31021,(478) 272-3244
10046,10046,"Riverside Toyota, Inc.",https://www.riversidetoyota.com,50,GA,34.223264,-85.149922,131 Highway 411 East,Rome,30161,(706) 291-2886
10078,10078,Savannah Toyota,https://www.savannahtoyota.com,50,GA,31.979098,-81.141519,11101 Abercorn Extension,Savannah,31419,(912) 927-1234
10087,10087,Heyward Allen Toyota,https://www.heywardallentoyota.com,50,GA,33.946738,-83.43926,2910 Atlanta Highway,Athens,30606,(706) 549-7002
10090,10090,Cobb County Toyota,https://www.cobbcountytoyota.com,50,GA,34.006677,-84.578269,2111 Barrett Lakes Blvd.,Kennesaw,30144,(770) 422-8555
10094,10094,Atlanta Toyota,https://www.atlantatoyota.com,50,GA,33.962924,-84.139545,2345 Pleasant Hill Road,Duluth,30096,(770) 476-8282
10096,10096,Lowe Toyota of Warner Robins,https://www.lowetoyota.com,50,GA,32.609427,-83.678031,375 S. Houston Lake Road,Warner Robins,31088,(478) 971-5693
10098,10098,Chatham Parkway Toyota,https://www.chathamparkwaytoyota.com,50,GA,32.06759,-81.161622,7 Park of Commerce Way,Savannah,31405,(912) 231-2020
10099,10099,Walker-Jones Toyota,https://www.walkerjonestoyota.com,50,GA,31.191932,-82.318024,2714 Memorial Drive,Waycross,31503,(912) 283-4250
10104,10104,AutoNation Toyota Thornton Road,https://www.autonationtoyotathorntonroad.com,50,GA,33.772745,-84.605649,1000 Blairs Bridge Road,Lithia Springs,30122,(770) 674-6082
10106,10106,World Toyota,https://www.worldtoyota.com,50,GA,33.90662,-84.294198,5800 Peachtree Industrial Blvd,Atlanta,30341,(678) 547-9000
10107,10107,Thomasville Toyota,https://www.thomasvilletoyota.com,50,GA,30.850573,-83.944425,14724 U.S. Hwy. 19 South,Thomasville,31757,(229) 228-0555
10108,10108,Cherokee County Toyota,https://www.cherokeecountytoyota.com,50,GA,34.264963,-84.466517,301 Liberty Blvd.,Canton,30114,(770) 704-9525
10112,10112,I-95 Toyota of Brunswick,https://www.i95toyota.com,50,GA,31.251277,-81.499597,1000 Millenium Blvd.,Brunswick,31525,(912) 267-1888
10117,10117,Valdosta Toyota,https://www.valdostatoyota.com,50,GA,30.842575,-83.332672,2980 James Circle,Valdosta,31601,(229) 247-1920
10118,10118,Nalley Toyota of Roswell,https://www.toyotaofroswell.com,50,GA,34.051373,-84.336655,11130 Alpharetta Highway,Roswell,30076,(770) 594-8696
10121,10121,Milton Ruben Toyota of Augusta,https://www.miltonrubentoyota.com,50,GA,33.515981,-82.074447,3514 Washington Road,Augusta,30907,(706) 868-5454
10124,10124,AutoNation Toyota Mall of Georgia,https://www.autonationtoyotamallofgeorgia.com,50,GA,34.078351,-83.983961,3505 Buford Drive,Buford,30519,(770) 674-6083
10126,10126,Nalley Toyota Stonecrest,https://www.stonecresttoyota.com,50,GA,33.69547,-84.10131,7969 Mall Parkway,Lithonia,30038,(678) 708-4800
10127,10127,Rivertown Toyota,https://www.rivertowntoyota.com,50,GA,32.537175,-84.969825,1661 Whittlesey Road,Columbus,31904,(706) 322-8891
10128,10128,Five Star Toyota of Milledgeville,https://www.fivestartoyotaofmilledgeville.com,50,GA,33.153584,-83.275307,2816 North Columbia Street,Milledgeville,31061,(478) 453-9451
10129,10129,Rick Hendrick Toyota Sandy Springs,https://www.rickhendricktoyotasandysprings.com,50,GA,33.931768,-84.379313,6475 Roswell Road NE,Atlanta,30328,(404) 256-3392
10130,10130,Beaver Toyota of Cumming,https://www.beavertoyotacumming.com,50,GA,34.16044,-84.111205,1875 Buford Highway,Cumming,30041,(470) 533-2000
10131,10131,Stone Mountain Toyota,https://www.stonemountaintoyota.com,50,GA,33.834221,-84.075952,4220 Stone Mountain Highway,Lilburn,30047,(770) 736-0030
10132,10132,Nalley Toyota Union City,https://www.toyotaofunioncity.com,50,GA,33.566644,-84.522295,4115 Jonesboro Road,Union City,30291,(770) 964-8888
10133,10133,Hutchinson Toyota of Albany,https://www.hutchinsontoyota.com,50,GA,31.623555,-84.216159,2865 Ledo Road,Albany,31707,(229) 436-7751
10134,10134,Jim Ellis Toyota of McDonough,https://www.jimellistoyota.com,50,GA,33.42899,-84.18644,144 Highway 81 West,McDonough,30253,(770) 288-3755
10135,10135,Toyota of Newnan,https://www.toyotaofnewnan.com,50,GA,33.39815,-84.75574,2 Herring Road,Newnan,30265,(770) 502-1333
10136,10136,Toyota South Atlanta,https://www.toyotasouthatlanta.com,50,GA,33.567953,-84.343886,6865 Jonesboro Road,Morrow,30260,(770) 961-0225
11001,11001,Peterson Toyota,https://www.petersontoyota.net,13,ID,43.618539,-116.29573,9101 West Fairview Avenue,Boise,83704,(208) 378-9000
11009,11009,Wills Toyota,https://www.willstoyota.com,13,ID,42.554452,-114.472539,318 Shoshone Street West,Twin Falls,83301,(208) 733-7365
11011,11011,Stone's Town and Country Toyota,https://www.stonestoyota.com,13,ID,43.813527,-111.800737,615 S. Yellowstone Highway,Rexburg,83440,(208) 356-9366
11022,11022,Phil Meador Toyota,https://www.philmeadortoyota.com,13,ID,42.909655,-112.451702,1855 Flandro Drive,Pocatello,83202,(208) 237-2700
11028,11028,Rogers Toyota,https://www.toyotaoflewiston.com,13,ID,46.404466,-117.000626,2203 16th Avenue,Lewiston,83501,(208) 743-5577
11030,11030,Parker Toyota,https://www.parkertoyota.com,13,ID,47.715096,-116.793561,470 West Kathleen Avenue,Coeur d'Alene,83815,(208) 765-8228
11035,11035,Teton Toyota,https://www.tetontoyota.com,13,ID,43.468753,-112.076093,2252 West Sunnyside Road,Idaho Falls,83402,(208) 522-2911
11036,11036,Edmark Toyota,https://www.edmarktoyota.com,13,ID,43.604209,-116.51415,15933 Idaho Center Blvd,Nampa,83687,(208) 468-8000
12015,12015,Continental Toyota,https://www.continentaltoyota.com,9999,IL,41.767664,-87.866713,6701 S. La Grange Road,Hodgkins,60525,(708) 354-5800
12042,12042,Hiland Toyota,https://www.hilandtoyota.com,21,IL,41.47013,-90.460954,5500 45th Avenue Drive,Moline,61265,(309) 764-2481
12071,12071,Newbold Toyota,https://www.newboldtoyota.com,21,IL,38.58452,-89.939446,1282 Central Park Drive,O'Fallon,62269,(618) 628-7000
12074,12074,Lombard Toyota,https://www.lombardtoyota.com,21,IL,41.8594,-88.03088,725 West Roosevelt Road,Lombard,60148,(630) 629-3900
12077,12077,Bredemann Toyota,https://www.bredemanntoyota.com,21,IL,42.03952,-87.84287,1301 W. Dempster Street,Park Ridge,60068,(847) 655-1407
12082,12082,Orland Toyota,https://www.orlandtoyota.com,9999,IL,41.601661,-87.826163,8485 West 159th St,Tinley Park,60487,(708) 429-3900
12085,12085,Bill Walsh Toyota,https://www.billwalshtoyota.com,21,IL,41.378657,-88.83505,4000 N. Columbus Street,Ottawa,61350,(815) 434-4000
12086,12086,Schaumburg Toyota,https://www.schaumburgtoyota.com,21,IL,42.047595,-88.101661,875 West Golf Road,Schaumburg,60194,(888) 565-3540
12088,12088,K.C. Summers Toyota,https://www.kcsummerstoyota.com,21,IL,39.482362,-88.378394,117 South 19th Street,Mattoon,61938,(217) 234-8863
12090,12090,Toyota of Naperville,https://www.toyotaofnaperville.com,21,IL,41.775699,-88.185019,1488 West Ogden Avenue,Naperville,60540,(630) 357-1578
12100,12100,Oak Lawn Toyota,https://www.oaklawntoyota.com,9999,IL,41.72051,-87.72939,4320 West 95th Street,Oak Lawn,60453,(708) 423-5200
12102,12102,Arlington Toyota,https://www.toyotaarlington.com,21,IL,42.148459,-88.03091,2095 N. Rand Road,Palatine,60074,(847) 485-1200
12103,12103,Green Toyota,https://www.greentoyota.com,21,IL,39.757097,-89.72978,3901 Wabash Avenue,Springfield,62711,(217) 698-3100
12111,12111,Crown Toyota,https://www.crowntoyotadecatur.com,21,IL,39.876323,-88.959282,255 W. Pershing Road,Decatur,62526,(217) 872-5000
12112,12112,Mungenast Alton Toyota,https://www.altontoyota.com,21,IL,38.922019,-90.168851,850 Homer Adams Parkway,Alton,62002,(618) 208-2400
12114,12114,Toyota of Bourbonnais,https://www.toyotaofbourbonnais.com,21,IL,41.162698,-87.886331,555 Latham Drive,Bourbonnais,60914,(815) 933-7700
12118,12118,Anderson Toyota,https://www.andersontoyota.com,21,IL,42.31946,-88.98382,4100 N. Perryville Road,Loves Park,61111,(815) 397-8995
12125,12125,Fort's Toyota of Pekin,https://www.toyota-pekin.com,21,IL,40.624025,-89.620547,120 Radio City Drive,North Pekin,61554,(309) 382-4000
12126,12126,Dan Hecht Chevrolet/Toyota,https://www.danhechttoyota.com,21,IL,39.098787,-88.546786,2400 South Banker Street,Effingham,62401,(217) 342-4111
12133,12133,Romeoville Toyota,https://www.romeovilletoyota.com,21,IL,41.599334,-88.123372,684 S. Weber Road,Romeoville,60446,(815) 744-2760
12134,12134,Oakbrook Toyota in Westmont,https://www.oakbrooktoyota.com,9999,IL,41.81083,-87.95959,550 East Ogden Avenue,Westmont,60559,(630) 789-9600
12135,12135,Pauly Toyota,https://www.paulytoyota.com,21,IL,42.21262,-88.28562,1035 S. Route 31,Crystal Lake,60014,(815) 459-7100
12136,12136,Ken Nelson Toyota,https://www.kennelsontoyota.com,21,IL,41.857124,-89.490042,1050 N. Galena Avenue,Dixon,61021,(815) 288-4455
12137,12137,Classic Toyota,https://www.classicdirecttoyota.com,21,IL,42.36783,-87.87921,515 N. Green Bay Road,Waukegan,60085,(847) 336-4300
12138,12138,St. Charles Toyota,https://www.stcharlestoyota.net,21,IL,41.92071,-88.2813,2651 E. Main Street,St. Charles,60174,(630) 584-6655
12141,12141,Elgin Toyota,https://www.elgintoyota.com,21,IL,42.013769,-88.217935,1600 W. Lake Street,Streamwood,60107,(847) 741-2100
12144,12144,AutoNation Toyota Libertyville,https://www.autonationtoyotalibertyville.com,21,IL,42.26538,-87.94869,1180 South Milwaukee Ave.,Libertyville,60048,(224) 993-9001
12147,12147,Shottenkirk Toyota,https://www.shottenkirktoyota.com,21,IL,39.936215,-91.330472,5333 Broadway,Quincy,62301,(217) 224-1500
12148,12148,Toyota of Danville,https://www.toyotaofdanville.com,21,IL,40.085248,-87.63591,2106 Georgetown Road,Tilton,61833,(217) 442-8474
12149,12149,Woodrum Toyota of Macomb,https://www.woodrumtoyota.com,21,IL,40.459216,-90.62661,3100 East Jackson,Macomb,61455,(309) 837-2321
12150,12150,Chicago Northside Toyota,https://www.chicagotoyota.com,9999,IL,41.991831,-87.689933,6042 N. Western Avenue,Chicago,60659,(773) 728-5000
12151,12151,Brian Bemis Toyota of DeKalb,https://www.dekalbtoyota.com,21,IL,41.946638,-88.731077,1890 Sycamore Road,DeKalb,60115,(815) 748-7300
12153,12153,Marion Toyota,https://www.mariontoyota.com,21,IL,37.74596,-88.990892,3300 W. Deyoung St.,Marion,62959,(618) 997-5692
12155,12155,Napleton's Toyota of Urbana,https://www.napletonstoyotaofurbana.com,21,IL,40.138723,-88.195398,1101 Napleton Way,Urbana,61802,(217) 367-1222
12156,12156,Sam Leman Toyota Bloomington,https://www.samlemantoyotabloomington.com,21,IL,40.457302,-88.97077,1615 Morrissey Drive,Bloomington,61704,(309) 662-3800
12159,12159,Advantage Toyota of River Oaks,https://www.advantagetoyotariveroaks.com,9999,IL,41.6013,-87.5727,1970 River Oaks Drive,Calumet City,60409,(708) 862-0700
12160,12160,Toyota of Lincolnwood,https://www.toyotalincolnwood.com,9999,IL,42.012862,-87.747539,7225 N. Cicero Avenue,Lincolnwood,60712,(847) 675-7100
12161,12161,Toyota of Lincoln Park,https://www.ToyotaOfLincolnPark.com,9999,IL,41.90999,-87.65092,1561 North Fremont Street,Chicago,60642,(312) 707-9500
12162,12162,Monken Toyota of Mt. Vernon,https://www.monkentoyotamtvernon.com,21,IL,38.312177,-88.95556,100 South 45th Street,Mt Vernon,62864,(618) 242-0334
12164,12164,Gerald Toyota of Matteson,https://www.geraldtoyotamatteson.com,9999,IL,41.50462,-87.75079,5540 Auto Court,Matteson,60443,(708) 720-8600
12165,12165,Toyota of Fox Lake,https://www.toyotaoffoxlake.com,21,IL,42.39178,-88.18192,75 South Route 12,Fox Lake,60020,(847) 587-9200
12166,12166,Victory Toyota of Midtown,https://www.victorytoyotamidtown.com,9999,IL,41.930147,-87.746977,3255 North Cicero Avenue,Chicago,60641,(773) 622-6300
12167,12167,Toyota on Edens,https://www.toyotaonedens.com,21,IL,42.124135,-87.783422,1530 Frontage Road,Northbrook,60062,(847) 272-0808
12168,12168,Kunes Toyota of Galesburg,https://www.kunesgalesburgtoyota.com,21,IL,40.980676,-90.362968,2763 N. Seminary Street,Galesburg,61401,(309) 344-2080
12169,12169,McGrath Elmhurst Toyota,https://www.elmhursttoyota.com,21,IL,41.91793,-87.95365,440 West Lake Street,Elmhurst,60126,(630) 279-2160
12170,12170,Peoria Toyota,https://www.peoriatoyota.com,21,IL,40.777922,-89.632037,7401 North Allen Road,Peoria,61614,(309) 693-7000
12171,12171,Toyota on Western,https://www.toyotaonwestern.com,9999,IL,41.76703,-87.68322,6941 South Western Ave,Chicago,60636,(773) 776-4016
13027,13027,Bob Rohrman Toyota,https://www.rohrmantoyota.com,21,IN,40.418283,-86.832726,3900 State Road 26 East,Lafayette,47905,(765) 448-1000
13033,13033,Tom Wood Toyota,https://www.tomwoodtoyota.com,21,IN,39.946533,-86.35094,6408 Crane Drive,Whitestown,46075,(317) 297-2444
13035,13035,Evans Toyota,https://www.evanstoyota.com,21,IN,41.117427,-85.149608,515 West Coliseum Blvd,Fort Wayne,46808,(260) 482-3730
13042,13042,Kokomo Toyota,https://www.kokomo-toyota.com,21,IN,40.442369,-86.127419,3813 S. LaFountain Street,Kokomo,46902,(765) 453-4111
13044,13044,Heart City Toyota,https://www.heartcitytoyota.com,21,IN,41.690808,-86.004031,711 N. Nappanee Street,Elkhart,46514,(574) 522-6600
13045,13045,Royal South Toyota,https://www.royalsouthtoyota.com,21,IN,39.128388,-86.530914,3115 S. Walnut Street,Bloomington,47401,(812) 331-1100
13046,13046,Gates Toyota,https://www.gatestoyota.com,9999,IN,41.628129,-86.257303,640 W. Ireland Road,South Bend,46614,(574) 299-7400
13047,13047,Jeff Wyler Toyota of Clarksville,https://www.jeffwylerclarksvilletoyota.com,22,IN,38.312878,-85.760707,808 E. Lewis & Clark Parkway,Clarksville,47129,(812) 284-2277
13053,13053,Fort Wayne Toyota,https://www.fortwaynetoyota.com,21,IN,41.075875,-85.218847,5900 Illinois Road,Fort Wayne,46804,(260) 436-4567
13054,13054,Uebelhor Toyota,https://www.uebelhortoyota.com,21,IN,38.37331,-86.94575,788 W. 12th Avenue,Jasper,47546,(812) 482-2222
13057,13057,O'Brien Toyota,https://www.obrientoyota.com,21,IN,39.804473,-86.045745,2550 N. Shadeland Avenue,Indianapolis,46219,(317) 351-7000
13058,13058,Ed Martin Toyota,https://www.edmartintoyota.com,21,IN,39.993489,-86.006232,9230 E. 141 Street,Noblesville,46060,(317) 764-2700
13060,13060,Team Toyota,https://www.teamtoyotaon41.com,9999,IN,41.515643,-87.471612,400 Indianapolis Blvd.,Schererville,46375,(219) 924-8100
13066,13066,Carver Toyota of Columbus,https://www.carvertoyota.com,21,IN,39.297169,-85.95684,10255 N. U.S. Highway 31,Taylorsville,47280,(812) 526-7700
13067,13067,Kenny Kent Toyota,https://www.kennykenttoyota.com,9999,IN,37.977416,-87.481501,5600 East Division Street,Evansville,47715,(812) 473-5600
13068,13068,Toyota of Merrillville,https://www.toyotaofmerrillville.com,9999,IN,41.47188,-87.28185,4450 E. Lincoln Highway,Merrillville,46410,(219) 947-3325
13069,13069,Toyota of Terre Haute,https://www.toyotaofterrehaute.com,21,IN,39.382416,-87.393706,7030 South U.S. Hwy 41,Terre Haute,47802,(812) 298-3300
13070,13070,Andy Mohr Toyota,https://www.andymohrtoyota.com,21,IN,39.762468,-86.36185,8941 E. U.S. Hwy. 36,Avon,46123,(317) 686-9682
13071,13071,Toyota of Muncie,https://www.toyotaofmuncie.com,21,IN,40.220003,-85.462035,3311 N. Nebo Road,Muncie,47304,(765) 289-0201
13073,13073,Toyota of Warsaw,https://www.toyotawarsaw.com,21,IN,41.270501,-85.851492,448 W. 250 North,Warsaw,46582,(574) 267-4636
13075,13075,Jordan Toyota,https://www.jordantoyota.com,9999,IN,41.673504,-86.170507,920 E. Jefferson Blvd.,Mishawaka,46545,(574) 259-1981
13076,13076,Cronin Toyota of  Richmond,https://www.cronintoyotaofrichmond.com,9999,IN,39.831126,-84.826102,5601 National Road East,Richmond,47374,(765) 966-4569
13077,13077,Bill Estes Toyota,https://www.billestestoyota.com,21,IN,39.924247,-86.11156,3232 Harper Road,Indianapolis,46240,(317) 846-9600
13078,13078,Bosak Toyota of Chesterton,https://www.bosaktoyotachesterton.com,21,IN,41.6032,-87.11556,244 Melton Road,Burns Harbor,46304,(219) 787-8600
13079,13079,Toyota of Madison,https://www.toyotaofmadison.net,21,IN,38.775447,-85.392542,258 Clifty Drive,Madison,47250,(812) 273-3135
13080,13080,Hubler Toyota,https://www.hublertoyota.com,21,IN,39.648976,-86.135786,8055 U.S. 31 South,Indianapolis,46227,(317) 882-2600
13081,13081,Graff Toyota of Chesterton,https://www.grafftoyotachesterton.com,9999,IN,41.6032,-87.11556,244 Melton Road,Burns Harbor,46304,(219) 787-8600
14011,14011,Anderson-Weber Toyota,https://www.andersonwebertoyota.com,23,IA,42.489941,-90.720175,3450 Center Grove Drive,Dubuque,52003,(563) 556-3281
14015,14015,"Cedar Rapids Toyota, Inc.",https://www.cedarrapidstoyota.com,23,IA,42.045169,-91.687935,1190 Boyson Road,Hiawatha,52233,(319) 378-4400
14017,14017,Hosmer Toyota,https://www.hosmertoyota.com,23,IA,43.147012,-93.259476,3851 Fourth Street SW,Mason City,50401,(641) 424-5182
14036,14036,Deery Brothers Toyota,https://www.deerybrotherstoyota.com,23,IA,40.825112,-91.16928,200 South Gear Avenue,West Burlington,52655,(319) 752-6000
14041,14041,Dan Deery Toyota,https://www.dandeerytoyota.com,23,IA,42.513254,-92.446826,7404 University Avenue,Cedar Falls,50613,(319) 277-4500
14044,14044,Toyota of Des Moines,https://www.toyotadm.com,23,IA,41.656837,-93.776291,1650 SE 37th Street,Grimes,50111,(515) 276-4911
14046,14046,Wilson Toyota,https://www.wilsonofamestoyota.com,23,IA,42.002193,-93.609423,2212 South Duff,Ames,50010,(515) 232-4081
14048,14048,"Fort Dodge Ford, Lincoln, Toyota",https://www.fortdodgetoyota.com,23,IA,42.501032,-94.159403,2723 5th Avenue South,Fort Dodge,50501,(515) 576-7505
14049,14049,Okoboji Toyota,https://www.okobojitoyota.com,23,IA,43.422734,-95.130575,2720 17th Street,Spirit Lake,51360,(712) 336-1500
14050,14050,Toyota of Muscatine,https://www.toyotaofmuscatine.com,23,IA,41.45629,-91.03105,3000 Highway 38 North,Muscatine,52761,(563) 263-8028
14051,14051,Rick Collins Toyota,https://www.rickcollinstoyota.com,23,IA,42.436847,-96.367313,3131 Singing Hills Blvd.,Sioux City,51106,(712) 277-4271
14052,14052,Smart Toyota of Quad Cities,https://www.smarttoyotaqc.com,23,IA,41.574268,-90.552525,1501 E. 53rd Street,Davenport,52807,(563) 391-4106
14053,14053,Motor Inn Toyota of Carroll,https://www.motorinntoyotaofcarroll.com,23,IA,42.07869,-94.886116,1526 Le Clark Road,Carroll,51401,(712) 792-4352
14054,14054,Billion Toyota of Clinton,https://www.clintontoyota.com,23,IA,41.815294,-90.24429,2435 Lincolnway,Clinton,52732,(563) 243-7000
14055,14055,McGrath Toyota of Iowa City,https://www.toyotaiowacity.com,23,IA,41.640851,-91.558714,1445 Highway 1 West,Iowa City,52246,(319) 351-1501
14056,14056,Gregg Young Toyota Ottumwa,https://www.greggyoungtoyota.com,23,IA,41.062676,-92.410886,2839 North Court Street,Ottumwa,52501,(641) 682-3422
15010,15010,Lewis Toyota of Topeka,https://www.lewistoyota.com,23,KS,39.012442,-95.744336,2951 S.W. Fairlawn Road,Topeka,66614,(785) 273-2220
15012,15012,Eddy's Toyota of Wichita,https://www.eddystoyota.com,23,KS,37.678969,-97.252183,7333 East Kellogg,Wichita,67207,(316) 652-2222
15021,15021,Lewis Toyota of Dodge City,https://www.lewistoyotaofdodgecity.com,23,KS,37.734922,-100.019954,907 S 2nd Street,Dodge City,67801,(620) 225-2210
15034,15034,Quality Toyota of Independence,https://www.quality-toyota.com,23,KS,37.223454,-95.73274,2101 West Main Street,Independence,67301,(620) 331-8310
15046,15046,Lewis Toyota of Hays,https://www.lewistoyotaofhays.com,23,KS,38.903116,-99.316497,4440 Vine Street,Hays,67601,(785) 628-3359
15047,15047,Hendrick Toyota Merriam,https://www.hendricktoyotamerriam.com,23,KS,39.006754,-94.695568,9505 W. 67th Street,Merriam,66203,(913) 831-0800
15050,15050,Olathe Toyota,https://www.olathetoyota.com,23,KS,38.89074,-94.7899,685 N. Rawhide,Olathe,66061,(913) 780-9919
15051,15051,Crown Toyota,https://www.crowntoyotaoflawrence.com,23,KS,38.921897,-95.258287,3430 S. Iowa Street,Lawrence,66046,(785) 843-7700
15052,15052,Conklin Toyota Salina,https://www.conklintoyotasalina.com,23,KS,38.78993,-97.613413,2700 South 9th Street,Salina,67401,(785) 825-8271
15053,15053,Little Apple Toyota,https://www.littleappletoyota.net,23,KS,39.181434,-96.608947,2828 Amherst Avenue,Manhattan,66502,(785) 539-7441
15054,15054,Midwest Toyota,https://www.midwesttoyotadealer.com,23,KS,38.087131,-97.908845,1100 E. 30th Avenue,Hutchinson,67502,(620) 662-6631
15056,15056,Legends Toyota,https://www.legendstoyota.com,23,KS,39.129323,-94.812854,10100 Parallel Parkway,Kansas City,66109,(913) 299-8600
15057,15057,Clint Bowyer Toyota,https://www.clintbowyertoyota.com,23,KS,38.408354,-96.218572,2815 West Highway 50,Emporia,66801,(620) 343-6723
15059,15059,Lewis Toyota of Garden City,https://www.lewistoyotaofgardencity.com,23,KS,37.9763,-100.8374,1221 Lareu Road,Garden City,67846,(620) 275-7172
15060,15060,Briggs Toyota of Fort Scott,https://www.briggstoyota.com,23,KS,37.818217,-94.705252,1819 South Main Street,Ft Scott,66701,(620) 223-0900
16004,16004,Swope Toyota,https://www.swopetoyota.com,22,KY,37.715244,-85.877307,1085 North Dixie Highway,Elizabethtown,42701,(270) 737-2181
16005,16005,Green's Toyota of Lexington,https://www.greenstoyotaoflexington.com,22,KY,38.050554,-84.456123,630 E. New Circle Road,Lexington,40505,(859) 254-5751
16006,16006,Toyota of Louisville,https://www.toyotaoflouisville.com,22,KY,38.155594,-85.835686,6514 Dixie Highway,Louisville,40258,(502) 935-1433
16042,16042,Toyota of Bowling Green,https://www.toyotaofbowlinggreen.com,22,KY,36.954447,-86.428295,2398 Scottsville Road,Bowling Green,42104,(270) 843-4321
16044,16044,Toyota of Hopkinsville,https://www.toyotaofhopkinsville.com,9999,KY,36.823515,-87.474411,4395 Ft. Campbell Blvd,Hopkinsville,42240,(270) 886-9099
16046,16046,Toyota of Murray,https://www.toyotaofmurray.com,22,KY,36.593297,-88.314623,1301 South 12th Street,Murray,42071,(270) 753-4961
16048,16048,Toyota of Somerset,https://www.toyotaofsomerset.com,22,KY,37.034487,-84.627729,4195 South Highway 27,Somerset,42503,(606) 679-1601
16049,16049,Toyota South,https://www.toyotasouth.com,22,KY,37.759931,-84.275255,961 Four Mile Road,Richmond,40475,(859) 624-1313
16050,16050,Kerry Toyota,https://www.kerrytoyota.com,9999,KY,39.004467,-84.655455,6050 Hopeful Church Road,Florence,41042,(859) 371-3939
16051,16051,Oxmoor Toyota,https://www.oxmoortoyota.com,22,KY,38.249817,-85.605553,8003 Shelbyville Road,Louisville,40222,(502) 426-1200
16052,16052,Marshall Dry Ridge Toyota,https://www.marshalldryridgetoyota.com,22,KY,38.68267,-84.6039,9 Taft Highway,Dry Ridge,41035,(859) 824-9200
16055,16055,Walters Toyota,https://www.walterstoyota.com,22,KY,37.5371,-82.599234,30 Walters Lane,Pikeville,41501,(606) 432-1451
16056,16056,Toyota on Nicholasville,https://www.toyotaonnicholasville.com,22,KY,37.917449,-84.555907,2100 Lexington Road,Nicholasville,40356,(859) 887-4200
16058,16058,Kerry Toyota Service Center,www.kerrytoyota.com,9999,KY,39.0776,-84.5189,550 Pike Street,Covington,41011,(859) 581-0911
16059,16059,Don Moore Toyota,https://www.donmooretoyota.com,9999,KY,37.730889,-87.122997,4216 Frederica Street,Owensboro,42301,(270) 926-2500
16061,16061,Frankfort Toyota,https://www.frankforttoyota.com,22,KY,38.188104,-84.818523,1001 Leestown Road,Frankfort,40601,(502) 695-1500
16062,16062,Mann Toyota,https://www.manntoyota.com,22,KY,37.644617,-82.777283,1811 U.S. Highway 23 North,Prestonsburg,41653,(606) 886-3861
16063,16063,Watermark Toyota,https://www.watermarktoyota.com,22,KY,37.3523,-87.484258,1055 Crossing Place,Madisonville,42431,(270) 821-3372
16064,16064,Coad Toyota Paducah,https://www.coadtoyotapaducah.com,22,KY,37.081955,-88.681211,3941 Mike Smith Drive,Paducah,42001,(270) 408-6453
16065,16065,Toyota of Ashland,https://www.toyotaofashland.com,22,KY,38.46584,-82.615995,3503 Winchester Avenue,Ashland,41101,(606) 744-2727
16066,16066,Don Franklin Corbin Toyota,https://www.donfranklincorbintoyota.com,22,KY,36.964646,-84.080296,311 E. Cumberland Gap Pky,Corbin,40701,(606) 528-1200
16067,16067,Toyota of Madisonville,https://www.toyotaofmadisonville.com,9999,KY,37.3523,-87.484258,1055 Crossing Place,Madisonville,42431,(270) 821-3372
17014,17014,Price LeBlanc Toyota,https://www.priceleblanctoyota.com,9999,LA,30.375531,-91.035155,13250 Airline Highway,Baton Rouge,70817,(225) 408-1100
17023,17023,Yokem Toyota,https://www.yokemtoyota.com,60,LA,32.419428,-93.721138,1199 E. Bert Kouns Ind. Loop,Shreveport,71105,(318) 798-3773
17027,17027,Van-Trow Toyota,https://www.vantrowtoyota.com,60,LA,32.519925,-92.103619,2015 Louisville Avenue,Monroe,71201,(318) 387-2020
17029,17029,Bubba Oustalet Toyota,https://www.oustalettoyota.com,60,LA,30.22216,-92.657185,246 North Broadway,Jennings,70546,(337) 824-3673
17041,17041,Musson-Patout Toyota,https://www.mussonpatouttoyota.com,60,LA,29.983014,-91.853465,208 West Hwy 90 Frontage Rd,New Iberia,70560,(337) 367-0488
17050,17050,Lakeside Toyota,https://www.lakesidetoyota.com,60,LA,30.015884,-90.154269,3701 North Causeway Blvd.,Metairie,70002,(504) 833-3311
17055,17055,Team Toyota,https://www.team-toyota.com,9999,LA,30.442924,-91.009833,1788 O'Neal Lane,Baton Rouge,70816,(225) 273-5880
17057,17057,John Harvey Toyota,https://www.johnharveytoyota.com,60,LA,32.563132,-93.728687,2901 Benton Road,Bossier City,71111,(318) 741-1337
17058,17058,Toyota of New Orleans,https://www.toyotaofneworleans.com,60,LA,30.053973,-89.947249,13150 I-10 Service Road,New Orleans,70128,(504) 940-0000
17060,17060,Lake Charles Toyota,https://www.lakecharlestoyota.com,60,LA,30.18609,-93.179351,3905 Gerstner Memorial Dr,Lake Charles,70607,(337) 478-3511
17062,17062,Bohn Toyota,https://www.bohntoyota.com,60,LA,29.8741,-90.0851,3800 Lapalco Blvd.,Harvey,70058,(504) 341-3300
17065,17065,Hampton Toyota,https://www.hamptontoyota.com,60,LA,30.160671,-92.083771,6191 Johnston Street,Lafayette,70503,(337) 984-5010
17066,17066,Northshore Toyota,https://www.northshoretoyota.com,60,LA,30.428625,-90.079251,68500 Hwy 190 Service Rd.,Covington,70433,(985) 893-7778
17068,17068,All Star Toyota of Baton Rouge,https://www.allstartoyotaofbatonrouge.com,60,LA,30.441726,-91.088344,9150 Airline Highway,Baton Rouge,70815,(225) 925-2525
17070,17070,Greg Leblanc Toyota,https://www.gregleblanctoyota.com,60,LA,29.60449,-90.751058,220 S. Hollywood Road,Houma,70360,(985) 876-7210
17071,17071,Supreme Toyota of Hammond,https://www.supremetoyota.com,9999,LA,30.48654,-90.482167,1415 South Morrison Blvd,Hammond,70403,(985) 345-1425
17073,17073,Hixson Toyota,https://www.hixsontoyota.com,60,LA,31.08775,-93.270504,11981 Lake Charles Highway,Leesville,71446,(337) 239-3434
17075,17075,Walker Toyota,https://www.walker-toyota.com,60,LA,31.294613,-92.50514,5735 Coliseum Blvd.,Alexandria,71303,(318) 445-1486
17076,17076,Karl Malone Toyota of Ruston,https://www.karlmalonetoyotaofruston.com,60,LA,32.541166,-92.626038,1001 N. Service Road East,Ruston,71270,(318) 255-1387
17078,17078,Vaughn Toyota of Bastrop,https://www.vaughntoyota.com,60,LA,32.775869,-91.881467,2329 East Madison Avenue,Bastrop,71220,(318) 281-5555
17079,17079,Price LeBlanc Toyota of Acadiana,https://www.priceleblanctoyotaofacadiana.com,60,LA,30.475821,-92.0786,4127 I-49 South Service Road,Opelousas,70570,(337) 948-8255
17080,17080,Toyota of Kenner,https://www.toyotaofkenner.net,60,LA,30.007144,-90.233551,2460 Veterans Memorial Blvd,Kenner,70062,(504) 464-4500
17081,17081,Morgan City Toyota,https://www.morgancitytoyota.com,60,LA,29.703244,-91.199813,1105 Brashear Avenue,Morgan City,70380,(985) 380-2395
17082,17082,Carlock Toyota of Slidell,https://www.carlocktoyotaofslidell.com,60,LA,30.23967,-89.76556,300 E. Howze Beach Road,Slidell,70461,(985) 643-0005
17083,17083,All Star Toyota of Baton Rouge,https://www.allstartoyotaofbatonrouge.com,9999,LA,30.441726,-91.088344,9150 Airline Highway,Baton Rouge,70815,(225) 925-2525
18010,18010,Down East Toyota,https://www.downeasttoyota.com,17,ME,44.777185,-68.73465,652 Wilson Street,Brewer,04412,(207) 989-6400
18023,18023,Shepard Toyota,https://www.shepardtoyota.com,17,ME,44.093668,-69.139592,"181 New County Road, Route 1",Rockland,04841,(207) 594-8424
18031,18031,York Toyota,https://www.yorkstoyota.com,17,ME,46.146959,-67.840005,315 North Street,Houlton,04730,(207) 532-6534
18032,18032,Central Maine Toyota,https://www.cmtoy.com,17,ME,44.542987,-69.674602,15 Airport Road,Waterville,04901,(207) 872-5444
18033,18033,Charlie's Toyota,https://www.charliestoyota.com,17,ME,44.319908,-69.821521,451 Western Avenue,Augusta,04330,(207) 622-4748
18034,18034,Emerson Toyota,https://www.emersontoyota.com,17,ME,44.135896,-70.226271,990 Center Street,Auburn,04210,(207) 784-1348
18035,18035,Lee Toyota,https://www.leetoyota.com,17,ME,43.9377,-69.9659,115 Main Street,Topsham,04086,(207) 729-3358
18037,18037,Berlin City Toyota of Portland,https://www.berlincitytoyotame.com,17,ME,43.683,-70.3259,191 Riverside Street,Portland,04103,(207) 321-3477
18038,18038,Ira Toyota Saco,https://www.iratoyotasaco.com,17,ME,43.5301,-70.4255,783 Portland Road,Saco,04072,(207) 282-6161
19005,19005,Jones Toyota,https://www.jonesjunction-toyota.com,80,MD,39.505013,-76.382334,1510 Belair Road,Bel Air,21014,(410) 879-6400
19028,19028,Younger Toyota,https://www.youngertoyota.com,80,MD,39.603374,-77.685696,1945 Dual Highway,Hagerstown,21740,(301) 733-2300
19037,19037,Jerry's Toyota,https://www.jerrystoyota.com,80,MD,39.375117,-76.507283,8001 Belair Road,Baltimore,21236,(410) 661-5700
19043,19043,DARCARS Toyota,https://www.darcarstoyota.com,80,MD,39.061269,-76.958568,12210 Cherry Hill Road,Silver Spring,20904,(301) 622-0300
19044,19044,Antwerpen's Toyota,https://www.antwerpentoyota.com,80,MD,39.209586,-76.94244,12420 Auto Drive,Clarksville,21029,(410) 531-5700
19045,19045,Jim Coleman Toyota,https://www.jimcolemantoyota.com,80,MD,39.0278,-77.145883,10400 Auto Park Avenue,Bethesda,20817,(301) 469-7100
19052,19052,Fitzgerald Toyota Gaithersburg,https://www.fitzgeraldtoyotagaithersburg.com,80,MD,39.157317,-77.216917,907 N. Frederick Avenue,Gaithersburg,20879,(301) 921-0300
19056,19056,Bayside Toyota,https://www.baysidetoyota.com,9999,MD,38.562374,-76.600171,105 Auto Drive,Prince Frederick,20678,(410) 535-1500
19057,19057,355 Toyota,https://www.355toyota.com,80,MD,39.112833,-77.161917,15625 Frederick Road,Rockville,20855,(301) 340-0900
19059,19059,Toyota of Southern Maryland,https://www.toyotasomd.com,80,MD,38.285355,-76.474615,22500 Three Notch Road,Lexington Park,20653,(301) 863-7555
19061,19061,Pohanka Toyota of Salisbury,https://www.pohankatoyotamd.com,9999,MD,38.391119,-75.576496,2010 N. Salisbury Blvd.,Salisbury,21801,(410) 543-2000
19063,19063,DARCARS Toyota of Frederick,https://www.darcarstoyotaoffrederick.com,80,MD,39.376847,-77.408936,5293 Buckeystown Pike,Frederick,21704,(301) 696-6300
19066,19066,DARCARS Toyota of Frederick Service Center,http://darcarsfrederick.xigroupauto.com,80,MD,39.416312,-77.441136,1040 West Patrick Street,Frederick,21701,(301) 662-8293
19069,19069,DARCARS Toyota of Baltimore,https://www.darcarstoyotaofbaltimore.com,80,MD,39.28699,-76.54349,6007 Eastern Avenue,Baltimore,21224,(410) 633-2200
19070,19070,Passport Toyota,https://www.passporttoyota.com,9999,MD,38.825812,-76.922979,5001 Auth Way,Suitland,20746,(301) 899-6000
19071,19071,Heritage Toyota Catonsville,https://www.heritagetoyotacatonsville.com,80,MD,39.284568,-76.754916,6324 Baltimore Ntl Pike,Baltimore,21228,(410) 788-8400
19072,19072,Heritage Toyota Owings Mills,https://www.heritagetoyotaowingsmills.com,80,MD,39.40789,-76.76305,9801 Reisterstown Road,Owings Mills,21117,(410) 363-2000
19074,19074,Waldorf Toyota,https://www.waldorftoyota.com,9999,MD,38.638048,-76.898171,2600 Crain Highway,Waldorf,20601,(301) 843-3700
19075,19075,Hertrich Toyota of Pocomoke,https://www.hertrichtoyotapocomoke.com,80,MD,38.044029,-75.543184,1337 Ocean Highway,Pocomoke City,21851,(410) 957-4444
19076,19076,Sheehy Toyota of Laurel,https://www.sheehytoyotalaurel.com,80,MD,39.128421,-76.822635,8801 Freestate Drive,Laurel,20723,(301) 362-3399
19077,19077,Ourisman Toyota 40,https://www.ourismantoyota40.com,80,MD,39.433442,-76.330494,1101 Business Center Way,Edgewood,21040,(410) 679-1500
19078,19078,Safford Brown Toyota Glen Burnie,https://www.saffordbrowntoyotaglenburnie.com,80,MD,39.17576,-76.616614,7167 Ritchie Highway,Glen Burnie,21061,(410) 761-9000
19079,19079,Koons Toyota Annapolis,https://www.koonstoyotaannapolis.com,9999,MD,38.976826,-76.511289,1107 West Street,Annapolis,21401,(410) 268-6480
19080,19080,Koons Toyota Westminster,https://www.koonstoyotawestminster.com,80,MD,39.572739,-76.984183,375 Baltimore Blvd.,Westminster,21157,(888) 461-7519
19081,19081,Koons Toyota Easton,https://www.koonstoyotaeaston.com,9999,MD,38.733104,-76.069144,6730 Ocean Gateway,Easton,21601,(410) 822-8000
19082,19082,Toyota of Bowie,https://www.toyotaofbowie.com,9999,MD,38.951717,-76.714983,16700 Governor Bridge Road,Bowie,20716,(301) 867-1600
19083,19083,Toyota Certified at Capital Plaza,https://www.toyotacapitalplaza.com,80,MD,38.939801,-76.911437,6100 Annapolis Road,Greater Landover,20784,(301) 772-6900
19084,19084,Sheehy Toyota of Timonium,https://www.sheehytoyotatimonium.com,80,MD,39.473775,-76.640276,10401 York Road,Cockeysville,21030,(410) 666-8900
19088,19088,CMA's Toyota of Lexington Park,https://www.cmastoyotaoflexingtonpark.com,9999,MD,38.285355,-76.474615,22500 Three Notch Road,Lexington Park,20653,(301) 863-7555
20006,20006,Jaffarian Toyota,https://www.jaffarian-toyota.com,9999,MA,42.765439,-71.105303,600 River St,Haverhill,01832,(978) 372-8551
20009,20009,K-M Toyota,https://www.kmmotors.com,17,MA,42.700592,-73.11622,51 West Main Street,North Adams,01247,(413) 663-5731
20016,20016,Balise Toyota,https://www.balisetoyota.com/,9999,MA,42.142538,-72.62707,1399 Riverdale Street,West Springfield,01089,(413) 734-8795
20019,20019,Toyota of Watertown,https://www.toyotaofwatertown.com,9999,MA,42.364367,-71.177262,149 Arsenal St,Watertown,02472,(617) 926-5200
20049,20049,Haddad Toyota,https://www.haddadtoyota.com,17,MA,42.40709,-73.263868,130 Pittsfield-Lenox Road,Pittsfield,01201,(413) 445-4535
20051,20051,Copeland Toyota,https://www.copelandtoyota.com,9999,MA,42.054088,-71.056056,970 West Chestnut Street,Brockton,02301,(508) 584-2440
20058,20058,"Westboro Toyota, Inc.",https://www.westborotoyota.com,9999,MA,42.2835,-71.645,271 Turnpike Road,Westborough,01581,(508) 366-1741
20063,20063,McGee Toyota,https://www.mcgeetoyota.com,17,MA,42.1289,-70.8326,860-880 Washington St,Hanover,02339,(781) 826-8333
20087,20087,Woburn Toyota,https://www.woburntoyota.com,9999,MA,42.5015,-71.1277,394 Washington Street,Woburn,01801,(781) 933-1100
20096,20096,Falmouth Toyota,https://www.falmouthtoyota.com,17,MA,41.72191,-70.585018,290 Mac Arthur Blvd.,Bourne,02532,(508) 759-1900
20101,20101,Harr Toyota,https://www.harrtoyota.com,9999,MA,42.2901,-71.8034,100 Gold Star Boulevard,Worcester,01606,(508) 471-2500
20102,20102,Lexington Toyota,https://www.lexingtontoyota.com,9999,MA,42.427817,-71.20111,409 Massachusetts Avenue,Lexington,02420,(781) 861-7400
20109,20109,Bernardi Toyota,https://www.bernarditoyota.com,9999,MA,42.2957,-71.4713,1626 Worcester Road,Framingham,01702,(508) 879-1520
20111,20111,Sullivan Brothers Toyota,https://www.sullivanbrotherstoyota.com,17,MA,41.97686,-70.71249,5 Gallen Road,Kingston,02364,(781) 585-1300
20113,20113,Toyota of Wellesley,https://www.wellesleytoyota.com,9999,MA,42.315054,-71.249542,234 Worcester Street,Wellesley,02481,(781) 237-2970
20117,20117,Herb Chambers Toyota of Auburn,https://www.herbchamberstoyotaofauburn.com,17,MA,42.180687,-71.863999,809 Washington Street,Auburn,01501,(508) 832-8000
20122,20122,Tufankjian Toyota of Braintree,https://www.toyotaofbraintree.com,9999,MA,42.211329,-70.998285,210 Union Street,Braintree,02184,(781) 848-9300
20123,20123,Lia Toyota,https://www.liatoyotaofwilbraham.com,9999,MA,42.150448,-72.46717,2145 Boston Road,Wilbraham,01095,(413) 596-2000
20125,20125,Route 44 Toyota,https://www.route44toyota.com,9999,MA,41.905368,-71.022978,1154 New State Highway,Raynham,02767,(508) 824-4044
20126,20126,Herb Chambers Toyota of Boston,https://www.herbchamberstoyotaofboston.com,17,MA,42.352217,-71.126462,32 Brighton Avenue,Boston,02134,(617) 787-1700
20127,20127,Ira Toyota,https://www.toyotaofdanvers.com,17,MA,42.554821,-70.962188,99B Andover Street,Danvers,01923,(978) 739-8300
20128,20128,Toyota of Dartmouth,https://www.toyotaofdartmouth.com,17,MA,41.648664,-70.986674,100 Old Faunce Corner Road,North Dartmouth,02747,(508) 993-2616
20133,20133,Lia Toyota of Northampton,https://www.liatoyotaofnorthampton.com,9999,MA,42.331217,-72.634626,280 King Street,Northampton,01060,(413) 586-8922
20134,20134,Toyota of Greenfield,https://www.toyotaofgreenfield.com,9999,MA,42.586759,-72.609309,One Main Street,Greenfield,01301,(413) 773-5455
20140,20140,"Bristol Toyota, Inc.",https://www.bristoltoyota.com,9999,MA,41.768517,-71.262656,2283 Grand Army Highway,Swansea,02777,(401) 253-2100
20141,20141,Nucar Toyota of Norwood,https://www.nucartoyotanorwood.com,9999,MA,42.201833,-71.18773,277 Providence Highway,Norwood,02062,(866) 632-4792
20142,20142,McGee Toyota of Dudley,https://www.mcgeetoyotaofdudley.com,17,MA,42.040488,-71.91146,191 West Main Street,Dudley,01571,(508) 943-7474
20144,20144,Nucar Toyota of North Attleboro,https://www.nucartoyotanorthattleboro.com,9999,MA,41.95932,-71.341372,620 South Washington St.,North Attleboro,02760,(866) 660-4426
20145,20145,Imperial Toyota,https://www.imperialtoyotama.com,9999,MA,42.159,-71.4955,300 Fortune Blvd.,Milford,01757,(508) 478-0500
20146,20146,Acton Toyota of Littleton,https://www.actontoyota.com,9999,MA,42.543493,-71.465528,221 Great Road,Littleton,01460,(978) 263-1500
20147,20147,Ira Toyota of Hyannis,https://www.iratoyotaofhyannis.com,17,MA,41.672575,-70.303282,1020 Iyannough Road,Hyannis,02601,(508) 775-1230
20148,20148,Ira Toyota of Orleans,https://www.iratoyotaoforleans.com,17,MA,41.775415,-70.001471,16 O'Connor Road,Orleans,02653,(774) 801-7100
20149,20149,Parkway Toyota of Boston,https://www.parkwaytoyotaboston.com,9999,MA,42.265918,-71.168648,1605 VFW Parkway,Boston,02132,(617) 469-1000
20150,20150,Koch Route 2 Toyota,https://www.kochrt2toyota.com,9999,MA,42.518608,-71.69445,700 Old Union Turnpike,Lancaster,01523,(978) 353-1700
20151,20151,AutoFair Toyota of Tewksbury,https://www.AutoFairToyota.com,9999,MA,42.620139,-71.25589,468 Main Street,Tewksbury,01876,(978) 863-9009
20152,20152,Tasca Toyota Boston,https://www.tascatoyotaboston.com,9999,MA,42.298738,-71.049101,700 Morrissey Blvd.,Dorchester,02122,(617) 265-4321
20153,20153,Atlantic Toyota,https://www.atlantictoyota.com,9999,MA,42.452469,-70.962777,671 Lynnway,Lynn,01905,(781) 599-4922
20155,20155,Herb Chambers Toyota Auburn,https://www.herbchamberstoyotaofauburn.com,9999,MA,42.180687,-71.863999,809 Washington Street,Auburn,01501,(508) 832-8000
20156,20156,Herb Chambers Toyota Boston,https://www.herbchamberstoyotaofboston.com,9999,MA,42.352217,-71.126462,32 Brighton Avenue,Boston,02134,(617) 787-1700
21032,21032,Bergeron Toyota,https://www.bergerontoyota.net,22,MI,45.839046,-88.052837,1600 N. Stephenson Ave.,Iron Mountain,49801,(906) 774-2189
21039,21039,Page Toyota,https://www.pagetoyota.com,22,MI,42.447013,-83.277678,21262 Telegraph Road,Southfield,48033,(248) 352-8580
21061,21061,LaFontaine Toyota,https://www.lafontainetoyota.com,22,MI,42.296405,-83.27093,2027 S. Telegraph Road,Dearborn,48124,(313) 561-6600
21065,21065,Toyota of Grand Rapids,https://www.toyotaofgrandrapids.com,22,MI,42.913024,-85.603554,"2555 28th Street, S.E.",Grand Rapids,49512,(616) 942-5290
21068,21068,Sunshine Toyota,https://www.sunshinetoyota.com,22,MI,42.319357,-85.212886,1355 West Dickman Road,Battle Creek,49037,(269) 965-1000
21072,21072,Metro Toyota,https://www.metro-toyota.com,22,MI,42.26698,-85.665061,5850 Stadium Drive,Kalamazoo,49009,(269) 375-1000
21074,21074,Serra Toyota of Traverse City,https://www.serratoyotatraversecity.com,22,MI,44.743668,-85.595017,1302 S. Garfield Avenue,Traverse City,49686,(231) 946-5540
21095,21095,Kool Toyota,https://www.kooltoyota.com,22,MI,43.031663,-85.626489,3780 Plainfield Avenue,Grand Rapids,49525,(616) 364-9700
21096,21096,Riverside Toyota,https://www.riversidetoyotamarquette.com,22,MI,46.549931,-87.461285,3330 US Highway 41 West,Marquette,49855,(906) 228-4900
21100,21100,Riverside Toyota of Escanaba,https://www.riversidetoyotaescanaba.com,22,MI,45.745962,-87.085855,2600 Ludington Street,Escanaba,49829,(906) 786-5531
21101,21101,Crown Toyota,https://www.crownmotorstoyota.com,22,MI,42.803008,-86.059424,11260 Chicago Drive,Holland,49423,(616) 393-0400
21104,21104,Toyota of Muskegon,https://www.toyotaofmuskegon.com,22,MI,43.154806,-86.198621,1860 E. Sternberg Road,Muskegon,49444,(231) 799-2886
21107,21107,Labadie Toyota,https://www.labadietoyota.com,22,MI,43.61337,-83.91515,909 N. Euclid Avenue,Bay City,48706,(989) 684-2222
21108,21108,Fernelius Toyota,https://www.ferneliustoyota.net,22,MI,45.622352,-84.479433,11283 Straits Highway,Cheboygan,49721,(231) 627-5673
21110,21110,Victory Toyota,https://www.victorytoyotacanton.com,22,MI,42.270113,-83.495548,46352 Michigan Avenue,Canton,48188,(734) 495-3500
21112,21112,Fox Toyota,https://www.toyotabyfox.com,22,MI,42.669895,-83.132828,773 South Rochester Road,Rochester Hills,48307,(248) 656-0400
21115,21115,Fox Toyota of Cadillac,https://www.foxtoyotaofcadillac.com,22,MI,44.272049,-85.404792,1490 N Mitchell Street,Cadillac,49601,(231) 779-1784
21116,21116,Szott M-59 Toyota,https://www.szottm59toyota.com,22,MI,42.651228,-83.368323,4178 Highland Road,Waterford,48328,(248) 333-3300
21117,21117,Matick Toyota,https://www.maticktoyota.com,22,MI,42.630845,-82.870923,23405 Hall Road,Macomb,48042,(586) 463-9000
21119,21119,Serra Toyota of Saginaw,https://www.serratoyotasaginaw.com,22,MI,43.4697,-83.9745,4320 Bay Road,Saginaw,48603,(989) 790-0800
21120,21120,Signature Toyota,https://www.signaturetoyota.com,9999,MI,42.086655,-86.442173,680 East Napier,Benton Harbor,49022,(269) 926-0031
21121,21121,Golling Toyota of Warren,https://www.gollingtoyota.com,22,MI,42.4927,-83.0278,27100 Van Dyke Avenue,Warren,48093,(586) 758-2000
21122,21122,Suburban Toyota of Troy,https://www.suburbantoyotaoftroy.com,22,MI,42.54792,-83.17905,2100 W. Maple Road,Troy,48084,(248) 643-8500
21123,21123,Suburban Toyota of Farmington Hills,https://www.suburbantoyotaoffarmingtonhills.com,22,MI,42.4753,-83.43518,25000 Haggerty Road,Farmington Hills,48335,(248) 699-7100
21124,21124,Toyota of Ann Arbor,https://www.toyotaofannarbor.com,22,MI,42.28435,-83.805212,3745 Jackson Road,Ann Arbor,48103,(734) 997-7600
21125,21125,Randy Wise Toyota,https://www.randywisetoyota.com,22,MI,42.900514,-83.630058,8420 Holly Road,Grand Blanc,48439,(810) 695-4400
21126,21126,Spartan Toyota,https://www.spartantoyota.com,22,MI,42.675426,-84.537674,5701 S. Pennsylvania Ave,Lansing,48911,(517) 394-6000
21127,21127,Germain Toyota of Dundee,https://www.germaintoyotaofdundee.com,22,MI,41.961534,-83.681864,16490 Tecumseh Street,Dundee,48131,(734) 242-3900
22017,22017,Chester Berg Toyota,https://www.chesterbergtoyota.com,21,MN,47.491035,-94.889883,705 Paul Bunyan Drive NW,Bemidji,56601,(218) 444-3040
22021,22021,St. Cloud Toyota,https://www.stcloudtoyota.com,21,MN,45.549374,-94.22323,418 2nd Street South,Waite Park,56387,(320) 253-2581
22030,22030,Rudy Luther Toyota,https://www.rudyluthertoyota.com,21,MN,44.972354,-93.392929,8805 Wayzata Blvd,Golden Valley,55426,(763) 222-2020
22034,22034,Kolar Toyota,https://www.kolartoyota.com,21,MN,46.821026,-92.183841,4781 Miller Trunk Hwy.,Duluth,55811,(218) 733-0100
22035,22035,Maplewood Toyota,https://www.maplewoodtoyota.com,21,MN,45.027467,-93.047602,2873 Maplewood Dr.,Maplewood,55109,(651) 482-1322
22038,22038,Luther Brookdale Toyota,https://www.lutherbrookdaletoyota.com,21,MN,45.078066,-93.333707,6700 Brooklyn Boulevard,Brooklyn Center,55429,(763) 331-6700
22041,22041,Burnsville Toyota,https://www.burnsvilletoyota.com,21,MN,44.734933,-93.285783,14730 Buck Hill Road,Burnsville,55306,(952) 435-8200
22044,22044,Mills Toyota,https://www.millstoyota.com,21,MN,45.087146,-95.04459,3700 Highway 71 South,Willmar,56201,(320) 231-1160
22045,22045,Quality Toyota,https://www.qualitytoyota.net,21,MN,46.283304,-96.095885,1125 W. Lincoln Avenue,Fergus Falls,56537,(218) 998-1900
22046,22046,Carlson Toyota,https://www.carlsontoyota.com,21,MN,45.205213,-93.36378,12880 Riverdale Dr. NW,Coon Rapids,55448,(763) 427-3200
22047,22047,Rochester Toyota,https://www.rochestertoyota.com,21,MN,43.958897,-92.464171,"4365 Canal Place, S.E.",Rochester,55904,(507) 286-1200
22048,22048,Walser Bloomington Toyota,https://www.walsertoyota.com,21,MN,44.857183,-93.33509,4401 American Blvd. West,Bloomington,55437,(952) 888-5581
22051,22051,Iron Trail Toyota,https://www.irontrailtoyota.com,21,MN,47.509292,-92.554502,1301 S. 17th Street,Virginia,55792,(218) 741-2355
22053,22053,Inver Grove Toyota,https://www.invergrovetoyota.com,21,MN,44.880524,-93.08454,1037 50th Street,Inver Grove Heights,55077,(651) 455-6000
22054,22054,Dahl Toyota,https://www.dahltoyota.com,21,MN,44.043547,-91.666979,1077 W. Service Drive,Winona,55987,(507) 452-4080
22055,22055,Lake Country Toyota,https://www.lakecountrytoyota.com,21,MN,46.380752,-94.254466,7036 Lake Forest Road,Baxter,56401,(218) 454-2200
22056,22056,LeadCar Toyota Mankato,https://www.leadcartoyotamankato.com,21,MN,44.176611,-93.965552,1234 Raintree Road,Mankato,56001,(507) 387-1148
23035,23035,Toyota of Hattiesburg,https://www.toyotahattiesburg.com,60,MS,31.318057,-89.411102,6461 US Highway 98,Hattiesburg,39402,(601) 544-9630
23052,23052,J. Allen Toyota,https://www.jallentoyota.com,60,MS,30.445832,-89.028508,11397 Helen Richards Road,Gulfport,39503,(228) 896-8220
23054,23054,Oxford Toyota,https://www.oxfordtoyota.com,60,MS,34.359899,-89.582949,435A Highway 6 West,Oxford,38655,(662) 234-4661
23057,23057,Kirk Toyota,https://www.kirktoyota.com,60,MS,33.785172,-89.844626,237 Southwest Frontage Road,Grenada,38901,(662) 226-1181
23061,23061,Carl Hogan Toyota,https://www.carlhogantoyota.com,60,MS,33.549657,-88.43428,3907 Highway 45 North,Columbus,39705,(662) 241-6000
23062,23062,Kim's Toyota,https://www.kimstoyota.com,60,MS,31.701517,-89.148017,1030 Highway 15 North,Laurel,39440,(601) 425-4701
23069,23069,Carlock Toyota of Tupelo,https://www.carlocktoyotaoftupelo.com,60,MS,34.320489,-88.69915,882 Cross Creek Drive,Saltillo,38866,(662) 842-6428
23071,23071,Oakes Toyota,https://www.oakestoyota.com,60,MS,33.370331,-91.040895,1753 Highway 1 South,Greenville,38701,(662) 378-8101
23074,23074,Doc's Toyota,https://www.docstoyota.com,60,MS,32.759698,-89.155171,15120 Highway 16 West,Philadelphia,39350,(601) 781-8017
23076,23076,Cannon Toyota,https://www.cannontoyotavicksburg.com,60,MS,32.3234,-90.8682,2047 North Frontage Road,Vicksburg,39180,(601) 636-2855
23079,23079,Principle Toyota of Hernando,https://www.principletoyotaofhernando.com,60,MS,34.818872,-89.972853,2887 McIngvale Road South,Hernando,38632,(662) 624-2585
23080,23080,Natchez Toyota,https://www.natcheztoyota.com,60,MS,31.508725,-91.372205,335 Highway 61 South,Natchez,39120,(601) 446-5588
23081,23081,Gray-Daniels Toyota,https://www.gray-danielstoyota.com,60,MS,32.280664,-90.034238,104 Gray Daniels Blvd,Brandon,39042,(601) 948-0576
23082,23082,Toyota of Brookhaven,https://www.toyotaofbrookhaven.com,60,MS,31.579237,-90.464469,890 Brookway Blvd.,Brookhaven,39601,(601) 823-7000
23083,23083,Toyota of Jackson,https://www.toyotaofjackson.com,60,MS,32.393377,-90.144793,6100 I-55 North Frontage Road,Jackson,39211,(601) 956-9696
23084,23084,Cannon Toyota of Moss Point,https://www.cannontoyotamosspoint.com,60,MS,30.433899,-88.526996,6521 Highway 63,Moss Point,39563,(228) 762-3533
23085,23085,Toyota of Meridian,https://www.toyotaofmeridian.com,60,MS,32.388359,-88.683626,2900 Highway 39 North,Meridian,39301,(601) 485-1620
24022,24022,Seeger Toyota,https://www.seegertoyota.com,23,MO,38.681033,-90.474983,12833 Olive Street Road,Creve Coeur,63141,(314) 434-5000
24026,24026,Adams Toyota Lee's Summit,https://www.adamstoyota.com,23,MO,38.94606,-94.36789,501 N.E. Colbern Road,Lee's Summit,64086,(816) 358-7600
24036,24036,Tom Pappas Toyota,https://www.pappastoyota.com,23,MO,38.800211,-90.602019,10011 Spencer Road,St Peters,63376,(636) 928-1212
24045,24045,Lou Fusz Toyota,https://www.fusztoyota.com,23,MO,38.600683,-90.4048,10725 Manchester Road,Kirkwood,63122,(314) 966-5404
24052,24052,Straatmann Toyota,https://www.straatmanntoyota.com,23,MO,38.52573,-90.945553,215 George Hildner Drive,Washington,63090,(636) 239-4775
24053,24053,Seeger Toyota of St. Robert,https://www.seegertoyota.net,23,MO,37.824031,-92.150248,169 St. Robert Blvd.,St. Robert,65584,(573) 336-7111
24059,24059,Baldwin Toyota,https://www.baldwintoyota.com,23,MO,36.750968,-90.410314,801 S. Westwood Blvd.,Poplar Bluff,63901,(573) 785-6484
24061,24061,"Molle Toyota, Inc.",https://www.molletoyota.com,23,MO,38.94134,-94.60011,601 West 103rd Street,Kansas City,64114,(816) 942-5200
24063,24063,Jerry Ackerman Toyota,https://www.ackermantoyota.com,23,MO,38.619732,-90.28808,2020 Hampton Avenue,St. Louis,63139,(314) 351-3000
24067,24067,Twin City Toyota,https://www.twincitytoyota.com,23,MO,38.252581,-90.401567,301 Autumn Ridge Drive,Herculaneum,63048,(636) 931-0555
24068,24068,Toyota of West Plains,https://www.toyotaofwestplains.com,23,MO,36.749997,-91.872186,1802 Porter Wagoner Blvd.,West Plains,65775,(417) 256-1212
24071,24071,Reliable Toyota,https://www.reliabletoyotamo.com,23,MO,37.180676,-93.222038,3521 East Sunshine,Springfield,65809,(417) 889-9000
24074,24074,Jay Wolfe Toyota,https://www.jaywolfetoyota.com,23,MO,39.26851,-94.66667,9650 NW Prairie View Road,Kansas City,64153,(816) 454-8999
24076,24076,Frank Fletcher Toyota,https://www.fletcher-toyota.com,23,MO,37.065804,-94.477639,2209 S. Rangeline Road,Joplin,64804,(417) 626-9200
24077,24077,Jay Wolfe Toyota of West County,https://www.toyotaofwestcounty.com,23,MO,38.592697,-90.531731,14700 Manchester Road,Ballwin,63011,(636) 207-3900
24078,24078,Coad Toyota,https://www.coadtoyota.com,23,MO,37.294977,-89.579803,357 Siemers Drive,Cape Girardeau,63701,(573) 335-2927
24079,24079,Rolling Hills Toyota,https://www.rollinghillstoyota.com,23,MO,39.781926,-94.800823,1617 Cross Street,St. Joseph,64506,(816) 671-4500
24080,24080,McCarthy Toyota of Sedalia,https://www.mccarthytoyotaofsedalia.com,23,MO,38.709292,-93.266406,3110 W Broadway,Sedalia,65301,(660) 826-5400
24083,24083,Kirksville Toyota,https://www.kirksvilletoyota.com,23,MO,40.2312,-92.583059,3607 N. Baltimore Street,Kirksville,63501,(660) 665-2805
24084,24084,Joe Machens Toyota,https://www.joemachenstoyota.com,23,MO,38.970728,-92.322592,1180 Vandiver Drive,Columbia,65202,(573) 445-4450
24085,24085,Bommarito Toyota,https://www.bommaritotoyota.net,23,MO,38.780427,-90.358094,9095 Dunn Road,Hazelwood,63042,(314) 731-0911
24087,24087,Rusty Drewing Toyota,https://www.rustydrewingtoyota.com,23,MO,38.548098,-92.203703,2105 Christy Drive,Jefferson City,65101,(573) 893-3100
24088,24088,Victory Toyota of St. Louis,https://www.victorytoyotastlouis.com,23,MO,38.521417,-90.358667,11771 Tesson Ferry Road,St. Louis,63128,(314) 849-3700
25056,25056,City Toyota,https://www.city-toyota.com,13,MT,47.493266,-111.239613,3900 10th Avenue South,Great Falls,59405,(406) 761-4900
25060,25060,Toyota of Bozeman,https://www.toyotaofbozeman.com,13,MT,45.67,-111.126312,8476 Huffine Lane,Bozeman,59718,(406) 585-2002
25064,25064,Kalispell Toyota,https://www.kalispelltoyota.com,13,MT,48.166459,-114.28899,2845 Highway 93 South,Kalispell,59901,(406) 755-6060
25065,25065,Lithia Toyota of Billings,https://www.lithiatoyotabillings.com,13,MT,45.783905,-108.554908,1532 Grand Avenue,Billings,59102,(406) 245-7141
25066,25066,Lithia Toyota of Missoula,https://www.lithiatoyotamissoula.com,13,MT,46.834613,-114.046846,4001 Brooks St.,Missoula,59804,(406) 532-1300
25067,25067,Butte Toyota,https://www.buttetoyota.com,13,MT,45.945302,-112.508489,5103 Harrison Avenue,Butte,59701,(406) 782-9181
25068,25068,Toyota of Helena,https://www.toyotaofhelena.com,13,MT,46.590868,-111.967559,3365 Highway 12 East,Helena,59601,(406) 442-6310
26021,26021,Baxter Toyota of La Vista,https://www.toyotaoflavista.com,23,NE,41.188171,-96.107041,7204 S. 124th Circle,La Vista,68128,(402) 731-2000
26023,26023,Premier Toyota,https://www.premierautoplex.com,23,NE,41.110862,-100.767433,2600 S Willow & I-80,North Platte,69103,(308) 532-8400
26024,26024,Baxter Toyota of Lincoln,https://www.toyotaoflincoln.com,23,NE,40.725899,-96.673041,8600 South 33rd Street,Lincoln,68516,(402) 476-4000
26027,26027,Wagner Toyota,https://www.wagnertoyota.com,23,NE,40.199388,-100.628578,211 West 2nd Street,McCook,69001,(308) 345-2350
26029,26029,Team Toyota,https://www.teamtoyotascottsbluff.com,23,NE,41.864686,-103.637031,2014 E. 20th Place,Scottsbluff,69361,(308) 632-2173
26030,26030,Village Pointe Toyota,https://www.villagepointetoyota.com,23,NE,41.265345,-96.20041,18201 Cuming Street,Omaha,68022,(402) 496-4444
26031,26031,Corwin Toyota of Bellevue,https://www.corwintoyotaofbellevue.com,23,NE,41.1807,-95.9422,7851 S. 19th Circle,Bellevue,68147,(402) 733-4445
26032,26032,Gregg Young Toyota of Columbus,https://www.greggyoungtoyotacolumbus.com,23,NE,41.437531,-97.318075,815 East 23rd Street,Columbus,68601,(402) 562-8698
26033,26033,Woodhouse Toyota,https://www.woodhousetoyota.com,23,NE,40.920114,-98.384008,3510 Kaufman,Grand Island,68803,(308) 382-4620
27013,27013,Dolan Toyota,https://www.dolanrenotoyota.com,15,NV,39.503316,-119.788566,2100 Kietzke Lane,Reno,89502,(775) 826-2750
27015,27015,Carson City Toyota,https://www.carsoncitytoyota.com,15,NV,39.143833,-119.768715,2590 South Carson Street,Carson City,89701,(775) 882-8211
27016,27016,Fallon Ford Toyota,https://www.fallontoyota.com,15,NV,39.474514,-118.79251,1351 W. Williams Avenue,Fallon,89406,(775) 423-2171
27020,27020,Findlay Toyota,https://www.findlaytoyota.com,15,NV,36.0475,-115.0204,7733 Eastgate Road,Henderson,89011,(702) 566-2000
27021,27021,AutoNation Toyota Las Vegas,https://www.autonationtoyotalasvegas.com,15,NV,36.1447,-115.2306,6300 West Sahara Avenue,Las Vegas,89146,(702) 605-5801
27022,27022,Centennial Toyota,https://www.centennialtoyota.com,15,NV,36.2764,-115.2734,6401 Centennial Center Blvd.,Las Vegas,89149,(702) 942-3800
27023,27023,Elko Toyota,https://www.elkotoyota.com,15,NV,40.834697,-115.740047,1585 Lamoille Hwy.,Elko,89801,(775) 777-2277
27024,27024,David Wilson's Toyota of Las Vegas,https://www.dwtoyotalasvegas.com,15,NV,36.143896,-115.104659,3255 East Sahara Avenue,Las Vegas,89104,(702) 457-2000
28012,28012,Grappone Toyota,https://www.grapponetoyota.com,17,NH,43.170513,-71.526577,594 Route 3-A,Bow,03304,(603) 224-9912
28021,28021,Bill Dube Toyota,https://www.billdubetoyota.com,9999,NH,43.1724,-70.85966,40 Dover Point Road,Dover,03820,(603) 749-5500
28024,28024,Irwin Toyota,https://www.irwinzonetoyota.com,9999,NH,43.536206,-71.466192,59 Bisson Avenue,Laconia,03246,(603) 524-4922
28029,28029,Toyota of Keene,https://www.toyotakeene.com,9999,NH,42.875373,-72.231658,591 Monadnock Hwy. Rt 12,East Swanzey,03446,(603) 354-5000
28036,28036,Ira Toyota of Manchester,https://www.toyotaofmanchesternh.com,9999,NH,42.952,-71.4383,33 Autocenter Road,Manchester,03103,(603) 624-1800
28037,28037,Berlin City Toyota,https://www.berlincitytoyotanh.com,17,NH,44.41326,-71.195554,485 Main Street,Gorham,03581,(603) 752-6644
28038,28038,Toyota of Nashua,https://www.toyotaofnashua.com,9999,NH,42.728407,-71.445614,10 Marmon Drive,Nashua,03060,(603) 888-3555
28039,28039,McGee Toyota of Claremont,https://www.mcgeetoyotaofclaremont.com,9999,NH,43.348607,-72.361492,168 Charlestown Road,Claremont,03743,(603) 542-5181
28040,28040,McGee Toyota of Epping,https://www.mcgeetoyotaofepping.com,9999,NH,43.028061,-71.075293,58 Calef Highway,Epping,03042,(603) 693-1010
28041,28041,Canobie Lake Toyota,https://www.canobielaketoyota.com,9999,NH,42.7489,-71.2042,412 S. Broadway,Salem,03079,(603) 893-3525
28042,28042,Rochester Toyota,https://www.rochestertoyota.net,9999,NH,43.327738,-71.004977,48 Farmington Rd-Route 11 West,Rochester,03867,(603) 332-5131
28043,28043,McGovern Toyota of Portsmouth,https://www.mcgoverntoyotaofportsmouth.com,9999,NH,43.0584,-70.7723,150 Greenleaf Avenue,Portsmouth,03801,(603) 431-6100
28045,28045,McGovern Toyota of Concord,https://www.mcgoverntoyotaofconcord.com,9999,NH,43.170513,-71.526577,594 Route 3-A,Bow,03304,(603) 224-9912
29008,29008,Parkway Toyota,https://www.parkwaytoyota.com,16,NJ,40.868421,-73.958307,50 Sylvan Avenue,Englewood Cliffs,07632,(201) 944-3300
29025,29025,Toyota of Hackensack,https://www.toyotaofhackensack.com,16,NJ,40.886901,-74.039269,278 River Street,Hackensack,07601,(201) 488-7777
29031,29031,Galaxy Toyota,https://www.galaxytoyota.net,16,NJ,40.291614,-74.039874,750 Route 36,Eatontown,07724,(732) 544-1000
29037,29037,"Glen Motors, Inc.",https://www.glentoyota.com,16,NJ,40.948616,-74.137978,23-07 Maple Avenue,Fair Lawn,07410,(201) 791-3800
29058,29058,Towne Toyota,https://www.townetoyota.com,16,NJ,40.888436,-74.662269,1499 Route 46,Ledgewood,07852,(973) 584-8100
29059,29059,Toyota of Morristown,https://www.toyotaofmorristown.com,16,NJ,40.805132,-74.46398,169 Ridgedale Ave,Morristown,07960,(973) 540-1111
29062,29062,Toyota of Runnemede,https://www.toyotaofrunnemede.com,16,NJ,39.846956,-75.07215,99 South Black Horse Pike,Runnemede,08078,(856) 939-3400
29069,29069,Shore Toyota,https://www.shoretoyota.com,16,NJ,39.44389,-74.62752,4236 Black Horse Pike,Mays Landing,08330,(609) 645-2770
29071,29071,Liberty Toyota,https://www.libertytoyota.com,16,NJ,40.058171,-74.88692,4397 South Route 130,Burlington,08016,(609) 386-6300
29073,29073,Team Toyota of Princeton,https://www.teamtoyotaprinceton.com,16,NJ,40.271051,-74.711816,2871 Route 1,Lawrenceville,08648,(609) 883-4200
29075,29075,Sansone Toyota,https://www.sansonestoyota.com,16,NJ,40.592269,-74.274102,100 Route 1 North,Avenel,07001,(732) 587-1100
29078,29078,Toyota Universe,https://www.toyotauniverse.com,16,NJ,40.883904,-74.213483,1485 Route 46 East,Little Falls,07424,(973) 785-4710
29081,29081,Crestmont Toyota,https://www.crestmonttoyota.com,16,NJ,40.975096,-74.289485,730 State Route 23,Pompton Plains,07444,(973) 839-2500
29083,29083,Route 22 Toyota,https://www.route22toyota.com,16,NJ,40.697248,-74.221547,109 Route 22 West,Hillside,07205,(973) 705-9400
29086,29086,Toyota of Vineland,https://www.toyotaofvineland.com,16,NJ,39.496649,-75.042535,650 North Delsea Drive,Vineland,08360,(856) 696-5900
29090,29090,Hudson Toyota,https://www.hudsontoyota.com,16,NJ,40.717188,-74.095409,599 Route 440,Jersey City,07304,(201) 862-7579
29092,29092,Gateway Toyota,https://www.gatewaytoyota.com,16,NJ,39.956381,-74.168649,395 Rt 37E & Batchelor St,Toms River,08753,(732) 240-2000
29095,29095,Toyota World of Lakewood,https://www.lakewoodtoyota.com,16,NJ,40.083502,-74.173113,1118 Route 88,Lakewood,08701,(732) 364-9000
29099,29099,Toyota of Turnersville,https://www.toyotaofturnersville.com,16,NJ,39.729815,-75.032018,3400 Route 42,Turnersville,08012,(856) 728-5000
29100,29100,Toyota World of Newton,https://www.newtontoyota.com,16,NJ,41.079974,-74.73527,66 Route 206 North,Newton,07860,(973) 383-0200
29101,29101,Dayton Toyota,https://www.daytontoyota.com,16,NJ,40.375977,-74.501527,2291 Route 130,Dayton,08810,(732) 329-9191
29102,29102,Holman Toyota,https://www.holmantoyota.com,16,NJ,39.91802,-74.944225,1301 Route 73,Mount Laurel,08054,(856) 866-2000
29103,29103,East Coast Toyota,https://www.eastcoasttoyota.com,16,NJ,40.841653,-74.082592,85 State Highway 17,Wood Ridge,07075,(201) 939-9400
29104,29104,Fred Beans Toyota of Flemington,https://www.fredbeanstoyota.com,16,NJ,40.477717,-74.863216,174 Route 202 North,Flemington,08822,(908) 788-5700
29105,29105,DCH Freehold Toyota,https://www.dchfreeholdtoyota.com,16,NJ,40.278497,-74.295065,4268 Route 9 South,Freehold,07728,(732) 431-1300
29106,29106,DCH Brunswick Toyota,https://www.dchbrunswicktoyota.com,16,NJ,40.45593,-74.479355,1504 U.S. Route 1,North Brunswick,08902,(732) 418-8888
29107,29107,Paul Miller Toyota,https://www.paulmillertoyota.com,16,NJ,40.855834,-74.31039,1137-1183 Bloomfield Avenue,West Caldwell,07006,(973) 882-1822
29108,29108,Autoland Toyota,https://www.1800toyotaland.com,16,NJ,40.685077,-74.320064,170 Route 22 East,Springfield,07081,(973) 467-6101
29113,29113,Prestige Toyota of Ramsey,https://www.prestigetoyota.com,16,NJ,41.067361,-74.133227,1096 Route 17 North,Ramsey,07446,(201) 825-2700
29114,29114,Toyota World of Clinton,https://www.toyotaworldclinton.com,16,NJ,40.675616,-74.915872,2017 Route 31,Clinton,08809,(908) 638-4100
29115,29115,Empire Toyota of Green Brook,https://www.shopempiretoyotaofgreenbrook.com,16,NJ,40.600317,-74.483117,220 Route 22 West,Green Brook,08812,(732) 968-1000
30032,30032,Webb Toyota,https://www.webbtoyota.com,15,NM,36.752747,-108.1563,3701 E. Main Street,Farmington,87402,(505) 327-5900
30033,30033,Permian Toyota,https://www.permiantoyota.com,15,NM,32.738299,-103.14398,3500 North Grimes Street,Hobbs,88240,(575) 397-1100
30036,30036,Amigo Toyota,https://www.amigotoyota.com,15,NM,35.506379,-108.739503,2000 S. 2nd Street,Gallup,87301,(505) 722-3881
30041,30041,Roswell Toyota,https://www.roswelltoyota.com,15,NM,33.394724,-104.556163,2211 West Second Street,Roswell,88201,(575) 622-5860
30044,30044,Toyota of Santa Fe,https://www.toyotaofsantafe.com,15,NM,35.661859,-105.976442,1601 St. Michaels Drive,Santa Fe,87505,(505) 982-1901
30046,30046,Hamilton Toyota,https://www.hamilton-toyota.com,15,NM,34.404927,-103.212169,600 W. 7th Street,Clovis,88101,(575) 762-4551
30047,30047,Hatch Toyota Stateline,https://www.hatchtoyotastateline.com,15,NM,32.78622,-108.246676,2750 Highway 180 E.,Silver City,88061,(575) 538-3777
30048,30048,Viva Toyota of Las Cruces,https://www.vivatoyotaoflascruces.com,15,NM,32.2992,-106.791,780 South Valley Drive,Las Cruces,88005,(575) 523-5566
30049,30049,Larry H. Miller American Toyota Albuquerque,https://www.americantoyota.com,15,NM,35.185336,-106.578793,5995 Alameda Blvd. N.E.,Albuquerque,87113,(505) 823-4440
30050,30050,Sandia Toyota,https://www.sandiatoyota.com,15,NM,35.081117,-106.531131,"10401 Copper Avenue, N.E.",Albuquerque,87123,(505) 294-8800
30051,30051,Casa Toyota,https://www.casatoyotanm.com,15,NM,32.935007,-105.965193,3333 N. White Sands Blvd.,Alamogordo,88310,(575) 437-7530
31011,31011,Johnstons Toyota,https://www.johnstonstoyota.com,16,NY,41.409505,-74.415822,5021 Route 17M,New Hampton,10958,(845) 374-8600
31019,31019,Waite Toyota,https://www.waitetoyota.com,16,NY,43.932602,-75.935842,18406 US Route 11,Watertown,13601,(315) 788-6022
31024,31024,Kinderhook Toyota,https://www.kinderhooktoyota.com,16,NY,42.332788,-73.703578,1908 State Route 9H,Hudson,12534,(518) 822-9911
31039,31039,Queensboro Toyota,https://www.queensborotoyota.com,16,NY,40.753871,-73.899891,62-10 Northern Boulevard,Woodside,11377,(718) 335-8600
31068,31068,Northtown Toyota,https://www.northtowntoyota.com,16,NY,42.981706,-78.796624,1135 Millersport Highway,Amherst,14226,(716) 836-4600
31069,31069,Hoselton Toyota,https://www.hoseltontoyota.com,16,NY,43.10067,-77.480876,50 Marsh Road,East Rochester,14445,(585) 381-8530
31076,31076,Penn Toyota,https://www.penntoyota.com,16,NY,40.807765,-73.632855,2400 Northern Blvd.,Greenvale,11548,(516) 621-8600
31088,31088,Burdick Toyota,https://www.burdicktoyota.com,16,NY,43.151723,-76.111666,5947 East Circle Drive,Cicero,13039,(315) 458-7590
31101,31101,T J Toyota,https://www.tjtoyota.com,16,NY,44.696766,-74.986977,6706 State Highway 56,Potsdam,13676,(315) 265-3350
31105,31105,Smithtown Toyota,https://www.smithtowntoyota.com,16,NY,40.85579,-73.170657,360 East Jericho Turnpike,Smithtown,11787,(631) 724-3300
31112,31112,Prestige Toyota,https://www.prestigetoyota-ny.com,16,NY,41.956961,-73.990824,756 E. Chester St By-Pass,Kingston,12401,(845) 339-3313
31113,31113,Gault Toyota,https://www.gaulttoyota.com,16,NY,42.107245,-76.037911,2205 North Street,Endicott,13760,(607) 748-8244
31115,31115,Romano Toyota,https://www.romanotoyota.com,16,NY,43.061924,-76.062393,6400 Basile Rowe,East Syracuse,13057,(315) 445-1071
31116,31116,New Country Toyota of Saratoga Springs,https://www.toyotaofsaratogasprings.com,16,NY,43.099633,-73.750893,3002 Route 50,Saratoga Springs,12866,(518) 584-7272
31119,31119,Lia Toyota of Colonie,https://www.liatoyotaofcolonie.com,16,NY,42.755822,-73.876879,"2116 Central Ave., Rte. 5",Schenectady,12304,(518) 374-3700
31121,31121,Fordham Toyota,https://www.fordhamtoyota.com,16,NY,40.861761,-73.910378,236-240 W. Fordham Road,Bronx,10468,(718) 367-0400
31124,31124,Empire Toyota,https://www.empiretoyota.com,16,NY,42.446514,-75.0126,6281 State Highway 23,Oneonta,13820,(607) 433-0045
31132,31132,New Country Toyota of Clifton Park,https://www.toyotaofcliftonpark.com,16,NY,42.870695,-73.725193,202 Route 146,Mechanicville,12118,(518) 664-4444
31135,31135,New Rochelle Toyota,https://www.newrochelletoyota.com,16,NY,40.914543,-73.778288,47 Cedar Street,New Rochelle,10801,(914) 576-8000
31138,31138,Westchester Toyota,https://www.westchestertoyota.com,16,NY,40.972936,-73.834946,2167 Central Park Avenue,Yonkers,10710,(914) 779-8700
31139,31139,Riverhead Toyota,https://www.riverheadtoyota.com,16,NY,40.924133,-72.69902,1655 Old Country Road,Riverhead,11901,(631) 727-7722
31141,31141,Luv Toyota,https://www.luvtoyota.com,16,NY,42.09807,-79.309315,215 East Fairmount Avenue,Lakewood,14750,(716) 763-3300
31142,31142,Steet Toyota,https://www.steettoyota.com,16,NY,43.105436,-75.297113,4991 Commercial Drive,Yorkville,13495,(315) 736-8241
31144,31144,Star Toyota of Bayside,https://www.startoyota.com,16,NY,40.75829,-73.778042,205-11 Northern Blvd.,Bayside,11361,(718) 279-1800
31154,31154,Millennium Toyota,https://www.millenniumtoyota.com,16,NY,40.714606,-73.630242,257 North Franklin Street,Hempstead,11550,(516) 485-1400
31156,31156,Plaza Toyota,https://www.plazatoyota.com,16,NY,40.61816,-73.945086,2721 Nostrand Avenue,Brooklyn,11210,(718) 253-8400
31160,31160,West Herr Toyota of Orchard Park,https://www.toyotaorchardpark.com,16,NY,42.7712,-78.80782,4141 Southwestern Blvd.,Orchard Park,14127,(716) 648-4141
31161,31161,City World Toyota,https://www.cityworldtoyota.com,16,NY,40.874226,-73.852729,3333 Boston Road,Bronx,10469,(718) 655-7000
31162,31162,Toyota of Manhattan,https://www.toyotaofmanhattan.com,16,NY,40.76514,-73.99528,677-681 11th Avenue,New York,10019,(212) 399-9600
31165,31165,Basil Toyota,https://www.basiltoyota.com,16,NY,43.123751,-78.695558,6157 South Transit Road,Lockport,14094,(716) 625-8444
31166,31166,Atlantic Toyota,https://www.atlantictoyotany.com,16,NY,40.7206,-73.304364,207 Sunrise Highway,West Islip,11795,(631) 789-2700
31167,31167,Toyota of Batavia,https://www.toyotaofbatavia.com,16,NY,43.007262,-78.223445,3899 West Main Street Road,Batavia,14020,(585) 344-4141
31171,31171,Newburgh Toyota,https://www.newburghtoyota.com,16,NY,41.515671,-74.103191,218 Route 17K,Newburgh,12550,(845) 561-0340
31172,31172,Curry Toyota,https://www.currytoyota.com,16,NY,41.308003,-73.877117,3026 E. Main Street,Cortlandt Manor,10567,(914) 528-4347
31173,31173,Advantage Toyota,https://www.advantagetoyotany.com,16,NY,40.66368,-73.71606,400 Sunrise Highway,Valley Stream,11581,(516) 887-8600
31174,31174,Steet Toyota of Johnstown-Gloversville,https://www.steettoyotajohnstown.com,16,NY,43.023718,-74.360132,310 North Comrie Avenue,Johnstown,12095,(518) 762-7222
31175,31175,West Herr Toyota of Williamsville,https://www.toyotawilliamsville.com,16,NY,42.96458,-78.69261,8129 Main Street,Williamsville,14221,(716) 250-5500
31176,31176,Interstate Toyota,https://www.interstatetoyota.net,16,NY,41.109791,-74.08845,411 Route 59,Airmont,10952,(845) 352-6200
31177,31177,Maguire Toyota,https://www.maguiretoyota.com,16,NY,42.422695,-76.516612,370 Elmira Road,Ithaca,14850,(607) 257-1515
31178,31178,Sunrise Toyota,https://www.sunrisetoyota.com,16,NY,40.748152,-73.141489,3984 Sunrise Highway,Oakdale,11769,(631) 589-9000
31179,31179,Empire Toyota of Huntington,https://www.shopempiretoyota.com,16,NY,40.835372,-73.371609,1030 East Jericho Turnpke,Huntington Station,11746,(631) 498-8302
31180,31180,Della Toyota,https://www.dellatoyota.com,16,NY,44.697232,-73.516205,32 Della Drive,Plattsburgh,12901,(518) 563-4131
31181,31181,Westbury Toyota,https://www.westburytoyota.com,16,NY,40.756051,-73.553812,1121 Old Country Road,Westbury,11590,(516) 333-3100
31182,31182,Williams Toyota of Elmira,https://www.williamstoyotaofelmira.com,16,NY,42.15845,-76.862703,1074 County Route 64,Elmira,14903,(607) 796-9600
31183,31183,DCH Wappingers Falls Toyota,https://www.dchwappingerstoyota.com,16,NY,41.580834,-73.90942,1349 Route 9,Wappingers Falls,12590,(845) 298-8880
31185,31185,Rivera Toyota of Mt. Kisco,https://www.riveratoyota.com,16,NY,41.219275,-73.717433,325 N. Bedford Road,Mt. Kisco,10549,(914) 666-5181
31186,31186,Island Toyota,https://www.islandtoyota.com,16,NY,40.589859,-74.089501,1591 Hylan Boulevard,Staten Island,10305,(718) 874-8888
31188,31188,Northway Toyota,https://www.northwaytoyota.com,16,NY,42.741769,-73.761767,737 New Loudon Road,Latham,12110,(518) 783-1951
31189,31189,Lia Toyota of Rockland,https://www.liatoyotaofrockland.com,16,NY,41.080134,-73.949721,618 Route 303,Blauvelt,10913,(845) 358-2220
31190,31190,Sunrise Toyota North,https://www.sunrisetoyotanorth.com,16,NY,40.88373,-72.938763,910 Middle Country Road,Middle Island,11953,(631) 924-8100
31191,31191,Toyota of Massapequa,https://www.toyotaofmassapequany.com,16,NY,40.6739,-73.497,3660 Sunrise Highway,Seaford,11783,(516) 217-1400
31192,31192,Hillside Toyota,https://www.hillsidetoyota.nyc,16,NY,40.704486,-73.815078,139-65 Queens Boulevard,Jamaica,11435,(718) 657-2220
31194,31194,Fox Toyota,https://www.fox-toyota.com,16,NY,42.947117,-76.548579,188 Grant Avenue,Auburn,13021,(315) 253-7341
31195,31195,Toyota City,https://www.toyotacityny.com,16,NY,40.954308,-73.717713,1305 East Boston Post Rd.,Mamaroneck,10543,(914) 998-1000
31196,31196,Romeo Toyota of Glens Falls,https://www.romeotoyotaofglensfalls.com,16,NY,43.304193,-73.65974,163-169 Broad Street,Glens Falls,12801,(518) 793-5611
31197,31197,West Herr Toyota of Canandaigua,https://www.toyotacanandaigua.com,16,NY,42.91323,-77.30032,2435 State Route 332,Canandaigua,14424,(585) 394-5280
31198,31198,West Herr Toyota of Rochester,https://www.westherrtoyotarochester.com,16,NY,43.21758,-77.74646,4374 Ridge Road West,Rochester,14626,(585) 225-6600
31200,31200,Bob Johnson Toyota,https://www.bobjohnsontoyota.com,16,NY,43.086199,-77.637548,3399 West Henrietta Road,Rochester,14623,(585) 475-1700
31201,31201,Williams Toyota of Binghamton,https://www.williamstoyotaofbinghamton.com,16,NY,42.104446,-75.884796,393 Court Street,Binghamton,13904,(607) 724-1334
31202,31202,Nye Toyota,https://www.nyetoyota.com,16,NY,43.076483,-75.68303,1441 Genesee Street,Oneida,13421,(315) 363-1000
31203,31203,Maguire Toyota of Grand Island,https://www.maguiretoyotaofgrandisland.com,16,NY,43.015246,-78.971947,1974 Alvin Road,Grand Island,14072,(716) 773-7505
31204,31204,Toyota of Bay Ridge Brooklyn,https://www.toyotaofbayridge.com,16,NY,40.63566,-74.016338,6401 6th Avenue,Brooklyn,11220,(718) 439-7888
32001,32001,Toyota of Greensboro,https://www.toyotaofgreensboro.com,50,NC,36.109296,-79.828663,2630 Battleground Avenue,Greensboro,27408,(336) 288-1190
32015,32015,Cox Toyota,https://www.coxtoyota.com,50,NC,36.06358,-79.523555,3860 Danbrook Road,Burlington,27215,(336) 226-6361
32024,32024,Massey Toyota,https://www.masseytoyota.com,50,NC,35.261223,-77.660323,4760 Highway 70 West,Kinston,28504,(252) 523-6111
32069,32069,Peterson Toyota,https://www.petersontoyota.com,50,NC,34.652941,-78.999895,4381 Fayetteville Road,Lumberton,28359,(910) 738-5241
32076,32076,Rick Hendrick Toyota,https://www.rickhendricktoyota.com,50,NC,35.061941,-78.967596,1969 Skibo Road,Fayetteville,28314,(910) 868-5071
32082,32082,Vann York Toyota,https://www.vannyorktoyota.com,50,NC,35.983698,-80.009287,500 Eastchester Drive,High Point,27262,(336) 885-9016
32096,32096,Scott Clark Toyota,https://www.scottclarkstoyota.com,50,NC,35.101511,-80.68129,13052 Marie Garris Drive,Matthews,28105,(704) 535-1972
32097,32097,Fred Anderson Toyota,https://www.fredandersontoyota.com,50,NC,35.893626,-78.757037,9101 Glenwood Avenue,Raleigh,27617,(919) 787-0099
32106,32106,Hendrick Toyota Concord,https://www.hendricktoyotaconcord.com,50,NC,35.364186,-80.706176,7670 Bruton Smith Blvd.,Concord,28027,(704) 979-7700
32110,32110,Cloninger Toyota,https://www.cloningertoyota.com,50,NC,35.646171,-80.491457,511 Jake Alexander Blvd. South,Salisbury,28147,(704) 755-6508
32111,32111,Modern Toyota,https://www.moderntoyota.com,50,NC,36.04643,-80.261699,3178 Peters Creek Parkway,Winston-Salem,27127,(336) 785-3100
32113,32113,Bryan Easler Toyota,https://www.bryaneaslertoyota.com,50,NC,35.29988,-82.43941,1409 Spartanburg Highway,Hendersonville,28792,(828) 693-7261
32115,32115,Griffin Toyota,https://www.griffintoyota.com,50,NC,34.909397,-79.717169,949 U.S. Highway 74 East,Hamlet,28345,(910) 582-3300
32118,32118,Greenville Toyota,https://www.greenvilletoyota.com,50,NC,35.564457,-77.403553,3615 South Memorial Drive,Greenville,27834,(252) 321-3000
32125,32125,Pinehurst Toyota,https://www.pinehursttoyota.com,50,NC,35.16495,-79.423031,10760 US Highway 15-501,Southern Pines,28387,(910) 692-2424
32126,32126,Town & Country Toyota,https://www.townandcountrytoyota.com,50,NC,35.113484,-80.88284,9101 South Boulevard,Charlotte,28273,(704) 552-7600
32129,32129,Mike Johnson's Hickory Toyota,https://www.hickorytoyota.com,50,NC,35.712047,-81.325241,435 Highway 70 S.E.,Hickory,28602,(828) 328-5586
32130,32130,Hendrick Toyota Wilmington,https://www.toyotaofwilmington.com,50,NC,34.248139,-77.862593,5640 Market Street,Wilmington,28405,(910) 791-9735
32131,32131,Pecheles Ford Toyota,https://www.pechelestoyota.com,50,NC,35.591636,-77.099851,4020 Highway 264 West,Washington,27889,(252) 975-1500
32133,32133,Fred Anderson Toyota of Sanford,https://www.toyotaofsanford.com,50,NC,35.442921,-79.127445,3321 Highway 87 South,Sanford,27332,(919) 708-5000
32134,32134,Toyota of New Bern,https://www.toyotaofnewbern.com,50,NC,35.003988,-76.988107,5010 Highway 70 East,New Bern,28560,(252) 637-7200
32136,32136,Hubert Vester Toyota of Wilson,https://www.hubertvestertoyota.com,50,NC,35.7481,-77.9671,3712 Raleigh Road Pkwy.,Wilson,27896,(252) 291-5300
32139,32139,Toyota of Gastonia,https://www.toyotaofgastonia.com,50,NC,35.255481,-81.09268,4821 Wilkinson Boulevard,Gastonia,28056,(704) 824-7777
32140,32140,Toyota of Goldsboro,https://www.toyotaofgoldsboro.com,50,NC,35.371125,-77.931012,301 N. Oak Forest Road,Goldsboro,27534,(919) 778-3232
32141,32141,Modern Toyota of Boone,https://www.moderntoyotaofboone.com,50,NC,36.22267,-81.65288,225 Modern Drive,Boone,28607,(828) 264-1491
32142,32142,Hendrick Toyota Apex,https://www.hendricktoyotaapex.com,50,NC,35.749877,-78.836851,1210 Laura Village Drive,Apex,27523,(919) 335-1600
32143,32143,Flow Toyota of Statesville,https://www.flowtoyotaofstatesville.com,50,NC,35.78056,-80.86273,997 Folger Drive,Statesville,28625,(704) 872-2771
32144,32144,Mount Airy Toyota,https://www.mountairytoyota.com,50,NC,36.5095,-80.624961,508 N Andy Griffith Pkwy,Mount Airy,27030,(336) 786-2118
32146,32146,Deacon Jones Toyota,https://www.deaconjonestoyota.com,50,NC,34.99123,-78.35533,1613 Sunset Avenue,Clinton,28328,(910) 592-8951
32147,32147,Classic Toyota of Wilkesboro,https://www.classictoyotawilkesboro.com,50,NC,36.15528,-81.168728,1511 West D Street,North Wilkesboro,28659,(336) 667-1185
32148,32148,Fred Anderson Toyota of Asheville,https://www.ashevilletoyota.com,50,NC,35.53621,-82.60152,777 Brevard Road,Asheville,28806,(828) 667-8888
32150,32150,Stevenson-Hendrick Toyota Jacksonville,https://www.stevensonhendricktoyota.com,50,NC,34.790294,-77.37285,3124 New Bern Highway,Jacksonville,28546,(910) 937-1555
32152,32152,Hall Toyota Elizabeth City,https://www.halltoyotaelizabethcity.com,50,NC,36.2853,-76.237246,1002 Halstead Blvd.,Elizabeth City,27909,(252) 335-4301
32153,32153,Classic Toyota of Henderson,https://www.classictoyotahenderson.com,50,NC,36.3225,-78.4511,205 Toyota Lane,Henderson,27537,(252) 438-2181
32154,32154,Mark Jacobson Toyota,https://www.markjacobsontoyota.com,50,NC,35.96301,-78.975932,4516 Durham Chapel Hill Blvd.,Durham,27707,(919) 493-5599
32155,32155,Modern Toyota of Asheboro,https://www.moderntoyotaofasheboro.com,50,NC,35.703614,-79.780261,1636 Highway 64 East,Asheboro,27203,(336) 629-9148
32156,32156,Toyota of Roanoke Rapids,https://www.toyotaofroanokerapids.com,50,NC,36.44097,-77.6431,1836 Premier Blvd.,Roanoke Rapids,27870,(252) 537-6161
32157,32157,Toyota of North Charlotte,https://www.toyotaofnorthcharlotte.com,50,NC,35.401471,-80.852908,13429 Statesville Road,Huntersville,28078,(704) 875-9199
32158,32158,Leith Toyota,https://www.leithtoyota.com,50,NC,35.890317,-78.563795,8005 Capital Blvd.,Raleigh,27616,(919) 876-5900
32159,32159,CMA's Rocky Mount Toyota,https://www.cmasrockymounttoyota.com,50,NC,35.968973,-77.812327,943 N. Wesleyan Blvd.,Rocky Mount,27804,(252) 977-0224
33010,33010,Lloyds Toyota,https://www.lloydstoyota.com,23,ND,46.892392,-98.715803,500 17th St SW,Jamestown,58401,(701) 252-4690
33017,33017,Lake Toyota,https://www.laketoyota.com,23,ND,48.100295,-98.859422,424 Highway 2 East,Devils Lake,58301,(701) 888-4019
33021,33021,Corwin Toyota,https://www.corwintoyota.com,23,ND,46.873276,-96.844771,222 South 40th Street,Fargo,58103,(701) 282-8425
33024,33024,Dan Porter Honda-Toyota,https://www.danportertoyota.com,23,ND,46.882861,-102.749101,2391 E. I-94 Business LP,Dickinson,58601,(701) 227-1272
33025,33025,Cedric Theel Toyota,https://www.cedrictheeltoyota.com,23,ND,46.833597,-100.728641,3955 Trenton Drive,Bismarck,58503,(701) 223-2190
33031,33031,Rydell Toyota of Grand Forks,https://www.rydelltoyota.com,23,ND,47.887799,-97.060543,2473 South 32nd Avenue,Grand Forks,58201,(701) 787-6259
33032,33032,Minot Toyota,https://www.minottoyota.com,23,ND,48.196659,-101.294638,3615 South Broadway,Minot,58702,(701) 852-0151
34025,34025,Tansky Sawmill Toyota,https://www.tanskysawmilltoyota.com,22,OH,40.09528,-83.09117,6300 Sawmill Road,Dublin,43017,(614) 766-4800
34026,34026,Jim White Toyota,https://www.jimwhitetoyota.com,22,OH,41.6754,-83.687922,6123 West Central Avenue,Toledo,43615,(419) 841-6681
34041,34041,Germain Toyota of Columbus,https://www.germaintoyota.net,22,OH,39.931883,-82.839501,5711 Scarborough Blvd.,Columbus,43232,(614) 868-0300
34044,34044,Performance Toyota,https://www.performancetoyotastore.com,9999,OH,39.332041,-84.52006,5676 Dixie Highway,Fairfield,45014,(513) 874-8797
34050,34050,Graham Toyota,https://www.grahamtoyota.com,22,OH,40.767788,-82.564931,1515 West Fourth Street,Mansfield,44906,(419) 529-1800
34064,34064,Glockner Toyota,https://www.glocknertoyota.com,22,OH,38.769468,-82.986238,2867 U.S. Route 23,Portsmouth,45662,(740) 354-3255
34070,34070,Toyota Direct,https://www.toyotadirect.com,22,OH,40.057783,-82.897578,4248 Morse Road,Columbus,43230,(614) 476-1979
34073,34073,Walker Toyota,https://www.walkertoyota.com,22,OH,39.627343,-84.226654,8457 Springboro Pike,Miamisburg,45342,(937) 433-4950
34077,34077,Joseph Airport Toyota,https://www.josephairporttoyota.com,9999,OH,39.888754,-84.22091,1180 W National Road,Vandalia,45377,(937) 898-8060
34078,34078,Beechmont Toyota,https://www.beechmonttoyota.com,9999,OH,39.071617,-84.314085,8667 Beechmont Avenue,Cincinnati,45255,(513) 388-3800
34080,34080,McDaniel Toyota,https://www.mcdanieltoyota.com,22,OH,40.580669,-83.099695,1111 Mt. Vernon Avenue,Marion,43302,(740) 389-2355
34085,34085,Kings Toyota,https://www.kingstoyota.com,9999,OH,39.29334,-84.309744,4700 Fields Ertel Road,Cincinnati,45249,(513) 683-5440
34089,34089,Joseph Toyota of Cincinnati,https://www.josephtoyota.com,9999,OH,39.236883,-84.592682,9101 Colerain Avenue,Cincinnati,45251,(513) 385-1800
34090,34090,Brunswick Toyota,https://www.brunswickautomarttoyota.com,22,OH,41.23975,-81.797097,3041 Center Road,Brunswick,44212,(330) 273-3300
34092,34092,Thayer Toyota,https://www.thayertoyota.com,22,OH,41.3973,-83.65111,1225 North Main Street,Bowling Green,43402,(419) 353-5751
34093,34093,Classic Toyota,https://www.driveclassictoyota.com,22,OH,41.684417,-81.33458,8510 Tyler Blvd.,Mentor,44060,(440) 953-0910
34096,34096,Voss Toyota,https://www.vosstoyota.com,9999,OH,39.70573,-84.01378,2110 Heller Drive,Beavercreek,45434,(937) 427-3700
34098,34098,Team Toyota,https://www.teamtoyotaohio.com,22,OH,40.375672,-80.631053,905 Brady Avenue,Steubenville,43952,(740) 283-4131
34099,34099,Nourse Toyota,https://www.noursetoyota.com,22,OH,39.34733,-82.97475,423 N. Bridge Street,Chillicothe,45601,(740) 773-7913
34101,34101,Don Wood Toyota,https://www.donwoodtoyota.com,9999,OH,39.337316,-82.070728,900 East State Street,Athens,45701,(740) 593-6641
34102,34102,Coughlin Toyota,https://www.coughlintoyota.com,22,OH,39.991777,-82.476346,2360 Hebron Road,Heath,43056,(740) 929-9000
34104,34104,Ferris Toyota,https://www.ferristoyota.com,22,OH,40.504293,-81.457155,"634 Wabash Avenue, N.W.",New Philadelphia,44663,(330) 343-7761
34109,34109,Ken Ganley Toyota Akron,https://www.kenganleytoyotaakron.com,22,OH,41.063883,-81.477328,1395 East Market Street,Akron,44305,(330) 733-7511
34111,34111,Toyota of Warren,https://www.toyotaofwarren.com,22,OH,41.2071,-80.74,2657 Niles-Cortland Road,Warren,44484,(330) 369-1678
34116,34116,Jeff Wyler Toyota of Springfield,https://jeffwylerspringfieldtoyota.net,9999,OH,39.941271,-83.846295,2237 West First Street,Springfield,45504,(937) 325-4601
34118,34118,Toyota of Bedford,https://www.toyotaofbedford.com,22,OH,41.4042,-81.549432,18151 Rockside Road,Bedford,44146,(440) 439-8600
34120,34120,Byers Toyota,https://www.byerstoyota.com,22,OH,40.270696,-83.070312,1599 Columbus Pike,Delaware,43015,(740) 368-7666
34122,34122,Toyota of Boardman,https://www.toyotaofboardman.com,22,OH,40.99951,-80.66331,8250 Market Street,Boardman,44512,(330) 729-9080
34124,34124,Summit Toyota of Akron,https://www.summittoyotaofakron.com,22,OH,41.063552,-81.576654,1535 Vernon Odom Blvd.,Akron,44320,(330) 836-2500
34125,34125,Buckeye Toyota,https://www.mybuckeyetoyota.com,22,OH,39.736966,-82.632087,1903 Riverway Drive,Lancaster,43130,(740) 654-3943
34126,34126,Yark Toyota,https://www.yarktoyota.com,22,OH,41.5782,-83.663162,1377 Conant Street,Maumee,43537,(419) 893-5000
34127,34127,SVG Toyota,https://www.svgtoyota.com,9999,OH,39.516324,-83.4443,1132 State Route 41 South,Washington Court House,43160,(740) 333-3860
34128,34128,Firelands Toyota,https://www.firelandstoyota.com,22,OH,41.42163,-82.67532,904 E. Strub Road,Sandusky,44870,(419) 621-0600
34129,34129,Toyota West,https://www.toyotawest.com,22,OH,39.921996,-83.123183,1500 Auto Mall Drive,Columbus,43228,(614) 870-8200
34130,34130,White's Toyota of Lima,https://www.whitestoyotalima.com,22,OH,40.773265,-84.169095,3500 Elida Road,Lima,45807,(419) 331-0381
34131,34131,Zanesville Toyota,https://www.zanesvilletoyota.com,22,OH,39.981675,-82.018549,3260 North Maple Avenue,Zanesville,43701,(740) 454-2512
34132,34132,Great Lakes Toyota,https://www.glakestoyota.com,22,OH,41.053505,-83.616265,920 Plaza Street,Findlay,45840,(419) 423-5656
34133,34133,Toyota of Kent,https://www.toyotaofkent.com,22,OH,41.151767,-81.382242,1111 West Main Street,Kent,44240,(330) 673-2200
34135,34135,Westside Toyota,https://www.westsidetoyota.com,22,OH,41.41755,-81.920638,27000 Lorain Road,North Olmsted,44070,(440) 777-9911
34136,34136,Victory Toyota of Ashtabula County,https://www.victorytoyota440.com,22,OH,41.752497,-80.768234,2972 GH Drive,Austinburg,44010,(440) 576-1010
34137,34137,Toyota Cleveland Heights,https://www.toyotaclevelandheights.com,22,OH,41.513833,-81.573522,2950 Mayfield Road,Cleveland Hts,44118,(216) 321-9100
34138,34138,Toyota of North Canton,https://www.toyotaofnorthcanton.com,22,OH,40.875699,-81.423805,6527 Whipple Avenue NW,North Canton,44720,(330) 494-8855
34139,34139,Victory Toyota Marietta,https://www.victorytoyotamarietta.com,9999,OH,39.397096,-81.406315,1305 Pike Street,Marietta,45750,(740) 373-2928
34140,34140,Firelands Toyota of Wooster,https://www.firelandstoyotawooster.com,22,OH,40.799856,-81.959863,1363 W. Old Lincoln Way,Wooster,44691,(330) 264-1113
34141,34141,Victory Toyota of Brook Park,https://www.victorytoyotabrookpark.com,22,OH,41.418133,-81.787063,13775 Brookpark Road,Brook Park,44142,(216) 267-7000
34142,34142,Premier Toyota of Amherst,https://www.premiertoyota.com,22,OH,41.41245,-82.233142,47190 Cooper Foster Park Road,Amherst,44001,(440) 985-6100
34143,34143,TOYOTA OF WARREN i.e. Golling Toyota,https://www.gollingtoyota.com,22,MI,42.4927,-83.0278,27100 Van Dyke Avenue,Warren,48093,(586) 758-2000
34144,34144,South Dayton Toyota,https://www.southdaytontoyota.com,9999,OH,39.627343,-84.226654,8457 Springboro Pike,Miamisburg,45342,(937) 433-4950
35011,35011,Doenges Toyota,https://www.doengestoyota.com,60,OK,36.722952,-95.935925,1911 SE Washington Blvd,Bartlesville,74006,(918) 333-0900
35025,35025,Fowler Toyota,https://www.fowlertoyota.com,60,OK,35.26835,-97.48708,4050 N. Interstate Drive,Norman,73072,(800) 375-9550
35048,35048,Northcutt Toyota,https://www.northcutttoyota.com,60,OK,36.39007,-97.92097,3409 W. Owen K. Garriott Road,Enid,73703,(580) 234-5171
35049,35049,Jim Norton Toyota,https://www.jimnortontoyota.com,60,OK,36.02105,-95.88569,9809 South Memorial Drive,Tulsa,74133,(918) 250-6888
35052,35052,Janzen Toyota,https://www.janzentoyota.com,60,OK,36.116894,-97.125543,4900 West 6th Street,Stillwater,74074,(405) 372-4550
35055,35055,Bob Howard Toyota,https://www.bobhowardtoyota.com,60,OK,35.60119,-97.49668,12929 North Kelley Avenue,Oklahoma City,73131,(405) 936-8600
35061,35061,James Hodge Toyota,https://www.hodgetoyota.com,60,OK,35.77046,-95.390872,2314 West Shawnee,Muskogee,74401,(918) 687-1234
35065,35065,Toyota of Ardmore,https://www.toyotaofardmore.com,60,OK,34.180779,-97.1655,402 Holiday Drive,Ardmore,73401,(580) 223-8495
35071,35071,Fowler Toyota of Tulsa,https://www.fowlertoyotatulsa.com,60,OK,36.114659,-95.90042,6868 East BA Frontage Road,Tulsa,74145,(918) 836-2769
35072,35072,Jim Norton Toyota of Oklahoma City,https://www.jimnortontoyotaokc.com,60,OK,35.569733,-97.663893,8401 Northwest Expressway,Oklahoma City,73162,(405) 721-1911
35074,35074,Four Stars Toyota,https://www.fourstarstoyota.com,60,OK,34.636614,-99.298117,2600 E. Broadway,Altus,73521,(580) 482-3814
35075,35075,Post Oak Toyota,https://www.postoaktoyota.com,60,OK,35.442063,-97.41986,5800 Tinker Diagonal,Midwest City,73110,(405) 741-4451
35076,35076,SouthWest Toyota of Lawton,https://www.southwesttoyota.com,60,OK,34.630401,-98.478334,7110 NW Quanah Parker Trailway,Lawton,73505,(580) 355-7223
36040,36040,Lum's Toyota,https://www.lumstoyota.com,13,OR,46.148844,-123.920245,1605 SE Ensign Lane,Warrenton,97146,(503) 861-1144
36047,36047,Beaverton Toyota,https://www.beavertontoyota.com,13,OR,45.4888,-122.8257,4300 SW Murray Blvd.,Beaverton,97005,(503) 626-7200
36049,36049,Capitol Toyota of Salem,https://www.captoyota.com,13,OR,44.9696,-123.0262,783 Auto Group Avenue N.E.,Salem,97301,(503) 399-1011
36052,36052,Lithia Toyota,https://www.lithiatoyotamedford.com,13,OR,42.33982,-122.876381,1420 N. Riverside Avenue,Medford,97501,(541) 618-4800
36078,36078,Royal Moore Toyota,https://www.royalmooretoyota.com,13,OR,45.5089,-122.9677,1415 S.E. River Road,Hillsboro,97123,(503) 648-3213
36079,36079,Lithia Toyota of Springfield,https://www.lithiatoyotaspringfield.com,13,OR,44.045521,-123.01416,163 S. 9th Street,Springfield,97477,(541) 747-3374
36080,36080,Lithia Toyota of Klamath Falls,https://www.klamathfallstoyota.com,13,OR,42.208296,-121.756184,2121 Washburn Way,Klamath Falls,97603,(541) 275-7100
36082,36082,Clint Newell Toyota,https://www.clintnewelltoyota.com,13,OR,43.227757,-123.34907,1481 N.E. Stephens Street,Roseburg,97470,(541) 673-7000
36084,36084,Hometown Toyota,https://www.hometowntoyota.com,13,OR,44.022733,-116.946219,313 SE 13th Street,Ontario,97914,(541) 889-3151
36085,36085,Kendall Toyota,https://www.kendalltoyotaofeugene.com,13,OR,44.073436,-123.10855,373 Goodpasture Island Road,Eugene,97401,(541) 344-5566
36094,36094,Toyota of Corvallis,https://www.toyotaofcorvallis.com,13,OR,44.571797,-123.259921,800 N.W. Fifth Street,Corvallis,97330,(541) 754-1515
36095,36095,Rogers Toyota of Hermiston,https://www.toyotaofhermiston.com,13,OR,45.8652,-119.2915,80364 N. Highway 395,Hermiston,97838,(541) 567-6461
36096,36096,Kendall Toyota of Bend,https://www.toyotaofbend.com,13,OR,44.030847,-121.309276,61430 S. Hwy 97,Bend,97702,(541) 382-4040
36097,36097,Toyota of Portland on Broadway,https://www.toyotaofportland.com,13,OR,45.5354,-122.664974,55 NE Broadway Street,Portland,97232,(503) 284-1105
36098,36098,Toyota of Newport,https://www.newporttoyota.com,13,OR,44.614205,-124.050466,3234 SW Coast Hwy. 101,Newport,97365,(541) 867-3885
36099,36099,Grants Pass Toyota,https://www.grantspasstoyota.com,13,OR,42.423547,-123.335503,375 Redwood Highway,Grants Pass,97527,(541) 476-6858
36100,36100,Ron Tonkin Toyota,https://www.tonkintoyota.com,13,OR,45.5169,-122.5361,750 SE 122nd Avenue,Portland,97233,(503) 255-0177
36102,36102,Gresham Toyota,https://www.greshamtoyota.com,13,OR,45.504067,-122.41357,950 N.E. Hogan Drive,Gresham,97030,(503) 667-1135
36103,36103,Wilsonville Toyota,https://www.wilsonvilletoyota.com/,13,OR,45.31803,-122.772,9155 Boeckman Road,Wilsonville,97070,(503) 582-9040
36104,36104,Columbia Gorge Toyota,https://www.columbiagorgetoyota.com,13,OR,45.611231,-121.206998,1900 West 6th Street,The Dalles,97058,(541) 296-2271
36105,36105,Damian Lillard Toyota,https://www.damianlillardtoyota.com,13,OR,45.231875,-123.167255,3142 NE Doran Drive,McMinnville,97128,(503) 472-4657
36106,36106,Toyota of Gladstone,https://www.toyotaofgladstone.com,13,OR,45.3815,-122.6059,19375 SE McLoughlin Blvd.,Gladstone,97027,(503) 722-4800
36107,36107,Coos Bay Toyota,https://www.coosbaytoyota.com,13,OR,43.382301,-124.220436,2001 North Bayshore Drive,Coos Bay,97420,(541) 267-3121
36108,36108,Albany Toyota,https://www.albanytoyota.net,13,OR,44.630341,-123.056104,1205 Price Road SE,Albany,97321,(541) 926-4236
37036,37036,Krause Toyota,https://www.krausetoyota.com,80,PA,40.574529,-75.621806,7702 Penn Drive,Breinigsville,18031,(610) 395-9858
37065,37065,Thompson Toyota,https://www.thompsontoyota.net,80,PA,40.330117,-75.133833,122 W. Swamp Road,Doylestown,18901,(215) 345-9460
37066,37066,Ardmore Toyota,https://www.ardmoretoyota.com,80,PA,40.004713,-75.284419,219 E. Lancaster Avenue,Ardmore,19003,(610) 645-5000
37067,37067,Bennett Toyota,https://www.bennetttoyotapa.com,80,PA,40.574557,-75.479487,1951 Lehigh Street,Allentown,18103,(610) 437-6711
37077,37077,Performance Motors Toyota,https://www.performancetoyotapa.com,80,PA,40.32688,-76.041701,4681 Penn Avenue,Sinking Spring,19608,(610) 678-3425
37083,37083,Lancaster Toyota,https://www.lancastertoyota.com,80,PA,40.089469,-76.346564,5270 Manheim Pike,East Petersburg,17520,(717) 569-7373
37094,37094,Joel Confer Toyota,https://www.confertoyota.com,80,PA,40.804511,-77.882559,120 East Clinton Avenue,State College,16803,(814) 237-5713
37096,37096,Allegheny Toyota,https://www.alleghenytoyotapa.com,80,PA,41.4051,-79.800632,722 Allegheny Blvd.,Franklin,16323,(814) 437-7884
37101,37101,Sloane Toyota of Glenside,https://www.sloanetoyotaglenside.com,80,PA,40.109767,-75.144183,503 North Easton Road,Glenside,19038,(215) 885-5400
37106,37106,Rohrich Toyota,https://www.rohrichtoyota.com,80,PA,40.403531,-80.020037,2020 West Liberty Avenue,Pittsburgh,15226,(412) 344-6012
37109,37109,Palmiero Toyota,https://www.palmierotoyota.net,80,PA,41.620581,-80.212032,16165 Conneaut Lake Road,Meadville,16335,(814) 336-1061
37112,37112,Del Toyota,https://www.deltoyota.com,80,PA,39.992825,-75.766383,2945 East Lincoln Highway,Thorndale,19372,(610) 383-6200
37114,37114,Conicelli Toyota,https://www.conicellitoyotaofconshohocken.com,80,PA,40.096395,-75.295155,550 Ridge Pike,Conshohocken,19428,(610) 825-7128
37118,37118,South Hills Toyota,https://www.southhillstoyota.com,80,PA,40.253359,-80.170748,2403 Washington Road,Canonsburg,15317,(724) 743-1144
37125,37125,Faulkner Toyota,https://www.faulknertoyotatrevose.com,80,PA,40.123616,-74.975104,2425 Lincoln Highway,Trevose,19053,(215) 244-9300
37126,37126,Toyota of York,https://www.toyotaofyork.com,80,PA,39.983823,-76.685702,1885 Whiteford Road,York,17402,(717) 755-2961
37127,37127,Colonial Toyota,https://www.shopcolonialtoyota.com,80,PA,40.6208,-79.195245,2600 West Pike Road,Indiana,15701,(724) 349-9100
37130,37130,Fitzgerald Toyota Chambersburg,https://www.fitzgeraldtoyotachambersburg.com,9999,PA,39.925454,-77.62032,1436 Lincoln Way East,Chambersburg,17201,(717) 264-3359
37132,37132,Peruzzi Toyota,https://www.peruzzitoyota.com,80,PA,40.300662,-75.287452,2601 N. Bethlehem Pike,Hatfield,19440,(215) 997-1111
37134,37134,Williams Toyota of Sayre,https://www.williamstoyotaofsayre.com,80,PA,41.98427,-76.543484,2468 Elmira Street,Sayre,18840,(570) 888-2281
37135,37135,Preston Toyota,https://www.prestontoyota.com,80,PA,41.016639,-80.35303,1502 Wilmington Road,New Castle,16105,(724) 658-1531
37138,37138,Hanover Toyota,https://www.hanovertoyota.com,80,PA,39.839858,-77.006855,1830 Carlisle Pike,Hanover,17331,(717) 633-1818
37142,37142,Fiore Toyota,https://www.gofioretoyota.com,9999,PA,40.451481,-78.394489,1000 S. Logan Boulevard,Hollidaysburg,16648,(814) 695-5533
37148,37148,Team Toyota of Glen Mills,https://www.teamtoyotaglenmills.com,80,PA,39.882217,-75.540067,1050 Baltimore Pike,Glen Mills,19342,(484) 845-7905
37149,37149,Bobby Rahal Toyota,https://www.bobbyrahaltoyota.com,9999,PA,40.23903,-77.052712,6711 Carlisle Pike,Mechanicsburg,17050,(717) 691-0500
37150,37150,Team Toyota,https://www.teamtoyotalanghorne.com,80,PA,40.164983,-74.9034,746 E. Lincoln Highway,Langhorne,19047,(215) 741-4200
37151,37151,Laurel Toyota,https://www.laureltoyotapa.com,80,PA,40.266769,-78.863245,933 Eisenhower Blvd.,Johnstown,15904,(814) 269-3400
37152,37152,Sloane Toyota of Philadelphia,https://www.sloanetoyotaphiladelphia.com,80,PA,40.05566,-75.074228,1546 Cottman Avenue,Philadelphia,19111,(215) 742-9300
37153,37153,Koch 33 Toyota,https://www.koch33toyota.com,80,PA,40.700076,-75.287485,3816 Hecktown Road,Easton,18045,(610) 253-9191
37154,37154,Tri County Toyota,https://www.tricountytoyota.com,80,PA,40.22128,-75.54478,15 D & L Drive,Limerick,19468,(610) 495-4588
37155,37155,Aubrey Alexander Toyota,https://www.aubreyalexandertoyota.com,9999,PA,40.827988,-76.84238,1324 N. Susquehanna Trail,Selinsgrove,17870,(570) 743-1171
37157,37157,Diehl Toyota of Butler,https://www.diehltoyotabutler.com,80,PA,40.813816,-79.927792,266 Pittsburgh Road,Butler,16002,(724) 282-8898
37161,37161,Faulkner Toyota,https://www.faulknertoyotaharrisburg.com,9999,PA,40.254055,-76.83055,3809 Paxton Street,Harrisburg,17111,(717) 565-9000
37162,37162,Spitzer Toyota,https://www.spitzertoyota.com,80,PA,40.43664,-79.737096,4710 William Penn Highway,Monroeville,15146,(412) 373-6200
37164,37164,Sloane Toyota of Malvern,https://www.sloanetoyotamalvern.com,80,PA,40.034928,-75.574472,593 Lancaster Avenue,Malvern,19335,(610) 647-2300
37171,37171,Motorworld Toyota,https://www.motorworldtoyota.com,80,PA,41.254145,-75.837371,150 Motorworld Drive,Wilkes Barre,18702,(570) 829-3500
37172,37172,Conicelli Toyota of Springfield,https://www.conicellitoyotaofspringfield.com,80,PA,39.916267,-75.3363,860 Baltimore Pike,Springfield,19064,(610) 690-6000
37175,37175,Toyota Certified at Central City,https://www.centralcitytoyota.com,80,PA,39.957406,-75.217488,4800 Chestnut Street,Philadelphia,19139,(215) 476-1200
37176,37176,Toyota of Scranton,https://www.toyotaofscranton.com,80,PA,41.448044,-75.642316,3400 North Main Avenue,Scranton,18508,(570) 489-7584
37179,37179,Bobby Rahal Toyota of Lewistown,https://www.bobbyrahaltoyotaoflewistown.com,80,PA,40.617743,-77.565154,425 Electric Avenue,Lewistown,17044,(717) 248-0119
37184,37184,New Holland Toyota,https://www.toyotanewholland.com,80,PA,40.097959,-76.102319,524 West Main Street,New Holland,17557,(717) 354-4766
37185,37185,Baierl Toyota,https://www.baierltoyota.com,80,PA,40.670979,-80.09825,"19045 Perry Highway, Route 19",Mars,16046,(724) 741-1108
37187,37187,Ken Ganley Toyota,https://www.kenganleytoyota.com,80,PA,40.318717,-79.941363,1110 Clairton Blvd.,Pleasant Hills,15236,(412) 469-3000
37188,37188,Bennett Toyota of Lebanon,https://www.bennetttoyotaoflebanon.com,80,PA,40.339718,-76.460636,2635 West Cumberland Street,Lebanon,17042,(717) 202-8888
37189,37189,Cochran Toyota,https://www.cochrantoyota.com,80,PA,40.333128,-79.74317,12204 Route 30,North Huntingdon,15642,(724) 515-2220
37190,37190,Mike Kelly Toyota of Uniontown,http://www.mikekellytoyota.com,80,PA,39.91208,-79.757717,1 Mary Jane Wood Drive,Uniontown,15401,(724) 437-8422
37191,37191,Ciocca Toyota of Williamsport,https://www.cioccatoyotaofwilliamsport.com,80,PA,41.23615,-76.812347,203 Lycoming Mall Drive,Muncy,17756,(570) 323-4683
37193,37193,Heritage Toyota Harrisburg,http://www.heritagetoyotaharrisburg.com,9999,PA,40.322689,-76.788705,6060 Allentown Blvd,Harrisburg,17112,(717) 545-4726
37194,37194,Brewer Airport Toyota,https://brewerairporttoyota.com,80,PA,40.50433,-80.223526,8900 University Blvd.,Moon Township,15108,(412) 262-5600
37195,37195,Toyota of Erie,https://www.toyotaoferie.com,80,PA,42.07246,-80.09257,9140 Peach Street,Waterford,16441,(814) 868-3656
37196,37196,Kelly Toyota of Hamburg,https://www.kellytoyotaofhamburg.com,80,PA,40.560888,-76.000017,41 Industrial Drive,Hamburg,19526,(484) 665-0130
37197,37197,LUV Toyota of Bradford,https://www.luvtoyotabradford.com,80,PA,41.975744,-78.617009,880 East Main Street,Bradford,16701,(814) 368-3191
37198,37198,Diehl Toyota of Hermitage,https://www.diehltoyotaofhermitage.com,80,PA,41.233494,-80.457425,2757 E State Street,Hermitage,16148,(724) 347-7702
37199,37199,Jim Shorkey Toyota,https://www.jimshorkeytoyota.com,80,PA,40.540001,-80.012419,7401 McKnight Road,Pittsburgh,15237,(412) 318-3000
37201,37201,Toyota of Stroudsburg,https://www.toyotaofstroudsburg.com,80,PA,41.020325,-75.184665,1741 Paradise Trail,East Stroudsburg,18301,(570) 421-6930
37202,37202,LeadCar Toyota Hazleton,https://www.leadcartoyotahazleton.com,80,PA,40.989265,-76.011601,730 Airport Road,Hazleton,18202,(570) 453-4141
37203,37203,Delaney Toyota of Dubois,https://www.delaneytoyota.com,80,PA,41.120332,-78.737563,860 Beaver Drive,Dubois,15801,(814) 371-3333
37204,37204,Jim Shorkey Toyota of Greensburg,https://www.jimshorkeytoyotagreensburg.com,80,PA,40.29837,-79.481549,4964 Route 30,Greensburg,15601,(724) 837-6693
37205,37205,Bobby Rahal Toyota of State College,https://www.bobbyrahaltoyotaofstatecollege.com,9999,PA,40.804511,-77.882559,120 East Clinton Avenue,State College,16803,(814) 237-5713
38025,38025,Valenti Toyota,https://www.valentitoyota.com,17,RI,41.350573,-71.768238,6 Langworthy Road,Westerly,02891,(401) 322-7200
38026,38026,Balise Toyota of Warwick,https://www.balisetoyotaofwarwick.com,9999,RI,41.742346,-71.429872,1400 Post Road,Warwick,02888,(401) 785-8900
38029,38029,Toyota of Smithfield,https://www.toyotaofsmithfield.com,9999,RI,41.935296,-71.491401,550 George Washington Hwy,Smithfield,02917,(401) 723-0972
38030,38030,Grieco Toyota,https://www.griecotoyota.com,9999,RI,41.820453,-71.362443,415 Taunton Avenue,East Providence,02914,(401) 438-0350
38031,38031,Langway Toyota of Newport,https://www.langwaytoyotaofnewport.com,17,RI,41.519263,-71.291446,285 East Main Road,Middletown,02842,(401) 619-5400
38032,38032,Nucar Toyota of North Kingstown,https://www.nucartoyotanorthkingstown.com,9999,RI,41.600766,-71.497203,3671 Quaker Lane,North Kingstown,02852,(401) 884-5438
39003,39003,Ralph Hayes Toyota,https://www.ralphhayestoyota.com,50,SC,34.552107,-82.679066,3525 Clemson Boulevard,Anderson,29621,(864) 226-1571
39028,39028,Toyota of Easley,https://www.toyotaofeasley.com,50,SC,34.825328,-82.569712,5643 Calhoun Memorial Hwy,Easley,29640,(864) 855-2233
39031,39031,Sparks Toyota,https://www.sparkstoyota.com,50,SC,33.762513,-78.972113,4855 Highway 501,Myrtle Beach,29579,(843) 236-2161
39040,39040,Stokes Toyota Beaufort,https://www.stokestoyotabeaufort.com,50,SC,32.446898,-80.729508,3557 Trask Parkway,Beaufort,29906,(843) 522-3232
39042,39042,Ballentine Toyota,https://www.ballentinetoyota.com,50,SC,34.213508,-82.152448,1305 Highway 72 By-Pass,Greenwood,29646,(864) 229-5052
39046,39046,Florence Toyota,https://www.florencetoyota.com,50,SC,34.183425,-79.816285,2300 West Palmetto Street,Florence,29501,(843) 669-1676
39049,39049,Lugoff Toyota,https://www.lugofftoyota.com,50,SC,34.227531,-80.677178,878 Highway 1 South,Lugoff,29078,(803) 438-2772
39052,39052,Jim Hudson Toyota,https://www.jimhudsontoyota.com,50,SC,34.098479,-81.177722,970 Columbiana Drive,Irmo,29063,(803) 407-5678
39055,39055,Stokes Toyota Hilton Head,https://www.stokestoyotahiltonhead.com,50,SC,32.289391,-80.922214,100 Fording Island Road,Bluffton,29910,(843) 815-4444
39058,39058,Toyota of Rock Hill,https://www.toyotarockhill.com,50,SC,34.94228,-80.970664,640 Galleria Boulevard,Rock Hill,29730,(803) 328-2886
39059,39059,Fred Anderson Toyota of Charleston,https://www.toyotaofcharleston.com,50,SC,32.791001,-80.03585,2100 Savannah Highway,Charleston,29414,(843) 556-9110
39060,39060,Hendrick Toyota North Charleston,https://www.hendricktoyotanorthcharleston.com,50,SC,32.931131,-80.036508,7151 Rivers Avenue,North Charleston,29406,(843) 797-8000
39061,39061,Toyota of Greenville,https://www.toyotaofgreenville.com,50,SC,34.819503,-82.341872,2686 Laurens Road,Greenville,29607,(864) 288-3535
39064,39064,Miracle Toyota of North Augusta,https://www.miracletoyotaofnorthaugusta.com,50,SC,33.48745,-81.929001,5512 Jefferson Davis Highway,North Augusta,29841,(803) 279-8400
39065,39065,Davis Toyota of Orangeburg,https://www.davisorangeburgtoyota.com,50,SC,33.544498,-80.832136,3237 St. Matthews Road,Orangeburg,29118,(803) 536-4512
39066,39066,Peter Boulware Toyota of Columbia,https://www.toyotaofcolumbia.com,50,SC,34.000075,-81.098861,2136 Sunset Blvd.,West Columbia,29169,(803) 796-6650
39067,39067,Midlands Toyota,https://www.mymidlandstoyota.com,50,SC,34.127979,-80.960248,240 Killian Commons Parkway,Columbia,29203,(803) 786-4111
39068,39068,Spartanburg Toyota,https://www.spartanburgtoyota.com,50,SC,34.919964,-81.996274,2450 Reidville Road,Spartanburg,29301,(864) 595-2300
39069,39069,Fred Anderson Toyota of Greer,https://www.fredandersontoyotaofgreer.com,50,SC,34.94933,-82.20048,13770 E. Wade Hampton Blvd.,Greer,29651,(864) 662-4800
39070,39070,Jim Hudson Toyota Sumter,https://www.jimhudsontoyotasumter.com,50,SC,33.959981,-80.398134,2542 Broad Street,Sumter,29150,(803) 469-9500
40009,40009,Harr Toyota,https://www.harr-toyota.com,23,SD,45.460643,-98.429008,4255 6th Avenue SE,Aberdeen,57401,(605) 225-3078
40011,40011,Billion Toyota,https://www.siouxfallstoyota.com,23,SD,43.543666,-96.772395,4101 W. 12th Street,Sioux Falls,57106,(605) 361-7000
40017,40017,Sharp Chevrolet-Toyota,https://www.sharptoyota.com,23,SD,44.889951,-97.134158,1112 9th Ave SW,Watertown,57201,(605) 886-8081
40021,40021,Denny Menholt Toyota,https://www.dennymenholttoyota.com,23,SD,44.1031,-103.1816,1920 East Mall Drive,Rapid City,57701,(605) 342-2490
40022,40022,Capital City Toyota,https://www.toyotacapitalcity.com,23,SD,44.363572,-100.347779,518 East Sioux Avenue,Pierre,57501,(605) 224-7378
41001,41001,Capital Toyota,https://www.capitaltoyota.com,22,TN,35.019899,-85.201868,5808 Lee Hwy,Chattanooga,37421,(423) 892-0661
41021,41021,Roberts Toyota,https://www.robertstoyota.com,22,TN,35.634491,-87.01958,1027 Nashville Highway,Columbia,38401,(931) 388-3006
41030,41030,Toyota of Kingsport,https://www.toyotaofkingsport.com,22,TN,36.54659,-82.500561,2525 East Stone Drive,Kingsport,37660,(423) 246-6611
41041,41041,Nashville Toyota North,https://www.nashvilletoyotanorth.com,22,TN,36.310126,-86.678,2400 Gallatin Pike North,Madison,37115,(615) 868-7990
41043,41043,Principle Toyota,https://www.principletoyota.com,22,TN,35.05105,-89.817133,7370 Winchester Road,Memphis,38125,(901) 758-4040
41050,41050,Cumberland Toyota,https://www.cumberlandtoyota.com,22,TN,36.138257,-85.522059,1540 Interstate Drive,Cookeville,38501,(931) 526-5600
41052,41052,Rusty Wallace Toyota,https://www.rustywallacetoyota.com,22,TN,36.179783,-83.391156,5944 W Andrew Johnson Hwy,Morristown,37814,(423) 587-1972
41056,41056,Toyota of Cleveland,https://www.toyotaofcleveland.com,22,TN,35.154453,-84.946216,3560 Village North Bl SW,McDonald,37353,(423) 339-1138
41057,41057,John Roberts Toyota,https://www.johnrobertstoyota.com,22,TN,35.454496,-86.044917,2610 Hillsboro Highway,Manchester,37355,(931) 723-4444
41060,41060,Toyota Knoxville,https://www.toyotaknoxville.com,22,TN,35.90818,-84.13107,10415 Parkside Drive,Knoxville,37922,(865) 218-3300
41061,41061,Rick McGill's Airport Toyota,https://www.rickmcgillairporttoyota.com,22,TN,35.82815,-83.97589,3145 Alcoa Highway,Alcoa,37701,(865) 970-2615
41062,41062,Peppers Toyota,https://www.pepperstoyota.com,22,TN,36.319057,-88.2803,2400 East Wood Street,Paris,38242,(731) 642-3900
41063,41063,Robinson Toyota,https://www.robinsontoyota.com,22,TN,35.660944,-88.866133,1453 Vann Drive,Jackson,38305,(731) 668-1234
41066,41066,Wolfchase Toyota,https://www.wolfchasetoyota.com,22,TN,35.186103,-89.793728,2201 North Germantown Parkway,Cordova,38016,(901) 384-3100
41070,41070,Chuck Hutton Toyota,https://www.chuckhuttontoyota.com,22,TN,35.023369,-90.003644,4601 Hutton Way,Memphis,38116,(901) 345-3200
41073,41073,Landers McLarty Toyota,https://www.landersmclartytoyota.com,22,TN,35.045856,-86.572882,2970 Huntsville Highway,Fayetteville,37334,(931) 438-6300
41078,41078,Toyota of Cool Springs,https://www.toyotaofcoolsprings.com,22,TN,35.93566,-86.82097,1875 West McEwen Drive,Franklin,37067,(615) 790-8401
41079,41079,Toyota of Murfreesboro,https://www.toyotaofmurfreesboro.com,22,TN,35.869131,-86.460882,3434 Bill Smith Drive,Murfreesboro,37129,(615) 890-1500
41082,41082,Johnson City Toyota,https://www.johnsoncitytoyota.com,22,TN,36.363635,-82.380902,3124 Bristol Highway,Johnson City,37601,(423) 282-2241
41083,41083,Toyota of Gallatin,https://www.toyotagallatin.com,22,TN,36.362233,-86.494348,1435 Nashville Pike,Gallatin,37066,(615) 230-9000
41084,41084,Wyatt Johnson Toyota,https://www.wyattjohnsontoyota.com,22,TN,36.578722,-87.299294,2595 Wilma Rudolph Blvd,Clarksville,37040,(931) 645-8900
41085,41085,Beaman Toyota,https://www.beamantoyota.com,22,TN,36.086162,-86.699064,343  Harding Place,Nashville,37211,(615) 251-8400
41086,41086,Fox Toyota,https://www.foxtoyotaclinton.com,22,TN,36.170417,-84.082944,228 Fox Family Lane,Clinton,37716,(865) 494-0228
41087,41087,Toyota of Bristol,https://www.toyotaofbristol.com,22,TN,36.592554,-82.222519,3045 W. State Street,Bristol,37620,(423) 764-3155
41089,41089,Victory Toyota Dyersburg,https://www.victorytoyotadyersburg.com,22,TN,36.058016,-89.397659,920 Highway 51 Bypass,Dyersburg,38024,(731) 285-5110
41090,41090,Cumberland Toyota,https://www.cumberlandtoyota.com,9999,TN,36.138257,-85.522059,1540 Interstate Drive,Cookeville,38501,(931) 526-5600
42025,42025,Toyota of Laredo,https://www.toyotaoflaredo.com,60,TX,27.556012,-99.450141,6324 Bob Bullock Loop,Laredo,78041,(956) 718-4200
42026,42026,Robbins Toyota,https://www.robbinstoyota.com,60,TX,33.453053,-94.128038,6233 Mall Drive,Nash,75569,(903) 794-5121
42057,42057,Toyota of Irving,https://www.toyotaofirving.com,60,TX,32.837997,-96.96956,1999 West Airport Frwy.,Irving,75062,(972) 258-1200
42073,42073,Sterling McCall Toyota,https://www.sterlingmccalltoyota.com,60,TX,29.679432,-95.539482,9400 Southwest Freeway,Houston,77074,(713) 270-3900
42087,42087,Don McGill Toyota,https://www.donmcgilltoyota.com,60,TX,29.786292,-95.594766,11800 Katy Freeway,Houston,77079,(281) 496-2000
42095,42095,Fred Haas Toyota World,https://www.fredhaastoyota.com,60,TX,30.060679,-95.432049,20400 Interstate 45 North,Spring,77373,(281) 297-7000
42138,42138,Mike Calvert Toyota,https://www.mikecalverttoyota.com,60,TX,29.676809,-95.413594,2333 South Loop West,Houston,77054,(713) 558-8100
42161,42161,Street Toyota,https://www.streettoyota.com,60,TX,35.16057,-101.939066,4500 South Soncy Road,Amarillo,79119,(806) 355-9846
42186,42186,Cavender Toyota,https://www.cavendertoyota.com,60,TX,29.4811,-98.602479,5730 N.W. Loop 410,San Antonio,78238,(210) 681-6601
42192,42192,Mitchell Toyota,https://www.mitchelltoyota.com,60,TX,31.431635,-100.454472,1500 Knickerbocker Road,San Angelo,76904,(325) 653-2302
42196,42196,Don Ringler Toyota,https://www.donringlertoyota.com,60,TX,31.059365,-97.434994,7777 S. General Bruce Dr.,Temple,76502,(254) 778-4285
42201,42201,Red McCombs Toyota,https://www.redmccombstoyota.com,60,TX,29.57157,-98.59498,13526 IH-10 West,San Antonio,78249,(210) 530-3000
42202,42202,Toyota of Richardson,https://www.toyotaofrichardson.com,60,TX,32.963767,-96.725302,1221 N Central Expressway,Richardson,75080,(214) 446-8081
42206,42206,Tegeler Toyota,https://www.tegelertoyota.com,60,TX,30.152029,-96.416216,1515 Highway 290 West,Brenham,77833,(979) 836-1615
42215,42215,Stewart Toyota,https://www.stewarttoyota.com,60,TX,32.056737,-96.451828,3400 South Interstate 45,Corsicana,75110,(903) 874-6556
42216,42216,Jeff Hunter Toyota,https://www.jeffhuntertoyota.com,60,TX,31.502044,-97.171966,1440 West Loop 340,Waco,76712,(254) 662-6644
42219,42219,Fox Toyota of El Paso,https://www.foxtoyotaofelpaso.com,60,TX,31.743006,-106.32843,11165 Gateway Boulevard West,El Paso,79935,(915) 598-0399
42221,42221,Toyota of Plano,https://www.toyotaofplano.com,60,TX,33.082152,-96.848986,6888 State Hwy 121,Plano,75024,(972) 248-7777
42228,42228,Toyota of Killeen,https://www.toyotaofkilleen.com,60,TX,31.081536,-97.698143,4001 E Central Texas Exp.,Killeen,76543,(254) 690-5800
42234,42234,Gullo Toyota of Conroe,https://www.gullotoyota.com,60,TX,30.30089,-95.467635,500 I-45 South,Conroe,77304,(936) 441-4141
42241,42241,Universal Toyota,https://www.universaltoyota.com,60,TX,29.54854,-98.362033,12102 IH-35 North,San Antonio,78233,(210) 654-1515
42242,42242,Classic Toyota,https://www.classictoyotatyler.com,60,TX,32.304473,-95.321474,1717 West SW Loop 323,Tyler,75701,(903) 581-0600
42250,42250,Gulf Coast Toyota,https://www.gulfcoasttoyota.com,60,TX,29.1999,-95.4509,3000 N. 288 Freeway,Angleton,77515,(713) 422-7200
42253,42253,Freeman Toyota,https://www.freemantoyota.com,60,TX,32.811935,-97.207224,204 Northeast Loop 820,Hurst,76053,(817) 287-5200
42254,42254,Toyota of Del Rio,https://www.toyotaofdelrio.com,60,TX,29.406102,-100.904097,3617 Highway 90 West,Del Rio,78840,(830) 775-7577
42255,42255,Silsbee Toyota,https://www.silsbeetoyota.com,60,TX,30.339317,-94.153767,1396 Highway 327 East,Silsbee,77656,(409) 895-3700
42259,42259,Loving Toyota,https://www.lovingtoyota.com,60,TX,31.322765,-94.694835,1807 South Medford Drive,Lufkin,75901,(936) 699-1000
42262,42262,AutoNation Toyota South Austin,https://www.autonationtoyotasouthaustin.com,60,TX,30.207361,-97.757719,4800 IH-35 South,Austin,78745,(512) 518-6900
42264,42264,Gene Messer Toyota,https://www.genemessertoyota.com,60,TX,33.578674,-101.949217,6102 19th Street,Lubbock,79407,(806) 748-4800
42268,42268,Texas Toyota of Grapevine,https://www.toyotaofgrapevine.com,60,TX,32.924339,-97.06938,701 State Hwy. 114 East,Grapevine,76051,(817) 329-5949
42270,42270,Joe Myers Toyota,https://www.joemyerstoyota.com,60,TX,29.904532,-95.603264,19010 Northwest Freeway,Houston,77065,(281) 890-8700
42271,42271,AutoNation Toyota Gulf Freeway,https://www.autonationtoyotagulffreeway.com,60,TX,29.623113,-95.222515,"12111 Gulf Freeway, Bldg. B",Houston,77034,(713) 489-2097
42273,42273,Sterling McCall Toyota Fort Bend,https://www.sterlingmccalltoyotafortbend.com,60,TX,29.5591,-95.6948,20465 Southwest Freeway,Richmond,77469,(281) 341-5900
42275,42275,Philpott Toyota,https://www.philpotttoyota.com,60,TX,29.96933,-94.023123,2229 Highway 69 N,Nederland,77627,(409) 853-3800
42278,42278,Toyota of Dallas,https://www.toyotaofdallas.com,60,TX,32.908279,-96.889419,2610 Forest Lane,Dallas,75234,(972) 241-6655
42282,42282,Fred Haas Toyota Country,https://www.fredhaastoyotacountry.com,60,TX,30.007383,-95.588,22435 SH-249,Houston,77070,(281) 357-4000
42283,42283,AutoNation Toyota Corpus Christi,https://www.autonationtoyotacorpuschristi.com,60,TX,27.699101,-97.350669,6672 S. Padre Island Dr.,Corpus Christi,78412,(361) 444-0160
42284,42284,Don McGill Toyota of Katy,https://www.toyotaofkaty.com,60,TX,29.7841,-95.7425,21555 Katy Freeway,Katy,77450,(832) 772-1000
42286,42286,Vandergriff Toyota,https://www.vandergrifftoyota.com,60,TX,32.67675,-97.120035,1000 West I-20,Arlington,76017,(817) 380-4144
42290,42290,Lithia Toyota of Odessa,https://www.odessatoyota.com,60,TX,31.901575,-102.336108,5050 John Ben Shepperd Parkway,Odessa,79762,(432) 367-2000
42291,42291,Community Toyota,https://www.communitytoyota.com,60,TX,29.804387,-94.989061,4701 Interstate 10 East,Baytown,77521,(281) 839-7700
42292,42292,Lithia Toyota of Abilene,https://www.toyotaabilene.com,60,TX,32.407797,-99.781475,4449 Southwest Drive,Abilene,79606,(325) 793-3000
42295,42295,Pat Lobb Toyota of McKinney,https://www.toyotaofmckinney.com,60,TX,33.167315,-96.643216,3350 S. Central Expresswy,McKinney,75070,(214) 544-8696
42298,42298,Round Rock Toyota,https://www.roundrocktoyota.com,60,TX,30.53407,-97.69082,2307 North I-35,Round Rock,78664,(512) 244-6900
42299,42299,Bruner Toyota,https://www.brunertoyota.com,60,TX,31.736842,-98.964271,224 Early Boulevard,Early,76802,(325) 646-0500
42302,42302,Toyota of Rockwall,https://www.toyotaofrockwall.com,60,TX,32.9112,-96.44628,1250 East I30,Rockwall,75087,(469) 402-1300
42304,42304,Mike Shaw Toyota,https://www.mikeshawtoyota.com,60,TX,27.841286,-97.631672,3232 US Highway 77,Corpus Christi,78380,(361) 316-3355
42305,42305,Vic Vaughan Toyota of Boerne,https://www.vicvaughantoyotaofboerne.com,60,TX,29.751035,-98.702137,31205 IH-10 West,Boerne,78006,(210) 870-1800
42309,42309,Toyota of Midland,https://www.toyotaofmidland.com,60,TX,31.989633,-102.150182,800 North Loop 250 West,Midland,79703,(432) 520-4114
42311,42311,Classic Toyota Galveston,https://www.classictoyotagalveston.com,60,TX,29.28666,-94.85887,7802 Broadway,Galveston,77554,(409) 744-5711
42312,42312,Lost Pines Toyota,https://www.lostpinestoyota.com,60,TX,30.109985,-97.357753,806 Highway 71 West,Bastrop,78602,(512) 303-1200
42313,42313,Toyota of Victoria,https://www.toyotaofvictoria.com,60,TX,28.849355,-96.99702,5902 North Navarro,Victoria,77904,(361) 578-1505
42315,42315,Bryan College Station Toyota,https://www.bcstoyota.com,60,TX,30.667535,-96.330487,728 N. Earl Rudder Frwy.,Bryan,77802,(979) 776-0404
42316,42316,Huntsville Toyota,https://www.huntsvilletoyotapm.com,60,TX,30.68512,-95.537602,849 I-45 South,Huntsville,77340,(936) 349-0909
42320,42320,Lone Star Toyota of Lewisville,https://www.lonestartoyotalewisville.com,60,TX,33.02126,-96.98711,1547 S. Stemmons Frwy.,Lewisville,75067,(469) 671-5500
42321,42321,Keating Toyota,https://www.keatingtoyota.com,60,TX,29.497519,-95.389287,4233 Del Bello Boulevard,Manvel,77578,(281) 388-8600
42323,42323,Toyota of Denton,https://www.toyotaofdenton.com,60,TX,33.166383,-97.083054,4100 South IH 35 East,Denton,76210,(940) 382-5481
42324,42324,Bert Ogden Toyota of Harlingen,https://www.bertogdentoyota.com,60,TX,26.184746,-97.7786,8721 W. Expressway 83,Harlingen,78552,(956) 423-0000
42325,42325,Palestine Toyota,https://www.palestinetoyota.com,60,TX,31.732877,-95.62258,2728 South Loop 256,Palestine,75801,(903) 480-9390
42327,42327,Family Toyota of Burleson,https://www.familytoyotaofburleson.com,60,TX,32.526111,-97.307658,801 S. Burleson Blvd.,Burleson,76028,(817) 447-4400
42336,42336,Mac Haik Toyota,https://www.machaiktoyota.com,60,TX,29.4873,-95.104,2112 Gulf Freeway,League City,77573,(281) 338-9700
42338,42338,Brownsville Toyota,https://www.brownsvilletoyota.com,60,TX,26.00356,-97.528424,6750 N. Expressway,Brownsville,78526,(956) 435-8100
42342,42342,North Park Toyota of San Antonio,https://www.northparktoyota.com,60,TX,29.315943,-98.612196,10703 Southwest Loop 410,San Antonio,78211,(210) 635-5000
42343,42343,Family Toyota of Arlington,https://www.familytoyotaofarlington.com,60,TX,32.760693,-97.085869,1661 Wet 'N Wild Way,Arlington,76011,(817) 505-0000
42344,42344,Toyota of Cedar Park,https://www.toyotaofcedarpark.com,60,TX,30.543361,-97.815361,5600 183A Toll Road,Cedar Park,78641,(512) 379-7575
42345,42345,Poe Toyota,https://www.poetoyota.com,60,TX,31.7877,-106.4061,6330 Montana Avenue,El Paso,79925,(915) 775-2000
42346,42346,Longo Toyota of Prosper,https://www.longotoyotaofprosper.com,60,TX,33.220539,-96.833488,2100 West University Drive,Prosper,75078,(469) 296-4557
42347,42347,Toyota of Fort Worth,https://www.toyotaoffortworth.com,60,TX,32.723533,-97.474485,9001 Camp Bowie West Blvd.,Fort Worth,76116,(817) 560-1500
42348,42348,Shapen Toyota,https://www.shapentoyota.com,60,TX,32.498099,-94.358257,5015 East End Blvd. South,Marshall,75672,(903) 938-9026
42352,42352,Toyota of Longview,https://www.toyotaoflongview.com,60,TX,32.530617,-94.773354,1400 West Loop 281,Longview,75604,(903) 295-9300
42392,42392,Country Toyota,https://www.countrytoyotapampa.com,60,TX,35.541471,-100.97263,805 North Hobart Street,Pampa,79065,(806) 665-1665
42402,42402,Shottenkirk Toyota Weatherford,https://www.shottenkirktoyotaweatherford.com,60,TX,32.757132,-97.699978,2601 E. I-20 Service Road,Hudson Oaks,76087,(817) 597-5000
42403,42403,Shottenkirk Toyota Granbury,https://www.shottenkirktoyotagranbury.com,60,TX,32.46996,-97.704721,5100 E. US Highway 377,Granbury,76049,(817) 279-6800
42404,42404,Toyota of Paris,https://www.toyotaofparistx.com,60,TX,33.672811,-95.516097,3235 NE Loop 286,Paris,75460,(903) 784-8989
42405,42405,Toyota of Mt. Pleasant,https://www.toyotaofmtpleasant.com,60,TX,33.170708,-95.002473,102 Tankersley Road,Mt. Pleasant,75455,(903) 577-7770
42406,42406,Toyota of Wichita Falls,https://www.toyotaofwf.com,60,TX,33.89283,-98.483623,5715 Kell E. Boulevard,Wichita Falls,76310,(940) 280-2510
42407,42407,San Marcos Toyota,https://www.sanmarcostoyota.com,60,TX,29.815615,-97.997752,5101 IH-35 South,San Marcos,78666,(512) 392-1999
42408,42408,John Eagle Sport City Toyota,https://www.sportcitytoyota.com,60,TX,32.862817,-96.662333,12650 LBJ Freeway,Dallas,75228,(972) 681-3000
42409,42409,Toyota of North Austin,https://www.toyotaofnorthaustin.com,60,TX,30.357687,-97.716387,8400 Research Boulevard,Austin,78758,(512) 458-2222
42410,42410,Doggett Toyota of Beaumont,https://www.doggetttoyotabeaumont.com,60,TX,30.118294,-94.147187,4235 Eastex Freeway,Beaumont,77706,(409) 892-4888
42411,42411,Platinum Toyota of Texoma,https://www.platinumtoyota.com,60,TX,33.774142,-96.582528,1920 U.S. Highway 75 North,Denison,75020,(903) 463-9800
42412,42412,Legacy Toyota of Dallas,https://www.legacytoyotadallas.com,60,TX,32.645554,-96.860383,39660 LBJ Freeway (I-20),Dallas,75237,(972) 780-1166
42413,42413,Space City Toyota,https://www.spacecitytoyota.com,60,TX,29.995901,-95.272558,19011 Highway 59 North,Humble,77338,(281) 446-0271
42414,42414,Shottenkirk Toyota San Antonio,https://www.shottenkirktoyotasanantonio.com,60,TX,29.60719,-98.470768,18019 N US Highway 281,San Antonio,78232,(210) 494-1604
42415,42415,Texana Toyota,https://www.texanatoyota.com,60,TX,30.1223,-93.7575,2500 IH 10 W,Orange,77632,(409) 883-8451
42416,42416,Norm Reeves Toyota Dallas,https://www.normreevestoyotadallas.com,60,TX,32.799284,-96.681047,9525 E. RL Thornton Frwy,Dallas,75228,(214) 324-0411
42417,42417,Toyota of Pharr,https://www.toyotaofpharr.com,60,TX,26.199688,-98.20042,1625 W. Interstate 2,Pharr,78577,(956) 784-3300
42418,42418,McGavock Toyota of Pampa,https://www.mcgavocktoyota.com,9999,TX,35.541471,-100.97263,805 North Hobart Street,Pampa,79065,(806) 665-1665
43019,43019,Tony Divino Toyota,https://www.tonydivinotoyota.com,15,UT,41.179142,-111.997143,777 West Riverdale Road,Riverdale,84405,(801) 394-5701
43020,43020,Mark Miller Toyota,https://www.markmillertoyota.com,15,UT,40.753305,-111.894274,730 South West Temple,Salt Lake City,84101,(801) 364-2100
43022,43022,Karl Malone Toyota,https://www.malonetoyota.com,15,UT,40.543017,-111.8983,11453 So. Lone Peak Pkwy,Draper,84020,(801) 553-5800
43025,43025,Stephen Wade Toyota,https://www.stephenwadetoyota.com,15,UT,37.077345,-113.586613,150 Auto Mall Drive,St. George,84770,(435) 296-7867
43026,43026,Performance Toyota Bountiful,https://www.toyotabountiful.com,15,UT,40.864621,-111.894165,2380 South Highway 89,Bountiful,84010,(801) 295-3481
43027,43027,Young Toyota,https://www.youngtoyota.com,15,UT,41.76715,-111.834445,1945 North Main Street,Logan,84341,(435) 752-5636
43028,43028,Orem Toyota,https://www.oremtoyota.com,15,UT,40.270575,-111.711954,1400 South Sandhill Road,Orem,84058,(801) 224-1320
43029,43029,Larry H. Miller Toyota Murray,https://www.larryhmillertoyota.com,15,UT,40.648736,-111.8889,5650 South State Street,Murray,84107,(801) 264-3800
44013,44013,Handy Toyota,https://www.handytoyota.com,17,VT,44.843521,-73.076824,701 Highgate Road,St. Albans,05478,(802) 527-7512
44014,44014,Heritage Toyota,https://www.heritagetoyotacars.com,17,VT,44.428784,-73.210639,1620 Shelburne Road,South Burlington,05403,(802) 865-8200
44016,44016,White River Toyota,https://www.whiterivertoyota.com,17,VT,43.644272,-72.330095,303 Sykes Mountain Avenue,White River Junction,05001,(802) 299-2800
44020,44020,Alderman's Toyota,https://www.aldermanstoyota.com,17,VT,43.585656,-72.967415,33 Seward Road,Rutland,05701,(802) 776-6000
44022,44022,802 Toyota,https://www.802toyota.com,17,VT,44.220376,-72.563585,30 Berlin Mall Road,Berlin,05602,(802) 229-9117
44024,44024,Faith's Toyota Ford,https://www.faithstoyota.com,9999,VT,43.1088,-72.4416,6896 Route 5 South,Westminster,05158,(802) 463-3300
44025,44025,Coggins Toyota of Bennington,https://www.cogginstoyotaofbennington.com,17,VT,42.909903,-73.220763,751 North Bennington Road,Bennington,05201,(802) 681-0600
45009,45009,Checkered Flag Toyota,https://toyota.checkeredflag.com,80,VA,36.847767,-76.163478,5301 Virginia Beach Boulevard,Virginia Beach,23462,(757) 490-1111
45016,45016,Bill Page Toyota,https://www.billpagetoyota.com,80,VA,38.870871,-77.174385,2923 Annandale Road,Falls Church,22042,(703) 532-8800
45030,45030,McDonough Toyota,https://www.mcdonoughtoyota.com,80,VA,38.139156,-79.04828,918 Richmond Road,Staunton,24401,(540) 886-6201
45036,45036,Shelor Toyota,https://www.shelortoyota.com,80,VA,37.136254,-80.366507,2230 Roanoke Street,Christiansburg,24073,(540) 382-2981
45039,45039,Pearson Toyota,https://www.pearsontoyotascion.com,80,VA,37.158597,-76.534578,12978 Jefferson Avenue,Newport News,23608,(757) 874-6000
45040,45040,Miller Toyota,https://www.millertoyota.com,80,VA,38.769447,-77.492021,8566 Sudley Road,Manassas,20110,(703) 369-3040
45045,45045,Danville Toyota,https://www.danvilletoyota.com,80,VA,36.586434,-79.432969,125 Piedmont Place,Danville,24541,(434) 822-0300
45053,45053,Haley Toyota of Roanoke,https://www.haleytoyotaofroanoke.com,80,VA,37.285418,-79.937212,"1530 Courtland Road, N.E.",Roanoke,24012,(540) 345-1666
45055,45055,Ourisman Fairfax Toyota,https://www.ourismanfairfaxtoyota.com,80,VA,38.860483,-77.300183,10287 Fairfax Boulevard,Fairfax,22030,(703) 359-1010
45057,45057,Haley Toyota of Richmond,https://www.haleytoyota.com,80,VA,37.426312,-77.624762,3600 Lonas Parkway,Midlothian,23112,(804) 545-7411
45070,45070,Steven Toyota,https://www.steventoyota.com,80,VA,38.413861,-78.899895,2970 South Main St.,Harrisonburg,22801,(540) 434-1400
45074,45074,Mechanicsville Toyota,https://www.mechanicsvilletoyota.com,80,VA,37.613363,-77.3349,6546 Mechanicsville Pike,Mechanicsville,23111,(804) 559-8000
45076,45076,Casey Toyota,https://www.caseytoyota.com,80,VA,37.350595,-76.733408,601 East Rochambeau Drive,Williamsburg,23188,(757) 259-1000
45077,45077,Haley Toyota of Farmville,https://www.haleytoyotafarmville.com,80,VA,37.275376,-78.399684,1906 S. Main Street,Farmville,23901,(434) 392-8166
45079,45079,Ourisman Chantilly Toyota,https://www.ourismanchantillytoyota.com,80,VA,38.904777,-77.461385,4135 Auto Park Circle,Chantilly,20151,(703) 378-2121
45080,45080,First Team Toyota,https://www.firstteamtoyota.com,80,VA,36.865721,-76.415474,3400 Western Branch Boulevard,Chesapeake,23321,(757) 673-2345
45082,45082,Loyalty Toyota,https://www.loyaltytoyotarichmond.com,80,VA,37.306701,-77.394079,2000 Walthall Center Dr.,Chester,23831,(804) 796-1800
45083,45083,AutoNation Toyota Leesburg,https://www.autonationtoyotaleesburg.com,80,VA,39.101158,-77.539629,"1 Cardinal Park Drive, S.E.",Leesburg,20175,(571) 357-3965
45084,45084,Haley Toyota of Richmond CC,https://www.haleycertified.com,80,VA,37.496,-77.5508,8301 Midlothian Pike,Richmond,23235,(804) 228-4000
45085,45085,Berglund Toyota,https://www.berglundtoyota.com,80,VA,37.360769,-79.18004,19018 Forest Road,Lynchburg,24502,(434) 528-3202
45086,45086,Battlefield Toyota,https://www.battlefieldtoyota.com,80,VA,38.458019,-78.047039,11013 James Monroe Hwy.,Culpeper,22701,(540) 317-7800
45087,45087,Nelson Toyota,https://www.toyotasbynelson.com,80,VA,36.740522,-79.95362,980 Fairystone Park Highway,Stanleytown,24168,(276) 638-2386
45088,45088,Warrenton Toyota,https://www.warrentontoyota.com,80,VA,38.732214,-77.771966,6449 Lee Highway,Warrenton,20187,(540) 878-4100
45089,45089,Malloy Toyota,https://www.malloytoyota.com,80,VA,39.1623,-78.182381,400 Weems Lane,Winchester,22601,(540) 678-1791
45091,45091,Sheehy Toyota of Stafford,https://www.sheehytoyotastafford.com,80,VA,38.466705,-77.41115,95 Garrisonville Road,Stafford,22554,(540) 720-4700
45092,45092,Sheehy Toyota of Fredericksburg,https://www.sheehytoyotafredericksburg.com,80,VA,38.270031,-77.49283,11295 Patriot Highway,Fredericksburg,22408,(540) 898-7900
45094,45094,Gloucester Toyota,https://www.gloucestertoyota.com,80,VA,37.375566,-76.534497,6357 George Washington Highway,Gloucester,23061,(804) 693-2100
45095,45095,Hall Toyota Virginia Beach,https://www.halltoyotavirginiabeach.com,80,VA,36.848624,-76.031605,1877 Laskin Road,Virginia Beach,23454,(757) 437-4000
45096,45096,Toyota of Woodbridge,https://www.toyotawoodbridge.com,80,VA,38.642161,-77.265512,14227 Richmond Highway,Woodbridge,22191,(703) 494-1800
45097,45097,Alexandria Toyota,https://www.alexandriatoyota.com,80,VA,38.83936,-77.052836,3750 Richmond Highway,Alexandria,22305,(703) 684-0700
45098,45098,Flow Toyota of Charlottesville,https://www.flowtoyotaofcharlottesville.com,80,VA,38.033282,-78.449385,1357 Richmond Road,Charlottesville,22911,(434) 977-3380
45099,45099,Priority Toyota Springfield,https://www.prioritytoyotaspringfield.com,80,VA,38.753369,-77.182957,7601 Loisdale Road,Springfield,22150,(703) 269-1400
45100,45100,Priority Toyota Chesapeake,https://www.prioritytoyotachesapeake.com,80,VA,36.791416,-76.240595,1800 Greenbrier Parkway,Chesapeake,23320,(757) 366-5000
45102,45102,Classic Toyota of Hampton,https://www.classictoyotahampton.com,80,VA,37.037556,-76.406248,2301 West Mercury Boulevard,Hampton,23666,(757) 838-5000
45103,45103,Ourisman Toyota of Richmond,https://www.ourismantoyotaofrichmond.com,80,VA,37.637461,-77.553081,9319 West Broad Street,Richmond,23294,(804) 755-9200
45104,45104,Koons Toyota Tysons,https://www.koonstoyotatysonscorner.com,80,VA,38.932267,-77.243883,8610 Leesburg Pike,Vienna,22182,(888) 386-0017
45105,45105,Koons Toyota Arlington,https://www.koonstoyotaarlington.com,80,VA,38.897098,-77.109169,4045 Cherry Hill Road,Arlington,22207,(703) 522-6000
46003,46003,Doxon Toyota,https://www.doxontoyota.com,13,WA,47.33815,-122.222703,3405 N. Auburn Way,Auburn,98002,(253) 833-4555
46009,46009,Rodland Toyota,https://www.rodlandtoyota.com,13,WA,47.935633,-122.219647,6816 Evergreen Way,Everett,98203,(425) 353-1111
46013,46013,Toyota of Olympia,https://www.toyotaofolympia.com,13,WA,46.987461,-122.92325,6969 Tyee Drive SW,Tumwater,98512,(360) 539-3939
46042,46042,Toyota of Puyallup,https://www.toyotaofpuyallup.com,13,WA,47.2035,-122.312883,1400 River Road,Puyallup,98371,(253) 286-6000
46061,46061,Wilder Toyota,https://www.wildertoyota.com,13,WA,48.103133,-123.343363,43 Jetta Way,Port Angeles,98362,(360) 457-8511
46067,46067,Titus-Will Toyota,https://www.tituswilltoyota.com,13,WA,47.22693,-122.46449,3506 S Sprague Avenue,Tacoma,98409,(253) 475-4151
46071,46071,Vancouver Toyota,https://www.vancouvertoyota.com,13,WA,45.660082,-122.567999,10455 NE 53rd Street,Vancouver,98662,(360) 253-4440
46073,46073,I-5 Toyota,https://www.i-5toyota.com,13,WA,46.683222,-122.972753,1950 NW Louisiana Avenue,Chehalis,98532,(360) 740-9300
46076,46076,Burien Toyota,https://www.burientoyota.com,13,WA,47.467983,-122.334262,15025 First Avenue South,Burien,98148,(206) 243-0700
46078,46078,Foothills Toyota,https://www.foothillstoyota.com,13,WA,48.44981,-122.34566,1881 Bouslog Road,Burlington,98233,(360) 757-7575
46080,46080,Town Toyota,https://www.towntoyota.com,13,WA,47.399751,-120.27935,"500 3rd Street, S.E.",East Wenatchee,98802,(509) 888-5000
46081,46081,Five Star Toyota,https://www.fivestartoyota.com,13,WA,46.967507,-123.802026,212 South Boone Street,Aberdeen,98520,(360) 532-0650
46086,46086,Toyota of Seattle,https://www.toyotaofseattle.com,13,WA,47.585787,-122.322097,1925 Airport Way South,Seattle,98134,(206) 382-4300
46087,46087,Heartland Toyota,https://www.heartlandtoyota.com,13,WA,47.555795,-122.676489,901 West Hills Blvd.,Bremerton,98312,(360) 377-1200
46088,46088,Toyota of Tacoma,https://www.toyotaoftacoma.com,13,WA,47.186083,-122.482817,7815 South Tacoma Way,Tacoma,98409,(253) 475-4816
46089,46089,Toyota of Kirkland,https://www.toyotaofkirkland.com,13,WA,47.711752,-122.165779,13210 NE 124th St,Kirkland,98034,(425) 814-9696
46092,46092,AutoNation Toyota Spokane Valley,https://www.autonationtoyotaspokanevalley.com,13,WA,47.656648,-117.289565,8600 East Sprague Avenue,Spokane Valley,99212,(509) 850-9359
46093,46093,Dick Hannah Toyota,https://www.dickhannahtoyota.com,13,WA,46.107897,-122.883305,2632 Coweeman Park Drive,Kelso,98626,(360) 425-2730
46094,46094,Toyota of Lake City,https://www.toyotaoflakecity.com,13,WA,47.726283,-122.2926,"13355 Lake City Way, N.E.",Seattle,98125,(206) 367-0080
46095,46095,Bud Clary Toyota of Yakima,https://www.budclarytoyotaofyakima.com,13,WA,46.564034,-120.497337,2230 Longfibre Road,Union Gap,98903,(509) 575-4868
46098,46098,Bud Clary Toyota of Moses Lake,https://www.budclarytoyotaofmoseslake.com,13,WA,47.099169,-119.234243,12056 N. Frontage Rd East,Moses Lake,98837,(509) 765-4517
46100,46100,Toyota of Pullman,https://www.toyotaofpullman.com,13,WA,46.738183,-117.061781,8683 SR-270,Pullman,99163,(509) 872-3600
46101,46101,Toyota of Renton,https://www.toyotaofrenton.com,13,WA,47.474067,-122.219282,150 SW 7th Street,Renton,98057,(425) 228-4700
46104,46104,Marysville Toyota,https://marysvilletoyota.com,13,WA,48.142531,-122.183359,16120 Smokey Point Blvd.,Marysville,98271,(360) 651-0200
46106,46106,Colville Toyota,https://www.colvilletoyota.com,13,WA,48.546338,-117.906554,160 W. Third Avenue,Colville,99114,(509) 684-6251
46107,46107,Walla Walla Toyota,https://www.wallawallatoyota.com,13,WA,46.078869,-118.304187,606 N. Wilbur Avenue,Walla Walla,99362,(509) 525-1920
46108,46108,Michael's Toyota of Bellevue,https://www.toyotaofbellevue.com,13,WA,47.5817,-122.141452,3080 148th Ave.SE Ste. A,Bellevue,98007,(425) 455-9500
46109,46109,Swickard Toyota,https://www.swickardtoyota.com,13,WA,47.8061,-122.327657,21300 Highway 99 South,Edmonds,98026,(425) 775-4422
46110,46110,Findlay Toyota Spokane,https://www.findlaytoyotaspokane.com,13,WA,47.653682,-117.428513,1128 West Third Avenue,Spokane,99201,(509) 455-8770
46111,46111,Toyota of Bellingham,https://www.toyotaofbellingham.com,13,WA,48.755065,-122.459948,1100 Iowa Street,Bellingham,98229,(360) 676-0600
46112,46112,Toyota of Tri-Cities,https://www.toyotaoftricities.com,13,WA,46.226215,-119.206186,6321 W. Canal Drive,Kennewick,99336,(509) 736-9900
47012,47012,Superior Toyota,https://www.superiortoyotawv.com,80,WV,39.268278,-81.514403,3101 E 7th Street,Parkersburg,26101,(304) 424-5122
47018,47018,Ramey Toyota,https://www.rameytoyota.com,80,WV,37.341841,-81.125939,135 Frazier Drive,Princeton,24740,(304) 487-2279
47025,47025,L & S Toyota of Beckley,https://www.lstoyotabeckley.com,80,WV,37.805426,-81.185166,248 Auto Plaza,Beckley,25801,(304) 252-8548
47027,47027,Buckhannon Toyota,https://www.buckhannontoyota.com,80,WV,38.998883,-80.25322,63 Brushy Fork Road,Buckhannon,26201,(304) 472-7200
47029,47029,Dan Cava's Toyota World,https://www.cavatoyota.com,80,WV,39.433141,-80.188289,2510 White Hall Boulevard,White Hall,26554,(304) 366-2720
47030,47030,Moses Toyota,https://www.mosestoyota.com,80,WV,38.387736,-81.827321,1433 MacCorkle Avenue,Saint Albans,25177,(304) 727-7777
47033,47033,Thornhill Toyota,https://www.thornhilltoyotawv.com,80,WV,37.981765,-81.993041,63 Admiral Road,Chapmanville,25508,(304) 855-8200
47034,47034,CMA's Toyota of Martinsburg,https://www.cmastoyotaofmartinsburg.com,80,WV,39.456903,-77.98679,650 Foxcroft Avenue,Martinsburg,25401,(304) 263-3341
47035,47035,Victory Toyota Highlands,https://www.victorytoyotahighlands.com,80,WV,40.063164,-80.586254,55 Robinson Drive,Triadelphia,26059,(304) 232-1880
47036,47036,Moses Toyota of Morgantown,https://www.mosestoyotaofmorgantown.com,80,WV,39.60773,-79.967852,60 Don Knotts Blvd.,Morgantown,26508,(304) 296-4401
47037,47037,Victory Toyota Barboursville,https://www.victorytoyotabarboursville.com,80,WV,38.415122,-82.259474,1 Superior Way,Barboursville,25504,(304) 736-5400
47038,47038,Victory Toyota Charleston,https://www.victorytoyotacharleston.com,80,WV,38.370629,-81.671648,1905 Patrick Street Plaza,Charleston,25387,(304) 513-3777
47039,47039,Parkersburg Toyota,https://www.parkersburgtoyota.com,9999,WV,39.268278,-81.514403,3101 E 7th Street,Parkersburg,26101,(304) 424-5122
48005,48005,Le Mieux & Son Toyota,https://www.lemieuxtoyota.com,9999,WI,44.48136,-88.071172,2550 South Oneida Street,Green Bay,54304,(920) 496-2200
48021,48021,Kari Toyota,https://www.karitoyota.com,21,WI,46.726434,-92.102988,1002 Tower Avenue,Superior,54880,(715) 394-4429
48027,48027,Markquart Toyota,https://www.markquarttoyota.com,21,WI,44.870127,-91.425717,1844 Commercial Blvd.,Chippewa Falls,54729,(715) 834-4440
48028,48028,Kolosso Toyota,https://www.kolossotoyota.com,21,WI,44.273612,-88.451281,3000 W. Wisconsin Avenue,Appleton,54914,(920) 738-3666
48032,48032,Don Jacobs Toyota,https://www.donjacobstoyota.com,21,WI,42.940583,-87.949823,5727 S. 27th Street,Milwaukee,53221,(414) 281-3100
48036,48036,Heiser Toyota,https://www.heisertoyota.com,9999,WI,43.143642,-88.053221,11301 West Metro Auto Mall,Milwaukee,53224,(414) 357-2100
48045,48045,Hesser Toyota,https://www.hessertoyota.com,21,WI,42.722142,-89.0018,1811 Humes Road,Janesville,53545,(608) 754-7754
48046,48046,Mark Toyota of Plover,https://www.marktoyota.com,21,WI,44.45289,-89.52055,1765 Park Avenue,Plover,54467,(715) 342-5040
48049,48049,Russ Darrow Toyota,https://www.russdarrowtoyota.com,9999,WI,43.427536,-88.220008,2700 W. Washington St.,West Bend,53095,(262) 334-9411
48051,48051,Bergstrom Toyota,https://www.bergstromtoyota.com,9999,WI,43.979294,-88.584287,3245 S. Washburn Street,Oshkosh,54904,(920) 966-1616
48053,48053,Ruda Chevrolet/Toyota,https://www.rudatoyota.com,21,WI,42.603242,-89.6584,104 Eighth Street,Monroe,53566,(608) 325-7770
48059,48059,LeadCar Toyota Wausau,https://www.leadcartoyotawausau.com,21,WI,44.998022,-89.664037,2900 N. 20th Avenue,Wausau,54401,(715) 675-7775
48060,48060,LeadCar Toyota La Crosse,https://www.leadcartoyotalacrosse.com,21,WI,43.805287,-91.253808,800 Third Street South,La Crosse,54601,(608) 793-7000
48061,48061,East Madison Toyota,https://eastmadisontoyota.com,21,WI,43.13989,-89.28968,3501 Lancaster Drive,Madison,53718,(608) 240-7900
48064,48064,International Toyota,https://www.internationaltoyota.com,21,WI,43.756971,-87.762033,4120 N. Frontage Road,Sheboygan,53081,(920) 458-6171
48065,48065,Toyota of Brookfield,https://www.toyotaofbrookfield.com,21,WI,43.08565,-88.168629,20655 West Capitol Drive,Brookfield,53045,(262) 781-2626
48066,48066,Rhinelander Toyota,https://www.rhinelandertoyota.com,21,WI,45.656976,-89.383027,1955 North Stevens Street,Rhinelander,54501,(715) 365-8696
48067,48067,Kenosha Toyota,https://www.kenoshatoyota.com,21,WI,42.558075,-87.954257,8180 120th Avenue,Kenosha,53142,(262) 857-1700
48068,48068,Zeigler Toyota of Racine,https://www.zeiglertoyotaracine.com,21,WI,42.726366,-87.952016,13350 Kilbourn Drive,Mount Pleasant,53177,(262) 886-5111
48069,48069,Marthaler Toyota of Ashland,https://www.ashland-toyota.com,21,WI,46.605203,-90.856043,2301 Lakeshore Drive East,Ashland,54806,(715) 682-5252
48070,48070,Wilde Toyota,https://www.wildetoyota.com,21,WI,42.9845,-88.04776,3225 South 108th Street,West Allis,53227,(414) 545-8010
48071,48071,Smart Motors Toyota,https://www.smarttoyota.com,21,WI,43.05102,-89.48171,5901 Odana Road,Madison,53719,(608) 275-7808
48072,48072,Umansky Toyota,https://www.umanskytoyota.com,9999,WI,43.11941,-87.93062,1620 W. Silver Spring Dr.,Glendale,53209,(414) 228-1450
48073,48073,Dahl Toyota Sheboygan,https://www.dahltoyotasheboygan.com,9999,WI,43.756971,-87.762033,4120 N. Frontage Road,Sheboygan,53081,(920) 458-6171
48075,48075,Kolosso Toyota,https://www.kolossotoyota.com,9999,WI,44.273612,-88.451281,3000 W. Wisconsin Avenue,Appleton,54914,(920) 738-3666
49025,49025,Rock Springs Toyota,https://www.rockspringstoyota.com,15,WY,41.590307,-109.225613,401 N. Center Street,Rock Springs,82901,(307) 362-5015
49029,49029,Fremont Toyota,https://www.fremonttoyotalander.com,15,WY,42.844429,-108.748,103 Fremont Way,Lander,82520,(307) 332-5011
49030,49030,Fremont Toyota of Sheridan,https://www.fremonttoyotasheridan.com,15,WY,44.780704,-106.942888,1614 Coffeen Avenue,Sheridan,82801,(307) 674-4423
49031,49031,Toyota of Laramie,https://www.toyotaoflaramie.com,15,WY,41.309167,-105.56293,2310 East Grand Avenue,Laramie,82070,(307) 742-7423
49032,49032,Yellowstone Toyota,https://www.yellowstonetoyota.com,15,WY,44.74696,-108.77475,1105 W. Coulter Avenue,Powell,82435,(307) 754-5400
49033,49033,Ken Garff Toyota Cheyenne,https://www.kengarfftoyotacheyenne.com,15,WY,41.13181,-104.839328,2300 Westland Road,Cheyenne,82001,(307) 757-2000
49034,49034,Vista Toyota,https://www.vistatoyotawy.com,15,WY,42.842358,-106.232918,6280 E. 2nd Street,Casper,82609,(307) 237-3700
50012,50012,Kendall Toyota of Anchorage,https://www.kendalltoyotaofanchorage.com,13,AK,61.157755,-149.865692,6930 Old Seward Highway,Anchorage,99518,(907) 279-8506
50013,50013,Kendall Toyota of Fairbanks,https://www.kendalltoyotaoffairbanks.com,13,AK,64.853266,-147.748194,1000 Cadillac Court,Fairbanks,99701,(907) 456-6217
50014,50014,Juneau Toyota,https://www.juneautoyota.com,13,AK,58.36115,-134.57431,8602 Teal Street,Juneau,99801,(907) 789-1386
54002,54002,Swickard Toyota 101,https://www.swickardtoyota101.com,12,CA,37.49489,-122.230871,386 Convention Way,Redwood City,94063,(650) 365-5000
54024,54024,Modesto Toyota,https://www.modestotoyota.com,12,CA,37.70514,-120.99519,4513 McHenry Avenue,Modesto,95356,(209) 529-2933
54032,54032,Maverick Toyota,https://www.MaverickToyota.com,9999,CA,32.739737,-117.052313,6800 Federal Boulevard,Lemon Grove,91945,(619) 287-2400
54037,54037,Toyota of Corona,https://www.CoronaToyota.com,9999,CA,33.878384,-117.599106,1700 West 6th Street,Corona,92882,(951) 734-6020
54041,54041,Toyota Carlsbad,https://www.toyotacarlsbad.com,9999,CA,33.132685,-117.326399,5424 Paseo Del Norte,Carlsbad,92008,(760) 438-2000
54042,54042,Wondries Toyota,https://www.wondriestoyota.com,9999,CA,34.09172,-118.139042,1439 West Main Street,Alhambra,91801,(626) 289-8000
